OBJECTID_1,ID,NAME,TELEPHONE,ADDRESS,ADDRESS2,CITY,STATE,ZIP,ZIPP4,COUNTY,FIPS,DIRECTIONS,EMERGTITLE,EMERGTEL,EMERGEXT,CONTDATE,CONTHOW,GEODATE,GEOHOW,HSIPTHEMES,NAICSCODE,NAICSDESCR,GEOLINKID,X,Y,ST_VENDOR,ST_VERSION,GEOPREC,PHONELOC,QC_QA,PORT_TYPE,BORDPATSEC,CONTACT,FAX_NUMBER,HOURS_OPER,REMARK,RULEID,OBJECTID
1,0,"WEST PALM BEACH PORT OF ENTRY, WEST PALM BEACH INTERNATIONAL AIRPORT",561-233-1080,1612 PERIMETER ROAD,GENERAL AVIATION FACILITY,WEST PALM BEACH,FL,33406,1422,PALM BEACH,12099, , , , ,2009-09-16T00:00:00.000Z,PHONE,2009-09-16T00:00:00.000Z,MANUAL,"MISCELLANEOUS; OTHER; BORDER CROSSINGS AND PORTS OF ENTRY",921130,CUSTOMS BUREAUS,134927891,-80.0927555,26.6784659,NAVTEQ,2009Q2,ONENTITY,YES,TGS,AIRPORT, ,PORT DIRECTOR,561-844-5576, , ,1,57
2,1,"JOHN FITZGERALD KENNEDY INTERNATIONAL AIRPORT PORT OF ENTRY, JOHN FITZGERALD KENNEDY INTERNATIONAL AIRPORT",718-487-5164,JOHN FITZGERALD KENNEDY EXPRESSWAY AND SOUTH CARGO ROAD, ,JAMAICA,NY,11430, ,QUEENS,36081, , , , ,2009-09-14T00:00:00.000Z,ALT REF,2009-09-14T00:00:00.000Z,MANUAL,"MISCELLANEOUS; OTHER; BORDER CROSSINGS AND PORTS OF ENTRY",921130,CUSTOMS BUREAUS,21657741,-73.7819503,40.6434831,NAVTEQ,2009Q2,ONENTITY, ,TGS,AIRPORT, ,PORT DIRECTOR, ,8:00 AM - 5:00 PM,1-877-CUSTOMS,1,131
3,2,"WILMINGTON PORT OF ENTRY, WILMINGTON MARINE TERMINAL",302-326-0600,1 HAUSEL ROAD,WAREHOUSE G,WILMINGTON,DE,19801,5800,NEW CASTLE,10003, , , , ,2009-09-18T00:00:00.000Z,PHONE,2009-09-18T00:00:00.000Z,MANUAL,"MISCELLANEOUS; OTHER; BORDER CROSSINGS AND PORTS OF ENTRY",921130,CUSTOMS BUREAUS,18843519,-75.5284687,39.7140325,NAVTEQ,2009Q2,ONENTITY,NO,TGS,WATER PORT, ,PORT DIRECTOR,302-326-0828,8:00 AM - 5:00 PM,1-877-CUSTOMS,1,38
4,3,"MASCOUTAH/MIDAMERICA/SAINT LOUIS PORT OF ENTRY, MIDAMERICA SAINT LOUIS AIRPORT",618-566-5341,8810 RICHARD BRAUER ROAD, ,MASCOUTAH,IL,62258,5506,ST CLAIR,17163, , , , ,2009-09-14T00:00:00.000Z,ALT REF,2009-09-18T00:00:00.000Z,MANUAL,"MISCELLANEOUS; OTHER; BORDER CROSSINGS AND PORTS OF ENTRY",921130,CUSTOMS BUREAUS,33305507,-89.8188137,38.5493455,NAVTEQ,2009Q2,ONENTITY, ,TGS,AIRPORT, , , , , ,0,0
5,4,"NOME PORT OF ENTRY, NOME AIRPORT",907-443-5846,SEPPALA DRIVE, ,NOME,AK,99762, ,NOME,02180, , , , ,2009-09-17T00:00:00.000Z,ALT REF,2010-01-11T00:00:00.000Z,MANUAL,"MISCELLANEOUS; OTHER; BORDER CROSSINGS AND PORTS OF ENTRY",921130,CUSTOMS BUREAUS,124850302,-165.4415864,64.5077792,NAVTEQ,2009Q2,ONENTITY, ,TGS,AIRPORT, , , , , ,0,0
6,5,"MOREHEAD CITY-BEAUFORT PORT OF ENTRY, PORT OF MOREHEAD CITY",252-726-5845,113 ARENDELL STREET, ,MOREHEAD CITY,NC,28557,4268,CARTERET,37031, , , , ,2009-09-15T00:00:00.000Z,PHONE,2009-09-15T00:00:00.000Z,MANUAL,"MISCELLANEOUS; OTHER; BORDER CROSSINGS AND PORTS OF ENTRY",921130,CUSTOMS BUREAUS,102106565,-76.7035625,34.7202222,NAVTEQ,2009Q2,ONENTITY,YES,TGS,WATER PORT, ,PORT DIRECTOR,919-726-6159,8:00 AM - 5:00 PM,1-877-CUSTOMS,1,112
7,6,"WRANGELL PORT OF ENTRY, WRANGELL AIRPORT",907-874-3415,1300 AIRPORT LOOP ROAD, ,WRANGELL,AK,99929, ,WRANGELL-PETERSBURG,02280, , , , ,2009-09-16T00:00:00.000Z,ALT REF,2010-01-11T00:00:00.000Z,MANUAL,"MISCELLANEOUS; OTHER; BORDER CROSSINGS AND PORTS OF ENTRY",921130,CUSTOMS BUREAUS,721684051,-132.379703,56.4851941,NAVTEQ,2009Q2,ONENTITY, ,TGS,AIRPORT, ,PORT DIRECTOR,907-874-3415, , ,1,14
8,7,"KANSAS CITY PORT OF ENTRY, KANSAS CITY INTERNATIONAL AIRPORT",816-243-3676,601 BRASILIA AVENUE, ,KANSAS CITY,MO,64153,2054,PLATTE,29165, , , , ,2009-09-15T00:00:00.000Z,ALT REF,2009-09-15T00:00:00.000Z,MANUAL,"MISCELLANEOUS; OTHER; BORDER CROSSINGS AND PORTS OF ENTRY",921130,CUSTOMS BUREAUS,25041843,-94.7126318,39.2931377,NAVTEQ,2009Q2,ONENTITY, ,TGS,AIRPORT, ,PORT DIRECTOR,816-584-8431,8:00 AM - 4:30 PM, ,1,103
9,8,"GLOUCESTER PORT OF ENTRY, GLOUCESTER HARBOR",978-921-0782,19 HARBOR LOOP, ,GLOUCESTER,MA,01930,5003,ESSEX,25009, , , , ,2010-01-11T00:00:00.000Z,PHONE,2010-01-11T00:00:00.000Z,MANUAL,"MISCELLANEOUS; OTHER; BORDER CROSSINGS AND PORTS OF ENTRY",921130,CUSTOMS BUREAUS,42668497,-70.6590283,42.6109652,NAVTEQ,2009Q2,ONENTITY,NO,TGS,WATER PORT, ,PORT DIRECTOR,978-282-4678,8:00 AM - 4:30 PM, ,1,87
10,9,"ANCHORAGE PORT OF ENTRY, PORT OF ANCHORAGE",907-271-2675,2000 ANCHORAGE PORT ROAD, ,ANCHORAGE,AK,99501,1024,ANCHORAGE,02020, , , , ,2010-01-06T00:00:00.000Z,PHONE,2010-01-11T00:00:00.000Z,MANUAL,"MISCELLANEOUS; OTHER; BORDER CROSSINGS AND PORTS OF ENTRY",921130,CUSTOMS BUREAUS,124870105,-149.8884372,61.2390949,NAVTEQ,2009Q2,ONENTITY,NO,TGS,WATER PORT, ,PORT DIRECTOR,907-271-2684,8:00 AM - 4:30 PM, ,1,8
11,10,"SAN DIEGO PORT OF ENTRY, PORT OF SAN DIEGO",619-685-4300,1140 NORTH HARBOR DRIVE, ,SAN DIEGO,CA,92101,3365,SAN DIEGO,06073, , , , ,2010-01-08T00:00:00.000Z,PHONE,2010-01-08T00:00:00.000Z,MANUAL,"MISCELLANEOUS; OTHER; BORDER CROSSINGS AND PORTS OF ENTRY",921130,CUSTOMS BUREAUS,732876223,-117.174987,32.7176878,NAVTEQ,2009Q2,ONENTITY,NO,TGS,WATER PORT, , , , , ,0,0
12,11,"CHICAGO PORT OF ENTRY, PORT OF CHICAGO",847-928-3000,3600 EAST 95TH STREET, ,CHICAGO,IL,60617,5100,COOK,17031, , , , ,2010-01-08T00:00:00.000Z,PHONE,2010-01-08T00:00:00.000Z,MANUAL,"MISCELLANEOUS; OTHER; BORDER CROSSINGS AND PORTS OF ENTRY",921130,CUSTOMS BUREAUS,108741170,-87.5352506,41.7235743,NAVTEQ,2009Q2,ONENTITY,NO,TGS,WATER PORT, , , , , ,0,0
13,12,"SAVANNAH PORT OF ENTRY, PORT OF SAVANNAH",912-447-9400,950 WEST RIVER STREET, ,SAVANNAH,GA,31401,1132,CHATHAM,13051, , , , ,2010-01-08T00:00:00.000Z,PHONE,2010-01-08T00:00:00.000Z,MANUAL,"MISCELLANEOUS; OTHER; BORDER CROSSINGS AND PORTS OF ENTRY",921130,CUSTOMS BUREAUS,778155973,-81.1072164,32.0909718,NAVTEQ,2009Q2,ONENTITY,NO,TGS,WATER PORT, , , , , ,0,0
14,13,"ALBANY PORT OF ENTRY, PORT OF ALBANY",518-465-9530,106 SMITH BOULEVARD, ,ALBANY,NY,12202,1067,ALBANY,36001, , , , ,2010-01-11T00:00:00.000Z,PHONE,2010-01-11T00:00:00.000Z,MANUAL,"MISCELLANEOUS; OTHER; BORDER CROSSINGS AND PORTS OF ENTRY",921130,CUSTOMS BUREAUS,774449680,-73.7580236,42.6263063,NAVTEQ,2009Q2,ONENTITY,YES,TGS,WATER PORT, , , , , ,0,0
15,14,"PASCAGOULA PORT OF ENTRY, PORT OF PASCAGUOULA",228-762-7311,535 DELMAS AVENUE,SUITE 2,PASCAGOULA,MS,39567,4143,JACKSON,28059, , , , ,2009-09-15T00:00:00.000Z,PHONE,2009-09-15T00:00:00.000Z,MANUAL,"MISCELLANEOUS; OTHER; BORDER CROSSINGS AND PORTS OF ENTRY",921130,CUSTOMS BUREAUS,99422964,-88.559104,30.3671512,NAVTEQ,2009Q2,ONENTITY,YES,TGS,WATER PORT, ,PORT DIRECTOR,228-762-7502,8:00 AM - 5:00 PM, ,1,108
16,15,"DETROIT PORT OF ENTRY, PORT OF MONROE",313-226-3136,2929 EAST FRONT STREET, ,MONROE,MI,48161,1972,MONROE,26115, , , , ,2010-01-07T00:00:00.000Z,PHONE,2010-01-07T00:00:00.000Z,MANUAL,"MISCELLANEOUS; OTHER; BORDER CROSSINGS AND PORTS OF ENTRY",921130,CUSTOMS BUREAUS,46758233,-83.3559094,41.8999607,NAVTEQ,2009Q2,ONENTITY, ,TGS,WATER PORT, , , , , ,0,0
17,16,"JUNEAU PORT OF ENTRY, JUNEAU SEAPORT",907-586-7108,470 SOUTH FRANKLIN STREET, ,JUNEAU,AK,99801,1328,JUNEAU,02110, , , , ,2009-12-21T00:00:00.000Z,PHONE,2009-12-21T00:00:00.000Z,MANUAL,"MISCELLANEOUS; OTHER; BORDER CROSSINGS AND PORTS OF ENTRY",921130,CUSTOMS BUREAUS,716819866,-134.4008801,58.2962793,NAVTEQ,2009Q2,ONENTITY,YES,TGS,WATER PORT, , , , , ,0,0
18,17,"KONA PORT OF ENTRY, KONA INTERNATIONAL AIRPORT AT KEAHOLE",808-334-1850,73-100 KUPIPI STREET, ,KAILUA/KONA,HI,96740,2644,HAWAII,15001, , , , ,2009-09-11T00:00:00.000Z,ALT REF,2009-09-11T00:00:00.000Z,MANUAL,"MISCELLANEOUS; OTHER; BORDER CROSSINGS AND PORTS OF ENTRY",921130,CUSTOMS BUREAUS,115751244,-156.040811,19.7393644,NAVTEQ,2009Q2,ONENTITY, ,TGS,AIRPORT, ,PORT DIRECTOR, , , ,1,218
19,18,"WINSTON-SALEM PORT OF ENTRY, PIEDMONT TRIAD INTERNATIONAL AIRPORT",336-668-7272,6415 BRYAN BOULEVARD, ,GREENSBORO,NC,27409,9449,GUILFORD,37081, , , , ,2009-09-15T00:00:00.000Z,PHONE,2009-09-21T00:00:00.000Z,MANUAL,"MISCELLANEOUS; OTHER; BORDER CROSSINGS AND PORTS OF ENTRY",921130,CUSTOMS BUREAUS,721680471,-79.9365363,36.105312,NAVTEQ,2009Q2,ONENTITY,NO,TGS,AIRPORT, ,PORT DIRECTOR,336-668-7364,8:00 AM - 5:00 PM,1-877-CUSTOMS,1,117
20,19,"CAPE CANAVERAL PORT OF ENTRY, PORT CANAVERAL",321-783-2066,120 GEORGE J KING BOULEVARD, ,CAPE CANAVERAL,FL,32920,3302,BREVARD,12009, , , , ,2009-09-16T00:00:00.000Z,PHONE,2009-09-16T00:00:00.000Z,MANUAL,"MISCELLANEOUS; OTHER; BORDER CROSSINGS AND PORTS OF ENTRY",921130,CUSTOMS BUREAUS,117117153,-80.6064703,28.4053697,NAVTEQ,2009Q2,ONENTITY,YES,TGS,WATER PORT, ,PORT DIRECTOR,321-799-5474,8:00 AM - 5:00 PM, ,1,39
21,20,"SACRAMENTO PORT OF ENTRY, SACRAMENTO INTERNATIONAL AIRPORT",916-649-3671,6910 AIRPORT BOULEVARD, ,SACRAMENTO,CA,95837,1130,SACRAMENTO,06067, , , , ,2009-09-15T00:00:00.000Z,PHONE,2009-09-15T00:00:00.000Z,MANUAL,"MISCELLANEOUS; OTHER; BORDER CROSSINGS AND PORTS OF ENTRY",921130,CUSTOMS BUREAUS,24445539,-121.5917147,38.6936843,NAVTEQ,2009Q2,ONENTITY,YES,TGS,AIRPORT, ,PORT DIRECTOR, , , ,1,214
22,21,"OWENSBORO / EVANSVILLE PORT OF ENTRY, OWENSBORO DAVIESS COUNTY REGIONAL AIRPORT",270-685-4179,2200 AIRPORT ROAD, ,OWENSBORO,KY,42301,9488,DAVIESS,21059, , , , ,2009-09-11T00:00:00.000Z,ALT REF,2009-09-11T00:00:00.000Z,MANUAL,"MISCELLANEOUS; OTHER; BORDER CROSSINGS AND PORTS OF ENTRY",921130,CUSTOMS BUREAUS,778617345,-87.1631827,37.7464315,NAVTEQ,2009Q2,ONENTITY, ,TGS,AIRPORT, ,PORT DIRECTOR,812-465-6413, , ,1,77
23,22,"CHARLOTTE AMALIE AREA PORT OF SAINT THOMAS PORT OF ENTRY, CYRIL E KING AIRPORT",340-774-4554,AIRPORT ROAD, ,CHARLOTTE AMALIE,VI,00802, ,ST THOMAS ISLAND,78030, , , , ,2009-09-17T00:00:00.000Z,PHONE,2009-09-17T00:00:00.000Z,MANUAL,"MISCELLANEOUS; OTHER; BORDER CROSSINGS AND PORTS OF ENTRY",921130,CUSTOMS BUREAUS,120296425,-64.971499,18.3352471,NAVTEQ,2009Q2,ONENTITY,YES,TGS,AIRPORT, , , , , ,0,0
24,23,"PORT OF ENTRY AT MEDFORD, ROGUE VALLEY INTERNATIONAL-MEDFORD AIRPORT",541-776-7222,1000 TERMINAL LOOP PARKWAY, ,MEDFORD,OR,97504, ,JACKSON,41029, , , , ,2009-09-17T00:00:00.000Z,ALT REF,2009-09-17T00:00:00.000Z,MANUAL,"MISCELLANEOUS; OTHER; BORDER CROSSINGS AND PORTS OF ENTRY",921130,CUSTOMS BUREAUS,721477731,-122.8735907,42.3694005,NAVTEQ,2009Q2,ONENTITY, ,TGS,AIRPORT, ,PORT DIRECTOR, ,8:00AM - 4:30PM,EMERGENCY 24 HOUR CONTACT NUMBER (503)326-3515,1,146
25,24,"DETROIT METROPOLITAN AIRPORT PORT OF ENTRY, WILLOW RUN AIRPORT",734-485-6668,801 WILLOW RUN AIRPORT, ,YPSILANTI,MI,48198,0899,WASHTENAW,26161, , , , ,2009-09-11T00:00:00.000Z,ALT REF,2009-09-11T00:00:00.000Z,MANUAL,"MISCELLANEOUS; OTHER; BORDER CROSSINGS AND PORTS OF ENTRY",921130,CUSTOMS BUREAUS,19687605,-83.5460055,42.2369723,NAVTEQ,2009Q2,ONENTITY, ,TGS,AIRPORT, ,PORT DIRECTOR,734-485-6677,4:00 PM - 12:00 AM, ,1,98
26,25,"SEATTLE PORT OF ENTRY/TACOMA WASHINGTON PORT OF ENTRY, JEFFERSON COUNTY INTERNATIONAL AIRPORT",360-385-3777,103 AIRPORT ROAD, ,PORT TOWNSEND,WA,98368,9716,JEFFERSON,53031,"CUSTOMS AND BORDER PROTECTION OFFICERS ARE NOT STATIONED ON SITE, MUST CALL PRIOR TO LANDING.", , , ,2010-01-04T00:00:00.000Z,ALT REF,2010-01-04T00:00:00.000Z,MANUAL,"MISCELLANEOUS; OTHER; BORDER CROSSINGS AND PORTS OF ENTRY",921130,CUSTOMS BUREAUS,121282267,-122.8076246,48.0567038,NAVTEQ,2009Q2,ONENTITY,YES,TGS,AIRPORT, , , , , ,0,0
27,26,"TOLEDO-SANDUSKY PORT OF ENTRY, GRIFFING / SANDUSKY AIRPORT",419-625-0022,3115 CLEVELAND ROAD, ,SANDUSKY,OH,44870,4417,ERIE,39043, , , , ,2009-09-18T00:00:00.000Z,PHONE,2009-09-18T00:00:00.000Z,MANUAL,"MISCELLANEOUS; OTHER; BORDER CROSSINGS AND PORTS OF ENTRY",921130,CUSTOMS BUREAUS,123316867,-82.6536603,41.430346,NAVTEQ,2009Q2,ONENTITY,YES,TGS,AIRPORT, ,PORT DIRECTOR,419-259-3703,8:00 AM - 4:30 PM, ,1,140
28,27,"LITTLE ROCK/LITTLE ROCK NORTH PORT OF ENTRY, ADAMS FIELD AIRPORT",501-324-5289,1100 TEMPLE STREET,AIR CARGO BUILDING,LITTLE ROCK,AR,72202,3300,PULASKI,05119, , , , ,2009-12-29T00:00:00.000Z,PHONE,2009-12-29T00:00:00.000Z,MANUAL,"MISCELLANEOUS; OTHER; BORDER CROSSINGS AND PORTS OF ENTRY",921130,CUSTOMS BUREAUS,126848424,-92.2172093,34.7335289,NAVTEQ,2009Q2,ONENTITY,YES,TGS,AIRPORT, ,PORT DIRECTOR,501-324-5798,8:00 AM - 5:00 PM, ,1,18
29,28,"WEST PALM BEACH PORT OF ENTRY, SAINT LUCIE COUNTY INTERNATIONAL AIRPORT",772-461-1733,2990 CURTIS KING BOULEVARD,GENERAL AVIATION BUILDING,FORT PIERCE,FL,34946,9101,ST LUCIE,12111, , , , ,2009-12-18T00:00:00.000Z,PHONE,2009-12-18T00:00:00.000Z,MANUAL,"MISCELLANEOUS; OTHER; BORDER CROSSINGS AND PORTS OF ENTRY",921130,CUSTOMS BUREAUS,117117734,-80.3656264,27.4882758,NAVTEQ,2009Q2,ONENTITY,YES,TGS,AIRPORT, , , , , ,0,0
30,29,"OMAHA PORT OF ENTRY, EPPLEY AIRFIELD",402-341-0240,5229 BOEING COURT,BUILDING 4310,OMAHA,NE,68110,2661,DOUGLAS,31055, , , , ,2009-09-17T00:00:00.000Z,ALT REF,2009-09-17T00:00:00.000Z,MANUAL,"MISCELLANEOUS; OTHER; BORDER CROSSINGS AND PORTS OF ENTRY",921130,CUSTOMS BUREAUS,42297997,-95.9043917,41.306657,NAVTEQ,2009Q2,ONENTITY, ,TGS,AIRPORT, ,PORT DIRECTOR,402-341-2117,8:00 AM - 4:30 PM, ,1,119
31,30,"NATRONA COUNTY AIRPORT PORT OF ENTRY, CASPER/NATRONA COUNTY INTERNATIONAL AIRPORT",307-797-2097,8500 AIRPORT PARKWAY,SUITE 217,CASPER,WY,82604,1324,NATRONA,56025, , , , ,2009-09-17T00:00:00.000Z,PHONE,2009-09-17T00:00:00.000Z,MANUAL,"MISCELLANEOUS; OTHER; BORDER CROSSINGS AND PORTS OF ENTRY",921130,CUSTOMS BUREAUS,706795841,-106.464594,42.8970926,NAVTEQ,2009Q2,ONENTITY,YES,TGS,AIRPORT, , , , , ,0,0
32,31,"CRUZ BAY-SAINT JOHN PORT OF ENTRY, CRUZ BAY DOCK",340-776-6741,STRAND STREET,CRUZ BAY CUSTOMS HOUSE,SAINT JOHN,VI,00830, ,ST JOHN ISLAND,78020, , , , ,2009-09-17T00:00:00.000Z,PHONE,2009-09-17T00:00:00.000Z,MANUAL,"MISCELLANEOUS; OTHER; BORDER CROSSINGS AND PORTS OF ENTRY",921130,CUSTOMS BUREAUS,120282980,-64.7953529,18.3312728,NAVTEQ,2009Q2,ONENTITY,YES,TGS,WATER PORT, , , , , ,0,0
33,32,"GRAND PORTAGE PORT OF ENTRY, GRAND MARAIS COOK COUNTY AIRPORT",218-475-2244,123 AIRPORT ROAD, ,GRAND MARAIS,MN,55604,2304,COOK,27031,"CUSTOMS AND BORDER PROTECTION OFFICERS ARE NOT STATIONED ON SITE, MUST CALL PRIOR TO LANDING.", , , ,2010-01-08T00:00:00.000Z,PHONE,2010-01-08T00:00:00.000Z,MANUAL,"MISCELLANEOUS; OTHER; BORDER CROSSINGS AND PORTS OF ENTRY",921130,CUSTOMS BUREAUS,100866387,-90.3842657,47.836083,NAVTEQ,2009Q2,ONENTITY,NO,TGS,AIRPORT, , , , , ,0,0
34,33,"CHARLOTTE AMALIE AREA PORT OF SAINT THOMAS PORT OF ENTRY, PORT OF CHARLOTTE AMALIE",340-774-2510,VETERANS DRIVE, ,CHARLOTTE AMALIE,VI,00802, ,ST THOMAS ISLAND,78030, , , , ,2010-01-07T00:00:00.000Z,PHONE,2010-01-07T00:00:00.000Z,MANUAL,"MISCELLANEOUS; OTHER; BORDER CROSSINGS AND PORTS OF ENTRY",921130,CUSTOMS BUREAUS,120281292,-64.9388754,18.3387104,NAVTEQ,2009Q2,ONENTITY,NO,TGS,WATER PORT, , , , , ,0,0
35,34,"HILO PORT OF ENTRY, PORT OF HILO",808-933-6975,29 KUHIO STREET, ,HILO,HI,96720,4726,HAWAII,15001, , , , ,2009-12-30T00:00:00.000Z,PHONE,2010-01-06T00:00:00.000Z,MANUAL,"MISCELLANEOUS; OTHER; BORDER CROSSINGS AND PORTS OF ENTRY",921130,CUSTOMS BUREAUS,115757401,-155.0543369,19.7280577,NAVTEQ,2009Q2,ONENTITY,YES,TGS,WATER PORT, , , , , ,0,0
36,35,"BRUNSWICK PORT OF ENTRY, PORT OF BRUNSWICK",912-262-6692,100 GLOUCESTER STREET, ,BRUNSWICK,GA,31520,7000,GLYNN,13127, , , , ,2010-01-07T00:00:00.000Z,PHONE,2010-01-07T00:00:00.000Z,MANUAL,"MISCELLANEOUS; OTHER; BORDER CROSSINGS AND PORTS OF ENTRY",921130,CUSTOMS BUREAUS,104838358,-81.4975994,31.1480432,NAVTEQ,2009Q2,ONENTITY,NO,TGS,WATER PORT, ,PORT DIRECTOR,912-262-0235,8:00 AM - 5:00 PM,1-877-CUSTOMS,1,59
37,36,"SUMAS PORT OF ENTRY, PORT OF FRIDAY HARBOR",360-378-2080,271 FRONT STREET NORTH, ,FRIDAY HARBOR,WA,98250, ,SAN JUAN,53055, , , , ,2010-01-12T00:00:00.000Z,ALT REF,2010-01-12T00:00:00.000Z,MANUAL,"MISCELLANEOUS; OTHER; BORDER CROSSINGS AND PORTS OF ENTRY",921130,CUSTOMS BUREAUS,119677501,-123.0177123,48.5369093,NAVTEQ,2009Q2,ONENTITY, ,TGS,WATER PORT, , , , , ,0,0
38,37,"EAGLE PASS PORT OF ENTRY, MAVERICK COUNTY MEMORIAL INTERNATIONAL AIRPORT",830-758-5427,1814 INDUSTRIAL BOULEVARD, ,EAGLE PASS,TX,78852,5279,MAVERICK,48323,"CUSTOMS AND BORDER PROTECTION OFFICERS ARE NOT STATIONED ON SITE, MUST CALL PRIOR TO LANDING.", , , ,2010-01-12T00:00:00.000Z,PHONE,2010-01-12T00:00:00.000Z,MANUAL,"MISCELLANEOUS; OTHER; BORDER CROSSINGS AND PORTS OF ENTRY",921130,CUSTOMS BUREAUS,97168919,-100.5254207,28.861555,NAVTEQ,2009Q2,ONENTITY, ,TGS,WATER PORT, , , , , ,0,0
39,38,"WILMINGTON PORT OF ENTRY, DOVER AIR FORCE BASE-DOD",302-677-4098,LA JES STREET, ,DOVER AIR FORCE BASE,DE,19902, ,KENT,10001, , , , ,2010-01-12T00:00:00.000Z,ALT REF,2010-01-12T00:00:00.000Z,MANUAL,"MISCELLANEOUS; OTHER; BORDER CROSSINGS AND PORTS OF ENTRY",921130,CUSTOMS BUREAUS,87953943,-75.4691421,39.1241627,NAVTEQ,2009Q2,ONENTITY, ,TGS,AIRPORT, , , , , ,0,0
40,39,"BELFAST PORT OF ENTRY, BELFAST HARBOR",207-338-3954,1 FRANKLIN STREET, ,BELFAST,ME,04915,6518,WALDO,23027, , , , ,2010-01-12T00:00:00.000Z,PHONE,2010-01-12T00:00:00.000Z,MANUAL,"MISCELLANEOUS; OTHER; BORDER CROSSINGS AND PORTS OF ENTRY",921130,CUSTOMS BUREAUS,90023169,-69.0078076,44.4252479,NAVTEQ,2009Q2,ONENTITY, ,TGS,WATER PORT, ,PORT DIRECTOR,207-338-3954,8:00 AM - 5:00 PM, ,1,94
41,40,"COLUMBUS PORT OF ENTRY / SANTA TERESA PORT OF ENTRY, DONA ANA COUNTY AIRPORT AT SANTA TERESA",575-589-9354,8000 AIRPORT ROAD, ,SANTA TERESA,NM,88008,9719,DONA ANA,35013,"CUSTOMS AND BORDER PROTECTION OFFICERS ARE NOT STATIONED ON SITE, MUST CALL PRIOR TO LANDING.", , , ,2010-01-12T00:00:00.000Z,ALT REF,2010-01-12T00:00:00.000Z,MANUAL,"MISCELLANEOUS; OTHER; BORDER CROSSINGS AND PORTS OF ENTRY",921130,CUSTOMS BUREAUS,716720540,-106.7009444,31.8758584,NAVTEQ,2009Q2,ONENTITY, ,TGS,AIRPORT, , , , , ,0,0
42,41,"DETROIT METROPOLITAN AIRPORT PORT OF ENTRY, DETROIT METROPOLITAN WAYNE COUNTY AIRPORT",734-941-6180,2596 WORLDGATEWAY PLACE,EDWARD H MCNAMARA TERMINAL,DETROIT,MI,48242,6284,WAYNE,26163, , , , ,2009-09-11T00:00:00.000Z,ALT REF,2009-09-11T00:00:00.000Z,MANUAL,"MISCELLANEOUS; OTHER; BORDER CROSSINGS AND PORTS OF ENTRY",921130,CUSTOMS BUREAUS,123189359,-83.3286657,42.2268184,NAVTEQ,2009Q2,ONENTITY, ,TGS,AIRPORT, ,PORT DIRECTOR, , , ,1,207
43,42,"FORT MYERS PORT OF ENTRY, SOUTHWEST FLORIDA INTERNATIONAL AIRPORT",239-561-6205,11000 TERMINAL ACCESS ROAD,SUITE 8636,FORT MYERS,FL,33913,8211,LEE,12071, , , , ,2009-09-15T00:00:00.000Z,ALT REF,2009-09-21T00:00:00.000Z,MANUAL,"MISCELLANEOUS; OTHER; BORDER CROSSINGS AND PORTS OF ENTRY",921130,CUSTOMS BUREAUS,127647427,-81.7553074,26.528008,NAVTEQ,2009Q2,ONENTITY, ,TGS,AIRPORT, ,PORT DIRECTOR,941-561-6218,8:30 AM - 5:00 PM,1-877-CUSTOMS,1,41
44,43,"VICKSBURG PORT OF ENTRY, JACKSON-EVERS INTERNATIONAL AIRPORT",601-932-3324,710 AIRPORT ROAD,"BAY 15, SUITE A",FLOWOOD,MS,39232,3002,RANKIN,28121, , , , ,2009-09-11T00:00:00.000Z,ALT REF,2009-09-21T00:00:00.000Z,MANUAL,"MISCELLANEOUS; OTHER; BORDER CROSSINGS AND PORTS OF ENTRY",921130,CUSTOMS BUREAUS,114378824,-90.0750946,32.3101422,NAVTEQ,2009Q2,ONENTITY, ,TGS,AIRPORT, ,PORT DIRECTOR,606-932-4114,8:00 AM - 4:00 PM, ,1,107
45,44,"LOS ANGELES INTERNATIONAL AIRPORT PORT OF ENTRY, LOS ANGELES INTERNATIONAL AIRPORT",310-215-2618,11099 SOUTH LA CIENEGA BOULEVARD, ,LOS ANGELES,CA,90045,6143,LOS ANGELES,06037, , , , ,2009-09-16T00:00:00.000Z,PHONE,2009-09-15T00:00:00.000Z,MANUAL,"MISCELLANEOUS; OTHER; BORDER CROSSINGS AND PORTS OF ENTRY",921130,CUSTOMS BUREAUS,126490044,-118.3710194,33.9355004,NAVTEQ,2009Q2,ONENTITY,YES,TGS,AIRPORT, ,PORT DIRECTOR,310-215-2013,8:00 AM - 4:30 PM, ,1,25
46,45,"RICHMOND-PETERSBURG PORT OF ENTRY, RICHMOND INTERNATIONAL AIRPORT",804-226-9675,1 RICHARD E BYRD TERMINAL DRIVE, ,RICHMOND,VA,23250,2450,HENRICO,51087, , , , ,2009-09-17T00:00:00.000Z,PHONE,2009-09-18T00:00:00.000Z,MANUAL,"MISCELLANEOUS; OTHER; BORDER CROSSINGS AND PORTS OF ENTRY",921130,CUSTOMS BUREAUS,128060887,-77.3327603,37.5076932,NAVTEQ,2009Q2,ONENTITY,NO,TGS,AIRPORT, ,PORT DIRECTOR,804-226-1197,8:00 AM - 5:00 PM,1-877-CUSTOMS,1,189
47,46,"SANFORD PORT OF ENTRY, ORLANDO SANFORD INTERNATIONAL AIRPORT",407-322-6019,1100 RED CLEVELAND BOULEVARD, ,SANFORD,FL,32773,4201,SEMINOLE,12117, , , , ,2009-09-17T00:00:00.000Z,PHONE,2009-09-16T00:00:00.000Z,MANUAL,"MISCELLANEOUS; OTHER; BORDER CROSSINGS AND PORTS OF ENTRY",921130,CUSTOMS BUREAUS,756374571,-81.2454492,28.7760355,NAVTEQ,2009Q2,ONENTITY,YES,TGS,AIRPORT, ,PORT DIRECTOR,407-330-5825,9:00 AM - 5:00 PM,1-877-CUSTOMS,1,53
48,47,"PHILADELPHIA PORT OF ENTRY, ATLANTIC CITY INTERNATIONAL AIRPORT",609-484-1610,AMELIA EARHART BOULEVARD, ,EGG HARBOR TOWNSHIP,NJ,08234, ,ATLANTIC,34001, , , , ,2009-09-16T00:00:00.000Z,PHONE,2009-09-16T00:00:00.000Z,MANUAL,"MISCELLANEOUS; OTHER; BORDER CROSSINGS AND PORTS OF ENTRY",921130,CUSTOMS BUREAUS,125406193,-74.5725462,39.451243,NAVTEQ,2009Q2,ONENTITY,YES,TGS,AIRPORT, ,PORT DIRECTOR, ,8:00AM - 4:30PM,1-877-CUSTOMS,1,122
49,48,"EUREKA PORT OF ENTRY, PORT OF HUMBOLDT BAY",707-442-4822,317 THIRD STREET,SUITE 6,EUREKA,CA,95501,0487,HUMBOLDT,06023, , , , ,2009-09-17T00:00:00.000Z,PHONE,2009-09-17T00:00:00.000Z,MANUAL,"MISCELLANEOUS; OTHER; BORDER CROSSINGS AND PORTS OF ENTRY",921130,CUSTOMS BUREAUS,91479917,-124.1681717,40.8036154,NAVTEQ,2009Q2,ONENTITY,YES,TGS,WATER PORT, ,PORT DIRECTOR,707-442-0152,8:00 AM - 12:00 PM, ,1,22
50,49,"SUGAR LAND PORT OF ENTRY, SUGAR LAND REGIONAL AIRPORT",281-277-1453,12888 STATE HIGHWAY 6 SOUTH, ,SUGAR LAND,TX,77478, ,FORT BEND,48157, , , , ,2009-09-17T00:00:00.000Z,ALT REF,2009-09-18T00:00:00.000Z,MANUAL,"MISCELLANEOUS; OTHER; BORDER CROSSINGS AND PORTS OF ENTRY",921130,CUSTOMS BUREAUS,129433342,-95.6529152,29.6271649,NAVTEQ,2009Q2,ONENTITY, ,TGS,AIRPORT, , , , , ,0,0
51,50,"MANCHESTER PORT OF ENTRY, MANCHESTER-BOSTON REGIONAL AIRPORT",603-628-6264,1 AIRPORT ROAD,OLD TERMINAL,MANCHESTER,NH,03103,7450,HILLSBOROUGH,33011, , , , ,2009-09-11T00:00:00.000Z,ALT REF,2009-09-11T00:00:00.000Z,MANUAL,"MISCELLANEOUS; OTHER; BORDER CROSSINGS AND PORTS OF ENTRY",921130,CUSTOMS BUREAUS,31125548,-71.4387732,42.9335578,NAVTEQ,2009Q2,ONENTITY, ,TGS,AIRPORT, ,PORT DIRECTOR, , , ,1,204
52,51,"NEW ORLEANS PORT OF ENTRY, PORT OF NEW ORLEANS",504-623-6670,701 LOYOLA AVENUE,13TH FLOOR,NEW ORLEANS,LA,70113,1912,ORLEANS,22071,PLOTTED AT INSPECTORS STATION - TRAVEL TO SEVERAL DOCKS TO PERFORM THEIR DUTIES, , , ,2009-09-17T00:00:00.000Z,PHONE,2009-09-18T00:00:00.000Z,MANUAL,"MISCELLANEOUS; OTHER; BORDER CROSSINGS AND PORTS OF ENTRY",921130,CUSTOMS BUREAUS,18297819,-90.0770868,29.9483603,NAVTEQ,2009Q2,ONENTITY,YES,TGS,WATER PORT, ,PORT DIRECTOR,504-670-2059,8:00 AM - 5:00 PM, ,1,85
53,52,"CHARLESTON PORT OF ENTRY, YEAGER AIRPORT",304-347-5204,176 AIRPORT ROAD, ,CHARLESTON,WV,25311,1056,KANAWHA,54039, , , , ,2009-09-17T00:00:00.000Z,ALT REF,2009-09-17T00:00:00.000Z,MANUAL,"MISCELLANEOUS; OTHER; BORDER CROSSINGS AND PORTS OF ENTRY",921130,CUSTOMS BUREAUS,129973739,-81.5964236,38.3706167,NAVTEQ,2009Q2,ONENTITY, ,TGS,AIRPORT, ,PORT DIRECTOR,304-347-5520,8:00 AM - 5:00 PM, ,1,203
54,53,"LONGVIEW PORT OF ENTRY, PORT OF LONGVIEW",360-425-3710,1450 TERMINAL WAY, ,LONGVIEW,WA,98632,1042,COWLITZ,53015, , , , ,2009-09-16T00:00:00.000Z,PHONE,2009-09-16T00:00:00.000Z,MANUAL,"MISCELLANEOUS; OTHER; BORDER CROSSINGS AND PORTS OF ENTRY",921130,CUSTOMS BUREAUS,121633593,-122.9535193,46.1082896,NAVTEQ,2009Q2,ONENTITY,YES,TGS,WATER PORT, ,PORT DIRECTOR,360-425-1657,8:00 AM - 5:00 PM, ,1,195
55,54,"DULUTH MINNESOTA AND SUPERIOR WISCONSIN PORT OF ENTRY, SKY HARBOR AIRPORT",218-733-0078,5000 MINNESOTA AVENUE, ,DULUTH,MN,55802,3151,ST LOUIS,27137, , , , ,2009-09-11T00:00:00.000Z,ALT REF,2009-09-11T00:00:00.000Z,MANUAL,"MISCELLANEOUS; OTHER; BORDER CROSSINGS AND PORTS OF ENTRY",921130,CUSTOMS BUREAUS,122742065,-92.0460549,46.7262298,NAVTEQ,2009Q2,ONENTITY, ,TGS,AIRPORT, , , , , ,0,0
56,55,"ORLANDO EXECUTIVE AIRPORT PORT OF ENTRY, ORLANDO EXECUTIVE AIRPORT",407-897-5102,365 RICKENBACKER DRIVE, ,ORLANDO,FL,32803, ,ORANGE,12095, , , , ,2009-09-17T00:00:00.000Z,ALT REF,2009-09-17T00:00:00.000Z,MANUAL,"MISCELLANEOUS; OTHER; BORDER CROSSINGS AND PORTS OF ENTRY",921130,CUSTOMS BUREAUS,23008973,-81.3319847,28.5488428,NAVTEQ,2009Q2,ONENTITY, ,TGS,AIRPORT, , , , , ,0,0
57,56,"NAWILIWILI-PORT ALLEN PORT OF ENTRY, LIHUE AIRPORT",808-822-5673,3901 MOKULELE LOOP, ,LIHUE,HI,96766,9705,KAUAI,15007, , , , ,2009-09-11T00:00:00.000Z,ALT REF,2009-09-11T00:00:00.000Z,MANUAL,"MISCELLANEOUS; OTHER; BORDER CROSSINGS AND PORTS OF ENTRY",921130,CUSTOMS BUREAUS,115749645,-159.348829,21.9781842,NAVTEQ,2009Q2,ONENTITY, ,TGS,AIRPORT, ,PORT DIRECTOR, ,8:00 AM - 5:00 PM, ,1,64
58,57,"SAINT CROIX PORT OF ENTRY, HENRY E ROHLSEN AIRPORT",340-773-1490,AIRPORT ROAD, ,KINGSHILL,VI,00850, ,ST CROIX ISLAND,78010, , , , ,2009-09-17T00:00:00.000Z,PHONE,2009-09-17T00:00:00.000Z,MANUAL,"MISCELLANEOUS; OTHER; BORDER CROSSINGS AND PORTS OF ENTRY",921130,CUSTOMS BUREAUS,120294710,-64.7969698,17.6992466,NAVTEQ,2009Q2,ONENTITY,YES,TGS,AIRPORT, , , , , ,0,0
59,58,"DUNSEITH PORT OF ENTRY, INTERNATIONAL PEACE GARDEN AIRPORT",701-263-4460,10947 UNITED STATES HIGHWAY 281, ,DUNSEITH,ND,58329, ,ROLETTE,38079, , , , ,2010-01-12T00:00:00.000Z,ALT REF,2010-01-12T00:00:00.000Z,MANUAL,"MISCELLANEOUS; OTHER; BORDER CROSSINGS AND PORTS OF ENTRY",921130,CUSTOMS BUREAUS,125710246,-100.0524076,48.998398,NAVTEQ,2009Q2,ONENTITY, ,TGS,AIRPORT, , , , , ,0,0
60,59,"VICKSBURG PORT OF ENTRY, PORT OF VICKSBURG",601-638-1532,1900 CHERRY STREET,2ND FLOOR,VICKSBURG,MS,39180,3802,WARREN,28149, , , , ,2010-01-12T00:00:00.000Z,PHONE,2010-01-12T00:00:00.000Z,MANUAL,"MISCELLANEOUS; OTHER; BORDER CROSSINGS AND PORTS OF ENTRY",921130,CUSTOMS BUREAUS,99174076,-90.879777,32.3425505,NAVTEQ,2009Q2,ONENTITY, ,TGS,INLAND PORT, ,PORT DIRECTOR,601-932-4114,8:00 AM - 4:00 PM, ,1,109
61,60,"SYRACUSE PORT OF ENTRY, PORT OF OSWEGO",315-455-8446,1 EAST 2ND STREET, ,OSWEGO,NY,13126,1177,OSWEGO,36075, , , , ,2010-01-12T00:00:00.000Z,PHONE,2010-01-12T00:00:00.000Z,MANUAL,"MISCELLANEOUS; OTHER; BORDER CROSSINGS AND PORTS OF ENTRY",921130,CUSTOMS BUREAUS,735495390,-76.5112836,43.4649176,NAVTEQ,2009Q2,ONENTITY,NO,TGS,WATER PORT, , , , , ,0,0
62,61,"GRAND RAPIDS PORT OF ENTRY, MUSKEGON SEAPORT",616-942-5245,6450 AIR CARGO DRIVE SOUTHEAST, ,GRAND RAPIDS,MI,49512,9705,MUSKEGON,26121,PLOTTED AT APPROXIMATE CENTER OF COMMERCIAL WATERFRONT AREA AT PORT. ADDRESS GOES TO ADMINISTRATION BUILDING., , , ,2010-01-06T00:00:00.000Z,ALT REF,2010-01-12T00:00:00.000Z,MANUAL,"MISCELLANEOUS; OTHER; BORDER CROSSINGS AND PORTS OF ENTRY",921130,CUSTOMS BUREAUS,127335282,-86.2608591,43.2363644,NAVTEQ,2009Q2,APPROXIMATE, ,TGS,WATER PORT, , , , , ,0,0
63,62,"GRAND RAPIDS PORT OF ENTRY, HOLLAND SEAPORT",616-942-5245,6450 AIR CARGO DRIVE SOUTHEAST, ,GRAND RAPIDS,MI,49512,9705,OTTAWA,26139,PLOTTED AT APPROXIMATE CENTER OF COMMERCIAL WATERFRONT AREA AT PORT. ADDRESS GOES TO ADMINISTRATION BUILDING., , , ,2010-01-06T00:00:00.000Z,ALT REF,2010-01-12T00:00:00.000Z,MANUAL,"MISCELLANEOUS; OTHER; BORDER CROSSINGS AND PORTS OF ENTRY",921130,CUSTOMS BUREAUS,38539548,-86.200763,42.7743153,NAVTEQ,2009Q2,APPROXIMATE, ,TGS,WATER PORT, , , , , ,0,0
64,63,"GRAND RAPIDS PORT OF ENTRY, MANISTEE SEAPORT",616-942-5245,6450 AIR CARGO DRIVE SOUTHEAST, ,GRAND RAPIDS,MI,49512,9705,MANISTEE,26101,PORT HANDLES PLEASURE BOATS. PLOTTED AT APPROXIMATE CENTER OF PORT. ADDRESS GOES TO ADMINISTRATION BUILDING., , , ,2010-01-06T00:00:00.000Z,ALT REF,2010-01-12T00:00:00.000Z,MANUAL,"MISCELLANEOUS; OTHER; BORDER CROSSINGS AND PORTS OF ENTRY",921130,CUSTOMS BUREAUS,107995184,-86.3400259,44.2471934,NAVTEQ,2009Q2,APPROXIMATE, ,TGS,WATER PORT, , , , , ,0,0
65,64,"SAULT SAINTE MARIE PORT OF ENTRY / SAGINAW/BAY CITY/FLINT PORT OF ENTRY, MUNISING SEAPORT",906-632-2631,900 INTERNATIONAL BRIDGE PLAZA, ,SAULT SAINTE MARIE,MI,49783, ,ALGER,26003,PORT HANDLES PLEASURE BOATS. PLOTTED AT APPROXIMATE CENTER OF PORT. ADDRESS GOES TO ADMINISTRATION BUILDING FOR THE SAULT SAINTE MARIE PORT OF ENTRY., , , ,2010-01-07T00:00:00.000Z,ALT REF,2010-01-07T00:00:00.000Z,MANUAL,"MISCELLANEOUS; OTHER; BORDER CROSSINGS AND PORTS OF ENTRY",921130,CUSTOMS BUREAUS,122988359,-86.6532345,46.4136595,NAVTEQ,2009Q2,APPROXIMATE, ,TGS,WATER PORT, , , , , ,0,0
66,65,"PORT OF ENTRY AT MOSES LAKE, GRANT COUNTY INTERNATIONAL AIRPORT",509-762-2667,7810 ANDREWS STREET NORTHEAST,ROOM 4,MOSES LAKE,WA,98837,3204,GRANT,53025, , , , ,2009-09-15T00:00:00.000Z,ALT REF,2009-09-15T00:00:00.000Z,MANUAL,"MISCELLANEOUS; OTHER; BORDER CROSSINGS AND PORTS OF ENTRY",921130,CUSTOMS BUREAUS,21171391,-119.323452,47.1901066,NAVTEQ,2009Q2,ONENTITY, ,TGS,AIRPORT, ,PORT DIRECTOR,509-762-2668,8:00 AM - 5:00 PM, ,1,196
67,66,"AGUADILLA PORT OF ENTRY, RAFAEL HERNANDEZ AIRPORT",787-882-3556,BROMON DRIVE,RAFAEL HERNANDEZ AIRPORT HANGER 405,AGUADILLA,PR,00603, ,AGUADILLA,72005, , , , ,2009-09-15T00:00:00.000Z,PHONE,2009-09-15T00:00:00.000Z,MANUAL,"MISCELLANEOUS; OTHER; BORDER CROSSINGS AND PORTS OF ENTRY",921130,CUSTOMS BUREAUS,129366565,-67.1356232,18.4956568,NAVTEQ,2009Q2,ONENTITY,YES,TGS,AIRPORT, ,PORT DIRECTOR,787-882-3523,8:00 AM - 7:00 PM, ,1,155
68,67,"PORT HUENEME PORT OF ENTRY, PORT OF HUENEME",805-488-8574,333 PONOMA STREET, ,PORT HUENEME,CA,93041,2921,VENTURA,06111, , , , ,2009-09-15T00:00:00.000Z,PHONE,2009-09-15T00:00:00.000Z,MANUAL,"MISCELLANEOUS; OTHER; BORDER CROSSINGS AND PORTS OF ENTRY",921130,CUSTOMS BUREAUS,24183721,-119.2003993,34.1510911,NAVTEQ,2009Q2,ONENTITY,YES,TGS,WATER PORT, ,PORT DIRECTOR,805-488-1224,8:30 AM - 4:30 PM, ,1,24
69,68,"MOBILE PORT OF ENTRY, PORT OF MOBILE",251-441-5106,150 NORTH ROYAL STREET, ,MOBILE,AL,36602,3922,MOBILE,01097, , , , ,2009-09-11T00:00:00.000Z,PHONE,2009-09-11T00:00:00.000Z,MANUAL,"MISCELLANEOUS; OTHER; BORDER CROSSINGS AND PORTS OF ENTRY",921130,CUSTOMS BUREAUS,105193888,-88.041537,30.6961856,NAVTEQ,2009Q2,ONENTITY,YES,TGS,WATER PORT, ,PORT DIRECTOR,334-441-6061,8:00 AM - 5:00 PM, ,1,17
70,69,"NEW LONDON PORT OF ENTRY, NEW LONDON PORT",860-442-7123,150 BANK STREET, ,NEW LONDON,CT,06320,6002,NEW LONDON,09011, , , , ,2009-09-11T00:00:00.000Z,ALT REF,2009-09-11T00:00:00.000Z,MANUAL,"MISCELLANEOUS; OTHER; BORDER CROSSINGS AND PORTS OF ENTRY",921130,CUSTOMS BUREAUS,33962360,-72.0954944,41.3522953,NAVTEQ,2009Q2,ONENTITY, ,TGS,WATER PORT, ,PORT DIRECTOR, , , ,1,1
71,70,"PROVIDENCE PORT OF ENTRY, THEODORE FRANCIS GREEN AIRPORT",401-737-2176,2000 POST ROAD, ,WARWICK,RI,02886,1533,KENT,44003, , , , ,2010-01-06T00:00:00.000Z,ALT REF,2010-01-06T00:00:00.000Z,MANUAL,"MISCELLANEOUS; OTHER; BORDER CROSSINGS AND PORTS OF ENTRY",921130,CUSTOMS BUREAUS,763069976,-71.4354224,41.7259214,NAVTEQ,2009Q2,ONENTITY, ,TGS,AIRPORT, , , , , ,0,0
72,71,"WICHITA PORT OF ENTRY, WICHITA MID-CONTINENT AIRPORT",316-946-9726,1700 AIRPORT ROAD,CARGO BUILDING,WICHITA,KS,67209, ,SEDGWICK,20173, , , , ,2009-09-10T00:00:00.000Z,ALT REF,2009-09-21T00:00:00.000Z,MANUAL,"MISCELLANEOUS; OTHER; BORDER CROSSINGS AND PORTS OF ENTRY",921130,CUSTOMS BUREAUS,111525468,-97.4220426,37.6633265,NAVTEQ,2009Q2,ONENTITY, ,TGS,AIRPORT, ,PORT DIRECTOR,316-946-9704,8:00 AM - 4:30 PM, ,1,79
73,72,"COLUMBUS PORT OF ENTRY, RICKENBACKER INTERNATIONAL AIRPORT",614-497-1865,2241 JOHN CIRCLE DRIVE, ,COLUMBUS,OH,43217,1252,FRANKLIN,39049, , , , ,2009-09-18T00:00:00.000Z,ALT REF,2009-09-22T00:00:00.000Z,MANUAL,"MISCELLANEOUS; OTHER; BORDER CROSSINGS AND PORTS OF ENTRY",921130,CUSTOMS BUREAUS,134051531,-82.9360649,39.817185,NAVTEQ,2009Q2,ONENTITY, ,TGS,AIRPORT, ,PORT DIRECTOR,614-497-1870,8:30 AM - 5:00 PM, ,1,138
74,73,"HARRISBURG PORT OF ENTRY, WILKES-BARRE / SCRANTON INTERNATIONAL AIRPORT",570-457-8024,100 TERMINAL DRIVE, ,AVOCA,PA,18641,2224,LUZERNE,42079, , , , ,2009-09-11T00:00:00.000Z,ALT REF,2009-09-11T00:00:00.000Z,MANUAL,"MISCELLANEOUS; OTHER; BORDER CROSSINGS AND PORTS OF ENTRY",921130,CUSTOMS BUREAUS,125393257,-75.7288485,41.3373529,NAVTEQ,2009Q2,ONENTITY, ,TGS,AIRPORT, ,PORT DIRECTOR,717-457-8061,8:00 AM - 5:00 PM,1-877-CUSTOMS,1,154
75,74,"SYRACUSE PORT OF ENTRY, SYRACUSE HANCOCK INTERNATIONAL AIRPORT",315-455-8446,152 AIR CARGO ROAD,SUITE 201,NORTH SYRACUSE,NY,13212,3975,ONONDAGA,36067, , , , ,2009-09-14T00:00:00.000Z,PHONE,2009-09-14T00:00:00.000Z,MANUAL,"MISCELLANEOUS; OTHER; BORDER CROSSINGS AND PORTS OF ENTRY",921130,CUSTOMS BUREAUS,771927319,-76.124028,43.1115712,NAVTEQ,2009Q2,ONENTITY,YES,TGS,AIRPORT, ,PORT DIRECTOR,315-454-8224,8:30 AM - 5:00 PM, ,1,134
76,75,"WILMINGTON PORT OF ENTRY, WILMINGTON INTERNATIONAL AIRPORT",910-815-4620,1740 AIRPORT BOULEVARD, ,WILMINGTON,NC,28405,8075,NEW HANOVER,37129, , , , ,2009-09-29T00:00:00.000Z,ALT REF,2009-09-29T00:00:00.000Z,MANUAL,"MISCELLANEOUS; OTHER; BORDER CROSSINGS AND PORTS OF ENTRY",921130,CUSTOMS BUREAUS,722494071,-77.9104054,34.2738378,NAVTEQ,2009Q2,ONENTITY, ,TGS,AIRPORT, , , , , ,0,0
77,76,"SANTA MARIA PORT OF ENTRY, SANTA MARIA PUBLIC AIRPORT",805-739-2575,3335 CORSAIR CIRCLE, ,SANTA MARIA,CA,93455,2500,SANTA BARBARA,06083, , , , ,2009-09-17T00:00:00.000Z,ALT REF,2009-09-18T00:00:00.000Z,MANUAL,"MISCELLANEOUS; OTHER; BORDER CROSSINGS AND PORTS OF ENTRY",921130,CUSTOMS BUREAUS,118014806,-120.446788,34.8978752,NAVTEQ,2009Q2,ONENTITY, ,TGS,AIRPORT, , , , , ,0,0
78,77,"PORT OF ENTRY AT ABERDEEN, PORT OF GRAYS HARBOR",360-532-2030,403 WEST STATE STREET, ,ABERDEEN,WA,98520,6139,GRAYS HARBOR,53027, , , , ,2009-09-16T00:00:00.000Z,PHONE,2009-09-16T00:00:00.000Z,MANUAL,"MISCELLANEOUS; OTHER; BORDER CROSSINGS AND PORTS OF ENTRY",921130,CUSTOMS BUREAUS,42245722,-123.8196437,46.970499,NAVTEQ,2009Q2,ONENTITY,YES,TGS,WATER PORT, ,PORT DIRECTOR,360-532-1878,8:00 AM - 5:00 PM, ,1,193
79,78,"ALCAN PORT OF ENTRY, NORTHWAY AIRPORT",907-778-2223,6670 NORTHWAY ROAD, ,NORTHWAY,AK,99764, ,SOUTHEAST FAIRBANKS,02240,"CUSTOMS AND BORDER PROTECTION OFFICERS ARE NOT STATIONED ON SITE, MUST CALL PRIOR TO LANDING.", , , ,2010-01-05T00:00:00.000Z,PHONE,2010-01-07T00:00:00.000Z,MANUAL,"MISCELLANEOUS; OTHER; BORDER CROSSINGS AND PORTS OF ENTRY",921130,CUSTOMS BUREAUS,124863622,-141.9282594,62.9628096,NAVTEQ,2009Q2,ONENTITY,NO,TGS,AIRPORT, , , , , ,0,0
80,79,"GULFPORT PORT OF ENTRY, GULFPORT-BILOXI INTERNATIONAL AIRPORT",228-863-6350,14108 CUSTOMS BOULEVARD, ,GULFPORT,MS,39503,4737,HARRISON,28047, , , , ,2009-09-11T00:00:00.000Z,ALT REF,2009-09-11T00:00:00.000Z,MANUAL,"MISCELLANEOUS; OTHER; BORDER CROSSINGS AND PORTS OF ENTRY",921130,CUSTOMS BUREAUS,737500911,-89.0726085,30.4128859,NAVTEQ,2009Q2,ONENTITY, ,TGS,AIRPORT, ,PORT DIRECTOR,228-214-7010,8:00 AM - 5:00 PM, ,1,106
81,80,"EAGLE COUNTY REGIONAL AIRPORT PORT OF ENTRY, EAGLE COUNTY REGIONAL AIRPORT",970-524-0490,0871 COOLEY MESA ROAD,VAIL VALLEY JET CENTER,GYPSUM,CO,81637, ,EAGLE,08037, , , , ,2009-09-18T00:00:00.000Z,PHONE,2009-09-18T00:00:00.000Z,MANUAL,"MISCELLANEOUS; OTHER; BORDER CROSSINGS AND PORTS OF ENTRY",921130,CUSTOMS BUREAUS,31823691,-106.9097796,39.6405575,NAVTEQ,2009Q2,ONENTITY,YES,TGS,AIRPORT, , , , , ,0,0
82,81,"GRAND RAPIDS PORT OF ENTRY, LUDINGTON SEAPORT",616-942-5245,6450 AIR CARGO DRIVE SOUTHEAST, ,GRAND RAPIDS,MI,49512,9705,MASON,26105,PORT HANDLES PLEASURE BOATS. PLOTTED AT APPROXIMATE ENTRANCE OF PORT. ADDRESS GOES TO ADMINISTRATION BUILDING., , , ,2010-01-06T00:00:00.000Z,ALT REF,2010-01-12T00:00:00.000Z,MANUAL,"MISCELLANEOUS; OTHER; BORDER CROSSINGS AND PORTS OF ENTRY",921130,CUSTOMS BUREAUS,108010149,-86.4615787,43.954574,NAVTEQ,2009Q2,APPROXIMATE, ,TGS,WATER PORT, , , , , ,0,0
83,82,"SAULT SAINTE MARIE PORT OF ENTRY / SAGINAW/BAY CITY/FLINT PORT OF ENTRY, DETOUR SEAPORT",906-632-2631,900 INTERNATIONAL BRIDGE PLAZA, ,SAULT SAINTE MARIE,MI,49783, ,CHIPPEWA,26033,PORT HANDLES PLEASURE BOATS. PLOTTED AT APPROXIMATE CENTER OF PORT. ADDRESS GOES TO ADMINISTRATION BUILDING FOR THE SAULT SAINTE MARIE PORT OF ENTRY., , , ,2010-01-07T00:00:00.000Z,ALT REF,2010-01-07T00:00:00.000Z,MANUAL,"MISCELLANEOUS; OTHER; BORDER CROSSINGS AND PORTS OF ENTRY",921130,CUSTOMS BUREAUS,107940247,-83.8988639,45.9945214,NAVTEQ,2009Q2,APPROXIMATE, ,TGS,WATER PORT, , , , , ,0,0
84,83,"GRAND RAPIDS PORT OF ENTRY, SOUTH HAVEN SEAPORT",616-942-5245,6450 AIR CARGO DRIVE SOUTHEAST, ,GRAND RAPIDS,MI,49512,9705,VAN BUREN,26159,PORT HANDLES PLEASURE BOATS. PLOTTED AT APPROXIMATE CENTER OF PORT. ADDRESS GOES TO ADMINISTRATION BUILDING., , , ,2010-01-07T00:00:00.000Z,ALT REF,2010-01-07T00:00:00.000Z,MANUAL,"MISCELLANEOUS; OTHER; BORDER CROSSINGS AND PORTS OF ENTRY",921130,CUSTOMS BUREAUS,122987091,-86.2720206,42.4103153,NAVTEQ,2009Q2,APPROXIMATE, ,TGS,WATER PORT, , , , , ,0,0
85,84,"GRAND RAPIDS PORT OF ENTRY, GRAND HAVEN SEAPORT",616-942-5245,6450 AIR CARGO DRIVE SOUTHEAST, ,GRAND RAPIDS,MI,49512,9705,OTTAWA,26139,PLOTTED AT APPROXIMATE CENTER OF COMMERCIAL WATERFRONT AREA AT PORT. ADDRESS GOES TO ADMINISTRATION BUILDING., , , ,2010-01-06T00:00:00.000Z,ALT REF,2010-01-12T00:00:00.000Z,MANUAL,"MISCELLANEOUS; OTHER; BORDER CROSSINGS AND PORTS OF ENTRY",921130,CUSTOMS BUREAUS,115637289,-86.2290342,43.0757166,NAVTEQ,2009Q2,APPROXIMATE, ,TGS,WATER PORT, , , , , ,0,0
86,85,"SAULT SAINTE MARIE PORT OF ENTRY / SAGINAW/BAY CITY/FLINT PORT OF ENTRY, ESCANABA SEAPORT",906-632-2631,900 INTERNATIONAL BRIDGE PLAZA, ,SAULT SAINTE MARIE,MI,49783, ,DELTA,26041,PLOTTED AT APPROXIMATE CENTER OF COMMERCIAL WATERFRONT AREA AT PORT. ADDRESS GOES TO ADMINISTRATION BUILDING FOR THE SAULT SAINTE MARIE PORT OF ENTRY., , , ,2010-01-07T00:00:00.000Z,ALT REF,2010-01-07T00:00:00.000Z,MANUAL,"MISCELLANEOUS; OTHER; BORDER CROSSINGS AND PORTS OF ENTRY",921130,CUSTOMS BUREAUS,107944559,-87.0566217,45.7488954,NAVTEQ,2009Q2,APPROXIMATE, ,TGS,WATER PORT, , , , , ,0,0
87,86,"SAULT SAINTE MARIE PORT OF ENTRY / SAGINAW/BAY CITY/FLINT PORT OF ENTRY, MACKINAW ISLAND SEAPORT",906-632-2631,900 INTERNATIONAL BRIDGE PLAZA, ,SAULT SAINTE MARIE,MI,49783, ,MACKINAC,26097,PLOTTED AT APPROXIMATE CENTER OF COMMERCIAL WATERFRONT AREA AT PORT. ADDRESS GOES TO ADMINISTRATION BUILDING FOR THE SAULT SAINTE MARIE PORT OF ENTRY., , , ,2010-01-07T00:00:00.000Z,ALT REF,2010-01-07T00:00:00.000Z,MANUAL,"MISCELLANEOUS; OTHER; BORDER CROSSINGS AND PORTS OF ENTRY",921130,CUSTOMS BUREAUS,122975579,-84.616956,45.848687,NAVTEQ,2009Q2,APPROXIMATE, ,TGS,WATER PORT, , , , , ,0,0
88,87,"SAGINAW/BAY CITY/FLINT PORT OF ENTRY / SAULT SAINTE MARIE PORT OF ENTRY, SAULT SAINTE MARIE AIRPORT",906-632-2631,2144 MERIDIAN STREET, ,SAULT SAINTE MARIE,MI,49783,2608,CHIPPEWA,26033,"CUSTOMS AND BORDER PROTECTION OFFICERS ARE NOT STATIONED ON SITE, MUST CALL PRIOR TO LANDING.", , , ,2010-01-06T00:00:00.000Z,ALT REF,2010-01-06T00:00:00.000Z,MANUAL,"MISCELLANEOUS; OTHER; BORDER CROSSINGS AND PORTS OF ENTRY",921130,CUSTOMS BUREAUS,711249544,-84.3658772,46.4803813,NAVTEQ,2009Q2,ONENTITY, ,TGS,AIRPORT, , , , , ,0,0
89,88,"PHOENIX-MESA GATEWAY AIRPORT PORT OF ENTRY, PHOENIX SKY HARBOR INTERNATIONAL AIRPORT",602-914-1400,3002 EAST OLD TOWER ROAD,SUITE 400,PHOENIX,AZ,85034,6006,MARICOPA,04013, , , , ,2009-09-11T00:00:00.000Z,PHONE,2009-09-11T00:00:00.000Z,MANUAL,"MISCELLANEOUS; OTHER; BORDER CROSSINGS AND PORTS OF ENTRY",921130,CUSTOMS BUREAUS,102036165,-112.0157519,33.4246051,NAVTEQ,2009Q2,ONENTITY,YES,TGS,AIRPORT, ,PORT DIRECTOR,602-914-1409,8:30 AM - 4:30 PM, ,1,19
90,89,"ONTARIO AIRPORT PORT OF ENTRY, LOS ANGELES/ONTARIO INTERNATIONAL AIRPORT",909-937-8653,2222 EAST AIRPORT DRIVE, ,ONTARIO,CA,91761,2117,SAN BERNARDINO,06071, , , , ,2009-09-15T00:00:00.000Z,ALT REF,2009-09-15T00:00:00.000Z,MANUAL,"MISCELLANEOUS; OTHER; BORDER CROSSINGS AND PORTS OF ENTRY",921130,CUSTOMS BUREAUS,110104158,-117.6035592,34.0606837,NAVTEQ,2009Q2,ONENTITY, ,TGS,AIRPORT, ,PORT DIRECTOR, , , ,1,215
91,90,"SARASOTA PORT OF ENTRY, SARASOTA BRADENTON INTERNATIONAL AIRPORT",941-359-5040,6048 AIRPORT CIRCLE, ,SARASOTA,FL,34243,2159,MANATEE,12081, , , , ,2009-09-16T00:00:00.000Z,ALT REF,2009-09-16T00:00:00.000Z,MANUAL,"MISCELLANEOUS; OTHER; BORDER CROSSINGS AND PORTS OF ENTRY",921130,CUSTOMS BUREAUS,715301038,-82.5536937,27.3893163,NAVTEQ,2009Q2,ONENTITY, ,TGS,AIRPORT, ,PORT DIRECTOR,941-359-5467,8:30 AM - 5:00PM M-F,OFFICER-IN-CHARGE  1-877-CUSTOMS,1,54
92,91,"PALM SPRINGS PORT OF ENTRY, PALM SPRINGS INTERNATIONAL AIRPORT",760-318-3880,210 NORTH EL CIELO ROAD, ,PALM SPRINGS,CA,92262,6936,RIVERSIDE,06065, , , , ,2009-09-15T00:00:00.000Z,ALT REF,2009-09-15T00:00:00.000Z,MANUAL,"MISCELLANEOUS; OTHER; BORDER CROSSINGS AND PORTS OF ENTRY",921130,CUSTOMS BUREAUS,110104835,-116.5100121,33.8249004,NAVTEQ,2009Q2,ONENTITY, ,TGS,AIRPORT, ,PORT DIRECTOR,760-318-3883,8:00 AM - 5:00 PM, ,1,27
93,92,"INDIANAPOLIS PORT OF ENTRY, INDIANAPOLIS INTERNATIONAL AIRPORT",317-248-4060,6801 PIERSON DRIVE, ,INDIANAPOLIS,IN,46241,4226,MARION,18097, , , , ,2009-09-10T00:00:00.000Z,ALT REF,2009-09-10T00:00:00.000Z,MANUAL,"MISCELLANEOUS; OTHER; BORDER CROSSINGS AND PORTS OF ENTRY",921130,CUSTOMS BUREAUS,125135068,-86.2838378,39.7359587,NAVTEQ,2009Q2,ONENTITY, ,TGS,AIRPORT, ,PORT DIRECTOR,317-248-4174,8:30 AM - 5:00 PM, ,1,76
94,93,"SAGINAW/BAY CITY/FLINT PORT OF ENTRY / SAULT SAINTE MARIE PORT OF ENTRY, CHIPPEWA COUNTY INTERNATIONAL AIRPORT",906-632-2631,5019 WEST AIRPORT DRIVE, ,KINCHELOE,MI,49788,1643,CHIPPEWA,26033, , , , ,2009-12-18T00:00:00.000Z,ALT REF,2009-12-18T00:00:00.000Z,MANUAL,"MISCELLANEOUS; OTHER; BORDER CROSSINGS AND PORTS OF ENTRY",921130,CUSTOMS BUREAUS,709456903,-84.4744377,46.2576876,NAVTEQ,2009Q2,ONENTITY, ,TGS,AIRPORT, , , , , ,0,0
95,94,"COLUMBUS PORT OF ENTRY, PORT COLUMBUS INTERNATIONAL AIRPORT",614-237-0342,4600 INTERNATIONAL GATEWAY, ,COLUMBUS,OH,43219,1779,FRANKLIN,39049, , , , ,2009-09-18T00:00:00.000Z,ALT REF,2009-09-18T00:00:00.000Z,MANUAL,"MISCELLANEOUS; OTHER; BORDER CROSSINGS AND PORTS OF ENTRY",921130,CUSTOMS BUREAUS,125258543,-82.8841939,39.9993136,NAVTEQ,2009Q2,ONENTITY, ,TGS,AIRPORT, , , , , ,0,0
96,95,"CINCINNATI / LAWRENCEBURG PORT OF ENTRY, CINCINNATI / NORTHERN KENTUCKY INTERNATIONAL AIRPORT",859-767-7002,2939 TERMINAL DRIVE, ,HEBRON,KY,41048, ,BOONE,21015, , , , ,2009-09-18T00:00:00.000Z,ALT REF,2009-09-18T00:00:00.000Z,MANUAL,"MISCELLANEOUS; OTHER; BORDER CROSSINGS AND PORTS OF ENTRY",921130,CUSTOMS BUREAUS,134041626,-84.6562384,39.0503629,NAVTEQ,2009Q2,ONENTITY, ,TGS,AIRPORT, ,PORT DIRECTOR,859-767-7011,8:30 AM - 5:00 PM, ,1,136
97,96,"ANCHORAGE PORT OF ENTRY, TED STEVENS ANCHORAGE INTERNATIONAL AIRPORT",907-266-2526,5000 WEST INTERNATIONAL AIRPORT ROAD, ,ANCHORAGE,AK,99502,0912,ANCHORAGE,02020, , , , ,2009-10-27T00:00:00.000Z,ALT REF,2009-10-27T00:00:00.000Z,MANUAL,"MISCELLANEOUS; OTHER; BORDER CROSSINGS AND PORTS OF ENTRY",921130,CUSTOMS BUREAUS,764259697,-149.9877914,61.1783406,NAVTEQ,2009Q2,ONENTITY, ,TGS,AIRPORT, , , , , ,0,0
98,97,"MIAMI SEAPORT PORT OF ENTRY, PORT OF MIAMI",305-536-4758,903 SOUTH AMERICA WAY, ,MIAMI,FL,33132,2003,MIAMI-DADE,12086, , , , ,2009-09-16T00:00:00.000Z,PHONE,2009-09-16T00:00:00.000Z,MANUAL,"MISCELLANEOUS; OTHER; BORDER CROSSINGS AND PORTS OF ENTRY",921130,CUSTOMS BUREAUS,727448986,-80.1800389,25.7798782,NAVTEQ,2009Q2,ONENTITY,YES,TGS,WATER PORT, ,PORT DIRECTOR,305-536-5282,8:00 AM - 4:00 PM, ,1,46
99,98,"ROCHESTER PORT OF ENTRY, ROCHESTER INTERNATIONAL AIRPORT",507-285-5278,7701 HELGERSON DRIVE SOUTHWEST,GENERAL AVIATION BUILDING,ROCHESTER,MN,55902, ,OLMSTED,27109, , , , ,2009-09-17T00:00:00.000Z,ALT REF,2009-09-17T00:00:00.000Z,MANUAL,"MISCELLANEOUS; OTHER; BORDER CROSSINGS AND PORTS OF ENTRY",921130,CUSTOMS BUREAUS,766147907,-92.4980708,43.9153907,NAVTEQ,2009Q2,ONENTITY, ,TGS,AIRPORT, ,PORT DIRECTOR,507-282-9939,8:00 AM - 5:00 PM, ,1,102
100,99,"AREA PORT OF JACKSONVILLE PORT OF ENTRY, JAXPORT",904-360-5020,2831 TALLEYRAND AVENUE, ,JACKSONVILLE,FL,32206,3417,DUVAL,12031, , , , ,2009-09-16T00:00:00.000Z,PHONE,2009-09-16T00:00:00.000Z,MANUAL,"MISCELLANEOUS; OTHER; BORDER CROSSINGS AND PORTS OF ENTRY",921130,CUSTOMS BUREAUS,23019205,-81.6249366,30.3561579,NAVTEQ,2009Q2,ONENTITY,YES,TGS,WATER PORT, ,PORT DIRECTOR,904-360-5033,8:00 AM - 5:00 PM,1-877-CUSTOMS,1,42
101,100,"WILLISTON-SLOULIN FIELD INTERNATIONAL AIRPORT PORT OF ENTRY, SLOULIN FIELD INTERNATIONAL AIRPORT",701-572-6552,421 AIRPORT ROAD, ,WILLISTON,ND,58801,2975,WILLIAMS,38105, , , , ,2009-09-18T00:00:00.000Z,PHONE,2009-09-18T00:00:00.000Z,MANUAL,"MISCELLANEOUS; OTHER; BORDER CROSSINGS AND PORTS OF ENTRY",921130,CUSTOMS BUREAUS,721137480,-103.6323704,48.1769207,NAVTEQ,2009Q2,ONENTITY,YES,TGS,AIRPORT, , , , , ,0,0
102,101,"NEWPORT PORT OF ENTRY, NEWPORT HARBOR",401-847-2744,320 THAMES STREET, ,NEWPORT,RI,02840,6633,NEWPORT,44005, , , , ,2009-09-17T00:00:00.000Z,PHONE,2009-09-11T00:00:00.000Z,MANUAL,"MISCELLANEOUS; OTHER; BORDER CROSSINGS AND PORTS OF ENTRY",921130,CUSTOMS BUREAUS,34039490,-71.3144213,41.4848523,NAVTEQ,2009Q2,ONENTITY,YES,TGS,WATER PORT, ,PORT DIRECTOR, ,8:00 AM - 5:00 PM, ,1,160
103,102,"DENVER PORT OF ENTRY, COLORADO SPRINGS AIRPORT",719-574-6607,7770 MILTON E PROBY PARKWAY, ,COLORADO SPRINGS,CO,80916,4925,EL PASO,08041, , , , ,2009-09-29T00:00:00.000Z,ALT REF,2009-09-29T00:00:00.000Z,MANUAL,"MISCELLANEOUS; OTHER; BORDER CROSSINGS AND PORTS OF ENTRY",921130,CUSTOMS BUREAUS,101963868,-104.7008883,38.797415,NAVTEQ,2009Q2,ONENTITY, ,TGS,AIRPORT, , , , , ,0,0
104,103,"CLEVELAND PORT OF ENTRY, AKRON CANTON REGIONAL AIRPORT",330-499-5070,5400 LAUBY ROAD NORTHWEST, ,NORTH CANTON,OH,44720,1598,SUMMIT,39153, , , , ,2009-09-29T00:00:00.000Z,ALT REF,2009-09-29T00:00:00.000Z,MANUAL,"MISCELLANEOUS; OTHER; BORDER CROSSINGS AND PORTS OF ENTRY",921130,CUSTOMS BUREAUS,125276807,-81.4364475,40.9149647,NAVTEQ,2009Q2,ONENTITY, ,TGS,AIRPORT, , , , , ,0,0
105,104,"SAULT SAINTE MARIE PORT OF ENTRY / SAGINAW/BAY CITY/FLINT PORT OF ENTRY, ALPENA SEAPORT",906-632-2631,900 INTERNATIONAL BRIDGE PLAZA, ,SAULT SAINTE MARIE,MI,49783, ,ALPENA,26007,PLOTTED AT APPROXIMATE CENTER OF COMMERCIAL WATERFRONT AREA AT PORT. ADDRESS GOES TO ADMINISTRATION BUILDING FOR THE SAULT SAINTE MARIE PORT OF ENTRY., , , ,2010-01-07T00:00:00.000Z,ALT REF,2010-01-07T00:00:00.000Z,MANUAL,"MISCELLANEOUS; OTHER; BORDER CROSSINGS AND PORTS OF ENTRY",921130,CUSTOMS BUREAUS,122954212,-83.4093562,45.0689394,NAVTEQ,2009Q2,APPROXIMATE, ,TGS,WATER PORT, , , , , ,0,0
106,105,"SAULT SAINTE MARIE PORT OF ENTRY / SAGINAW/BAY CITY/FLINT PORT OF ENTRY, MARQUETTE SEAPORT",906-632-2631,900 INTERNATIONAL BRIDGE PLAZA, ,SAULT SAINTE MARIE,MI,49783, ,MARQUETTE,26103,PLOTTED AT APPROXIMATE CENTER OF COMMERCIAL WATERFRONT AREA AT PORT. ADDRESS GOES TO ADMINISTRATION BUILDING FOR THE SAULT SAINTE MARIE PORT OF ENTRY., , , ,2010-01-07T00:00:00.000Z,ALT REF,2010-01-07T00:00:00.000Z,MANUAL,"MISCELLANEOUS; OTHER; BORDER CROSSINGS AND PORTS OF ENTRY",921130,CUSTOMS BUREAUS,762682453,-87.3900146,46.5420673,NAVTEQ,2009Q2,APPROXIMATE, ,TGS,WATER PORT, , , , , ,0,0
107,106,"SAULT SAINTE MARIE PORT OF ENTRY / SAGINAW/BAY CITY/FLINT PORT OF ENTRY, ROGERS CITY SEAPORT",906-632-2631,900 INTERNATIONAL BRIDGE PLAZA, ,SAULT SAINTE MARIE,MI,49783, ,PRESQUE ISLE,26141,PLOTTED AT APPROXIMATE CENTER OF COMMERCIAL WATERFRONT AREA AT PORT. ADDRESS GOES TO ADMINISTRATION BUILDING FOR THE SAULT SAINTE MARIE PORT OF ENTRY., , , ,2010-01-07T00:00:00.000Z,ALT REF,2010-01-07T00:00:00.000Z,MANUAL,"MISCELLANEOUS; OTHER; BORDER CROSSINGS AND PORTS OF ENTRY",921130,CUSTOMS BUREAUS,123163108,-83.7849856,45.4118843,NAVTEQ,2009Q2,APPROXIMATE, ,TGS,WATER PORT, , , , , ,0,0
108,107,"SAULT SAINTE MARIE PORT OF ENTRY / SAGINAW/BAY CITY/FLINT PORT OF ENTRY, CHEBOYGAN SEAPORT",906-632-2631,900 INTERNATIONAL BRIDGE PLAZA, ,SAULT SAINTE MARIE,MI,49783, ,CHEBOYGAN,26031,PLOTTED AT APPROXIMATE CENTER OF COMMERCIAL WATERFRONT AREA AT PORT. ADDRESS GOES TO ADMINISTRATION BUILDING FOR THE SAULT SAINTE MARIE PORT OF ENTRY., , , ,2010-01-07T00:00:00.000Z,ALT REF,2010-01-07T00:00:00.000Z,MANUAL,"MISCELLANEOUS; OTHER; BORDER CROSSINGS AND PORTS OF ENTRY",921130,CUSTOMS BUREAUS,107945627,-84.4706339,45.6487195,NAVTEQ,2009Q2,APPROXIMATE, ,TGS,WATER PORT, , , , , ,0,0
109,108,"SAULT SAINTE MARIE PORT OF ENTRY / SAGINAW/BAY CITY/FLINT PORT OF ENTRY, HOUGHTON SEAPORT",906-632-2631,900 INTERNATIONAL BRIDGE PLAZA, ,SAULT SAINTE MARIE,MI,49783, ,HOUGHTON,26061,PLOTTED AT APPROXIMATE CENTER OF COMMERCIAL WATERFRONT AREA AT PORT. ADDRESS GOES TO ADMINISTRATION BUILDING FOR THE SAULT SAINTE MARIE PORT OF ENTRY., , , ,2010-01-07T00:00:00.000Z,ALT REF,2010-01-07T00:00:00.000Z,MANUAL,"MISCELLANEOUS; OTHER; BORDER CROSSINGS AND PORTS OF ENTRY",921130,CUSTOMS BUREAUS,122744522,-88.5518475,47.1249436,NAVTEQ,2009Q2,APPROXIMATE, ,TGS,WATER PORT, , , , , ,0,0
110,109,"SITKA PORT OF ENTRY, PORT OF SITKA",907-747-3374,329 HARBOR DRIVE,ROOM 206,SITKA,AK,99835,7573,SITKA,02220,DUE TO A SHIFT IN IMAGERY AND/OR NAVTEQ STREETS THIS IS AN APPROXIMATE LOCATION., , , ,2009-12-21T00:00:00.000Z,PHONE,2010-01-06T00:00:00.000Z,MANUAL,"MISCELLANEOUS; OTHER; BORDER CROSSINGS AND PORTS OF ENTRY",921130,CUSTOMS BUREAUS,124900401,-135.3347835,57.050791,NAVTEQ,2009Q2,APPROXIMATE,YES,TGS,WATER PORT, ,PORT DIRECTOR,907-747-3554,8:00 AM - 5:00 PM, ,1,11
111,110,"SCOTTSDALE AIRPORT PORT OF ENTRY, SCOTTSDALE AIRPORT",480-312-8483,15041 NORTH AIRPORT DRIVE,SUITE 105,SCOTTSDALE,AZ,85260,2492,MARICOPA,04013, , , , ,2009-09-18T00:00:00.000Z,ALT REF,2009-09-18T00:00:00.000Z,MANUAL,"MISCELLANEOUS; OTHER; BORDER CROSSINGS AND PORTS OF ENTRY",921130,CUSTOMS BUREAUS,765773428,-111.9156101,33.6218928,NAVTEQ,2009Q2,ONENTITY, ,TGS,AIRPORT, , , , , ,0,0
112,111,"FAJARDO PORT OF ENTRY, BENJAMIN RIVERA NORIEGA AIRPORT",787-742-3531,CARRETERA 250, ,CULEBRA,PR,00775, ,CULEBRA,72049, , , , ,2009-12-21T00:00:00.000Z,PHONE,2009-12-21T00:00:00.000Z,MANUAL,"MISCELLANEOUS; OTHER; BORDER CROSSINGS AND PORTS OF ENTRY",921130,CUSTOMS BUREAUS,129344190,-65.3034811,18.3115973,NAVTEQ,2009Q2,ONENTITY,YES,TGS,AIRPORT, , , , , ,0,0
113,112,"SAN FRANCISCO INTERNATIONAL AIRPORT PORT OF ENTRY, SAN FRANCISCO INTERNATIONAL AIRPORT",650-624-7200,575 NORTH MCDONNELL ROAD, ,SAN FRANCISCO,CA,94128, ,SAN MATEO,06081, , , , ,2009-09-15T00:00:00.000Z,ALT REF,2009-09-15T00:00:00.000Z,MANUAL,"MISCELLANEOUS; OTHER; BORDER CROSSINGS AND PORTS OF ENTRY",921130,CUSTOMS BUREAUS,732572803,-122.3894762,37.61566,NAVTEQ,2009Q2,ONENTITY, ,TGS,AIRPORT, ,PORT DIRECTOR, , , ,1,212
114,113,"NEW HAVEN PORT OF ENTRY, PORT OF NEW HAVEN",203-773-2040,150 COURT STREET,SUITE 672,NEW HAVEN,CT,06510,2022,NEW HAVEN,09009, , , , ,2009-09-15T00:00:00.000Z,PHONE,2009-09-15T00:00:00.000Z,MANUAL,"MISCELLANEOUS; OTHER; BORDER CROSSINGS AND PORTS OF ENTRY",921130,CUSTOMS BUREAUS,22252968,-72.9238605,41.3063498,NAVTEQ,2009Q2,ONENTITY,YES,TGS,WATER PORT, ,PORT DIRECTOR,203-773-2038,8:30 AM - 5:00 PM, ,1,35
115,114,"PITTSBURGH PORT OF ENTRY, PITTSBURGH INTERNATIONAL AIRPORT",412-472-0804,PITTSBURGH INTERNATIONAL AIRPORT, ,PITTSBURGH,PA,15231, ,ALLEGHENY,42003, , , , ,2009-09-14T00:00:00.000Z,ALT REF,2009-09-14T00:00:00.000Z,MANUAL,"MISCELLANEOUS; OTHER; BORDER CROSSINGS AND PORTS OF ENTRY",921130,CUSTOMS BUREAUS,704948100,-80.2475094,40.4946855,NAVTEQ,2009Q2,ONENTITY, ,TGS,AIRPORT, ,PORT DIRECTOR,412-472-0809,7:00 AM - 9:00 PM,1-877-CUSTOMS,1,153
116,115,"DULUTH MINNESOTA AND SUPERIOR WISCONSIN PORT OF ENTRY, DULUTH INTERNATIONAL AIRPORT",218-720-5220,4701 GRINDEN DRIVE, ,DULUTH,MN,55811,1578,ST LOUIS,27137, , , , ,2009-09-11T00:00:00.000Z,ALT REF,2009-10-21T00:00:00.000Z,MANUAL,"MISCELLANEOUS; OTHER; BORDER CROSSINGS AND PORTS OF ENTRY",921130,CUSTOMS BUREAUS,704783185,-92.1811034,46.8388387,NAVTEQ,2009Q2,ONENTITY, ,TGS,AIRPORT, ,PORT DIRECTOR,218-720-5216,8:00AM-4:30PM, ,1,99
117,116,"PERTH AMBOY PORT OF ENTRY, HARBOR AT PERTH AMBOY",732-442-0415,205 JEFFERSON STREET,ROOM 203,PERTH AMBOY,NJ,08861,4105,MIDDLESEX,34023, , , , ,2009-09-18T00:00:00.000Z,PHONE,2009-09-16T00:00:00.000Z,MANUAL,"MISCELLANEOUS; OTHER; BORDER CROSSINGS AND PORTS OF ENTRY",921130,CUSTOMS BUREAUS,21891816,-74.2713082,40.5102181,NAVTEQ,2009Q2,ONENTITY,YES,TGS,WATER PORT, ,PORT DIRECTOR,732-442-9559,8:00 AM - 5:00 PM,1-877-CUSTOMS,1,125
118,117,"CHARLESTON PORT OF ENTRY, PORT OF CHARLESTON",843-579-6500,200 EAST BAY STREET, ,CHARLESTON,SC,29401,2611,CHARLESTON,45019, , , , ,2009-09-14T00:00:00.000Z,ALT REF,2009-09-14T00:00:00.000Z,MANUAL,"MISCELLANEOUS; OTHER; BORDER CROSSINGS AND PORTS OF ENTRY",921130,CUSTOMS BUREAUS,42934906,-79.926552,32.7808111,NAVTEQ,2009Q2,ONENTITY, ,TGS,WATER PORT, ,PORT DIRECTOR,843-579-6611,8:00 AM - 4:30 PM,1-877-CUSTOMS,1,162
119,118,"MIAMI PORT OF ENTRY, MIAMI INTERNATIONAL AIRPORT",305-869-2800,6601 NORTHWEST 25TH STREET, ,MIAMI,FL,33122,2232,MIAMI-DADE,12086, , , , ,2009-09-16T00:00:00.000Z,ALT REF,2009-09-16T00:00:00.000Z,MANUAL,"MISCELLANEOUS; OTHER; BORDER CROSSINGS AND PORTS OF ENTRY",921130,CUSTOMS BUREAUS,716231406,-80.2894931,25.8052567,NAVTEQ,2009Q2,ONENTITY, ,TGS,AIRPORT, ,PORT DIRECTOR,305-869-2822,7:30 AM - 5:30 PM, ,1,45
120,119,"SPRINGFIELD PORT OF ENTRY, SPRINGFIELD-BRANSON NATIONAL AIRPORT",417-831-4035,5141 WEST CARGO STREET, ,SPRINGFIELD,MO,65803,9512,GREENE,29077, , , , ,2009-09-11T00:00:00.000Z,ALT REF,2009-09-11T00:00:00.000Z,MANUAL,"MISCELLANEOUS; OTHER; BORDER CROSSINGS AND PORTS OF ENTRY",921130,CUSTOMS BUREAUS,135080431,-93.3824929,37.2422759,NAVTEQ,2009Q2,ONENTITY, ,TGS,AIRPORT, ,PORT DIRECTOR,417-831-4035,8:30 AM - 5:00 PM, ,1,104
121,120,"DEL RIO/AMISTAD DAM PORT OF ENTRY, DEL RIO INTERNATIONAL AIRPORT",830-703-2012,1104 WEST 10TH STREET, ,DEL RIO,TX,78840,8503,VAL VERDE,48465, , , , ,2009-12-18T00:00:00.000Z,PHONE,2009-12-18T00:00:00.000Z,MANUAL,"MISCELLANEOUS; OTHER; BORDER CROSSINGS AND PORTS OF ENTRY",921130,CUSTOMS BUREAUS,773400315,-100.9199685,29.3704702,NAVTEQ,2009Q2,ONENTITY,NO,TGS,AIRPORT, , , , , ,0,0
122,121,"WARROAD PORT OF ENTRY, WARROAD INTERNATIONAL MEMORIAL AIRPORT/SWEDE CARLSON FIELD",218-386-1691,36955 COUNTY ROAD 13, ,WARROAD,MN,56763,9019,ROSEAU,27135, , , , ,2010-01-06T00:00:00.000Z,ALT REF,2010-01-06T00:00:00.000Z,MANUAL,"MISCELLANEOUS; OTHER; BORDER CROSSINGS AND PORTS OF ENTRY",921130,CUSTOMS BUREAUS,122580548,-95.3415747,48.9330772,NAVTEQ,2009Q2,ONENTITY, ,TGS,AIRPORT, , , , , ,0,0
123,122,"SAN JOSE INTERNATIONAL AIRPORT PORT OF ENTRY, NORMAN Y MINETA SAN JOSE INTERNATIONAL AIRPORT",408-291-7388,2065 AIRPORT BOULEVARD, ,SAN JOSE,CA,95110,1220,SANTA CLARA,06085, , , , ,2009-09-15T00:00:00.000Z,ALT REF,2009-10-20T00:00:00.000Z,MANUAL,"MISCELLANEOUS; OTHER; BORDER CROSSINGS AND PORTS OF ENTRY",921130,CUSTOMS BUREAUS,728188840,-121.929491,37.3695314,NAVTEQ,2009Q2,ONENTITY, ,TGS,AIRPORT, ,PORT DIRECTOR,408-291-7344,9:00 AM TO 5:00 PM., ,1,29
124,123,"HARTFORD PORT OF ENTRY, BRADLEY INTERNATIONAL AIRPORT",860-292-1314,11 SCHOEPHOESTER ROAD, ,WINDSOR LOCKS,CT,06096,1022,HARTFORD,09003, , , , ,2009-09-11T00:00:00.000Z,PHONE,2009-10-20T00:00:00.000Z,MANUAL,"MISCELLANEOUS; OTHER; BORDER CROSSINGS AND PORTS OF ENTRY",921130,CUSTOMS BUREAUS,22284903,-72.6898134,41.9330968,NAVTEQ,2009Q2,ONENTITY,YES,TGS,AIRPORT, ,PORT DIRECTOR,860-240-4309,8:30 AM - 5:00 PM, ,1,34
125,124,"ROCKFORD PORT OF ENTRY, CHICAGO ROCKFORD INTERNATIONAL AIRPORT",815-968-0661,50 AIRPORT DRIVE, ,ROCKFORD,IL,61109,2902,WINNEBAGO,17201, , , , ,2009-09-10T00:00:00.000Z,ALT REF,2009-10-20T00:00:00.000Z,MANUAL,"MISCELLANEOUS; OTHER; BORDER CROSSINGS AND PORTS OF ENTRY",921130,CUSTOMS BUREAUS,724708638,-89.0985961,42.2009983,NAVTEQ,2009Q2,ONENTITY, ,TGS,AIRPORT, ,PORT DIRECTOR,815-965-6611,8:30 AM - 5:00 PM, ,1,72
126,125,"PORT EVERGLADES/FORT LAUDERDALE PORT OF ENTRY, FORT LAUDERDALE EXECUTIVE AIRPORT",954-356-7412,1601 NORTHWEST 56TH STREET, ,FORT LAUDERDALE,FL,33309, ,BROWARD,12011, , , , ,2009-09-29T00:00:00.000Z,ALT REF,2009-09-29T00:00:00.000Z,MANUAL,"MISCELLANEOUS; OTHER; BORDER CROSSINGS AND PORTS OF ENTRY",921130,CUSTOMS BUREAUS,106194110,-80.1646329,26.1958967,NAVTEQ,2009Q2,ONENTITY, ,TGS,AIRPORT, , , , , ,0,0
127,126,"SAVANNAH PORT OF ENTRY, SAVANNAH / HILTON HEAD INTERNATIONAL AIRPORT",912-652-4256,400 AIRWAYS AVENUE, ,SAVANNAH,GA,31408,8000,CHATHAM,13051, , , , ,2009-09-21T00:00:00.000Z,ALT REF,2009-09-21T00:00:00.000Z,MANUAL,"MISCELLANEOUS; OTHER; BORDER CROSSINGS AND PORTS OF ENTRY",921130,CUSTOMS BUREAUS,124547332,-81.2100148,32.1356213,NAVTEQ,2009Q2,ONENTITY, ,TGS,AIRPORT, ,PORT DIRECTOR,912-447-9407,8:00 AM - 5:00 PM,1-877-CUSTOMS,1,60
128,127,"GREENVILLE-SPARTANBURG PORT OF ENTRY, GREENVILLE-SPARTANBURG INTERNATIONAL AIRPORT",864-877-7426,2000 GSP DRIVE, ,GREER,SC,29651,6633,SPARTANBURG,45083, , , , ,2009-09-14T00:00:00.000Z,ALT REF,2009-09-14T00:00:00.000Z,MANUAL,"MISCELLANEOUS; OTHER; BORDER CROSSINGS AND PORTS OF ENTRY",921130,CUSTOMS BUREAUS,721601463,-82.203094,34.9078924,NAVTEQ,2009Q2,ONENTITY, ,TGS,AIRPORT, ,PORT DIRECTOR,864-848-3454,8:00 AM - 5:00 PM,1-877-CUSTOMS,1,165
129,128,"DENVER PORT OF ENTRY, DENVER INTERNATIONAL AIRPORT",303-342-7400,8500 PENA BOULEVARD, ,DENVER,CO,80249,6205,DENVER,08031, , , , ,2009-09-11T00:00:00.000Z,PHONE,2009-09-11T00:00:00.000Z,MANUAL,"MISCELLANEOUS; OTHER; BORDER CROSSINGS AND PORTS OF ENTRY",921130,CUSTOMS BUREAUS,129603875,-104.6737698,39.8495333,NAVTEQ,2009Q2,ONENTITY,YES,TGS,AIRPORT, ,PORT DIRECTOR,303-371-3285,8:00 AM - 4:30 PM, ,1,31
130,129,"LOUISVILLE PORT OF ENTRY, LOUISVILLE INTERNATIONAL AIRPORT",502-366-3398,650 ADMINISTRATION DRIVE, ,LOUISVILLE,KY,40209,1514,JEFFERSON,21111, , , , ,2009-09-10T00:00:00.000Z,ALT REF,2009-09-10T00:00:00.000Z,MANUAL,"MISCELLANEOUS; OTHER; BORDER CROSSINGS AND PORTS OF ENTRY",921130,CUSTOMS BUREAUS,38684890,-85.7417089,38.1858744,NAVTEQ,2009Q2,ONENTITY, ,TGS,AIRPORT, ,PORT DIRECTOR,502-625-7224,8:30 AM - 4:30 PM, ,1,80
131,130,"PONCE PORT OF ENTRY, PORT OF PONCE",787-841-3131,CALLE BONAIRE 63, ,PONCE,PR,00716,8040,PONCE,72113, , , , ,2009-09-15T00:00:00.000Z,PHONE,2009-09-15T00:00:00.000Z,MANUAL,"MISCELLANEOUS; OTHER; BORDER CROSSINGS AND PORTS OF ENTRY",921130,CUSTOMS BUREAUS,120226642,-66.6199268,17.9798122,NAVTEQ,2009Q2,ONENTITY,YES,TGS,WATER PORT, ,PORT DIRECTOR,787-841-3133,8:00 AM - 5:00 PM, ,1,158
132,131,"FRESNO PORT OF ENTRY, FRESNO YOSEMITE INTERNATIONAL AIRPORT",559-456-6830,5177 EAST CLINTON WAY, ,FRESNO,CA,93727,2013,FRESNO,06019, , , , ,2009-09-15T00:00:00.000Z,ALT REF,2009-09-15T00:00:00.000Z,MANUAL,"MISCELLANEOUS; OTHER; BORDER CROSSINGS AND PORTS OF ENTRY",921130,CUSTOMS BUREAUS,38092600,-119.7189887,36.7709834,NAVTEQ,2009Q2,ONENTITY, ,TGS,AIRPORT, ,PORT DIRECTOR,209-487-5323,8:00 AM - 4:30 PM, ,1,23
133,132,"DAVENPORT/ROCK ISLAND/MOLINE PORT OF ENTRY, QUAD CITY INTERNATIONAL AIRPORT",309-762-6300,2480 69TH AVENUE,QUAD CITIES AIRPORT,MOLINE,IL,61265,9745,ROCK ISLAND,17161, , , , ,2009-09-10T00:00:00.000Z,ALT REF,2009-09-10T00:00:00.000Z,MANUAL,"MISCELLANEOUS; OTHER; BORDER CROSSINGS AND PORTS OF ENTRY",921130,CUSTOMS BUREAUS,123065989,-90.5061884,41.4536484,NAVTEQ,2009Q2,ONENTITY, ,TGS,AIRPORT, ,PORT DIRECTOR,309-762-9195,8:00 AM - 4:30 PM, ,1,69
134,133,"BATON ROUGE PORT OF ENTRY, PORT OF GREATER BATON ROUGE",225-342-1660,2425 ERNEST WILSON DRIVE, ,PORT ALLEN,LA,70767,6176,WEST BATON ROUGE,22121, , , , ,2009-09-11T00:00:00.000Z,PHONE,2009-09-11T00:00:00.000Z,MANUAL,"MISCELLANEOUS; OTHER; BORDER CROSSINGS AND PORTS OF ENTRY",921130,CUSTOMS BUREAUS,780362624,-91.2002449,30.4393463,NAVTEQ,2009Q2,ONENTITY,YES,TGS,WATER PORT, ,PORT DIRECTOR,504-389-0260,8:00 AM - 4:00 PM, ,1,81
135,134,"NEW YORK/NEWARK PORT OF ENTRY, NEWARK LIBERTY INTERNATIONAL AIRPORT",973-645-3940,2 HAYNES AVENUE,TERMINAL B,NEWARK,NJ,07114,1314,ESSEX,34013, , , , ,2009-09-16T00:00:00.000Z,PHONE,2009-09-16T00:00:00.000Z,MANUAL,"MISCELLANEOUS; OTHER; BORDER CROSSINGS AND PORTS OF ENTRY",921130,CUSTOMS BUREAUS,119977661,-74.1771,40.6905048,NAVTEQ,2009Q2,ONENTITY,YES,TGS,AIRPORT, ,PORT DIRECTOR,201-443-0550,8:00 AM - 5:00 PM,1-877-CUSTOMS,1,124
136,135,"PORT EVERGLADES/FORT LAUDERDALE PORT OF ENTRY, FORT LAUDERDALE / HOLLYWOOD INTERNATIONAL AIRPORT",954-356-7431,100 AVIATION BOULEVARD, ,FORT LAUDERDALE,FL,33315,3319,BROWARD,12011, , , , ,2009-09-16T00:00:00.000Z,ALT REF,2009-09-16T00:00:00.000Z,MANUAL,"MISCELLANEOUS; OTHER; BORDER CROSSINGS AND PORTS OF ENTRY",921130,CUSTOMS BUREAUS,122657066,-80.1437306,26.0698546,NAVTEQ,2009Q2,ONENTITY, ,TGS,AIRPORT, ,PORT DIRECTOR,954-356-7422,8:00 AM - 5:00 PM, ,1,51
137,136,"ERIE PORT OF ENTRY, ERIE INTERNATIONAL AIRPORT / TOM RIDGE FIELD",814-833-1355,4459 WEST 12TH STREET, ,ERIE,PA,16505,3003,ERIE,42049, , , , ,2009-09-11T00:00:00.000Z,ALT REF,2009-10-21T00:00:00.000Z,MANUAL,"MISCELLANEOUS; OTHER; BORDER CROSSINGS AND PORTS OF ENTRY",921130,CUSTOMS BUREAUS,108702212,-80.1826765,42.0821017,NAVTEQ,2009Q2,ONENTITY, ,TGS,AIRPORT, ,PORT DIRECTOR,814-835-2152,8:00 AM - 4:30 PM,1-877-CUSTOMS,1,149
138,137,"PHILADELPHIA PORT OF ENTRY, PHILADELPHIA INTERNATIONAL AIRPORT",215-853-4200,8000 ESSINGTON AVENUE, ,PHILADELPHIA,PA,19153, ,DELAWARE,42045, , , , ,2009-09-11T00:00:00.000Z,ALT REF,2009-10-21T00:00:00.000Z,MANUAL,"MISCELLANEOUS; OTHER; BORDER CROSSINGS AND PORTS OF ENTRY",921130,CUSTOMS BUREAUS,727814299,-75.2486639,39.8762292,NAVTEQ,2009Q2,ONENTITY, ,TGS,AIRPORT, ,PORT DIRECTOR,215-597-8370,8:00 AM - 5:00 PM,1-877-CUSTOMS,1,152
139,138,"HOUSTON AIRPORT PORT OF ENTRY, GEORGE BUSH INTERCONTINENTAL AIRPORT",281-985-6700,2800 NORTH TERMINAL ROAD, ,HOUSTON,TX,77032,5569,HARRIS,48201, , , , ,2009-09-14T00:00:00.000Z,ALT REF,2009-10-21T00:00:00.000Z,MANUAL,"MISCELLANEOUS; OTHER; BORDER CROSSINGS AND PORTS OF ENTRY",921130,CUSTOMS BUREAUS,724729679,-95.3326349,29.9865033,NAVTEQ,2009Q2,ONENTITY, ,TGS,AIRPORT, ,PORT DIRECTOR,281-985-6706,8:30 AM - 5:00 PM, ,1,180
140,139,"LEESBURG PORT OF ENTRY, LEESBURG INTERNATIONAL AIRPORT",352-787-4217,8742 AIRPORT BOULEVARD, ,LEESBURG,FL,34788,4011,LAKE,12069, , , , ,2009-09-17T00:00:00.000Z,PHONE,2009-09-17T00:00:00.000Z,MANUAL,"MISCELLANEOUS; OTHER; BORDER CROSSINGS AND PORTS OF ENTRY",921130,CUSTOMS BUREAUS,106153765,-81.8112023,28.8280692,NAVTEQ,2009Q2,ONENTITY,YES,TGS,AIRPORT, , , , , ,0,0
141,140,"ALEXANDRIA BAY PORT OF ENTRY, WATERTOWN INTERNATIONAL AIRPORT",315-482-2261,22529 AIRPORT DRIVE, ,DEXTER,NY,13634,3013,JEFFERSON,36045,"CUSTOMS AND BORDER PROTECTION OFFICERS ARE NOT STATIONED ON SITE, MUST CALL PRIOR TO LANDING.", , , ,2010-01-05T00:00:00.000Z,PHONE,2010-01-05T00:00:00.000Z,MANUAL,"MISCELLANEOUS; OTHER; BORDER CROSSINGS AND PORTS OF ENTRY",921130,CUSTOMS BUREAUS,119876747,-76.0233905,43.9941513,NAVTEQ,2009Q2,ONENTITY,NO,TGS,AIRPORT, , , , , ,0,0
142,141,"NORFOLK PORT OF ENTRY, NORFOLK INTERNATIONAL AIRPORT",757-858-6196,2200 NORVIEW AVENUE, ,NORFOLK,VA,23518,5804,NORFOLK CITY,51710, , , , ,2009-09-22T00:00:00.000Z,ALT REF,2009-09-22T00:00:00.000Z,MANUAL,"MISCELLANEOUS; OTHER; BORDER CROSSINGS AND PORTS OF ENTRY",921130,CUSTOMS BUREAUS,123631469,-76.2085758,36.8917164,NAVTEQ,2009Q2,ONENTITY, ,TGS,AIRPORT, ,PORT DIRECTOR,757-533-4273,8:00 AM - 5:00 PM,1-877-CUSTOMS,1,188
143,142,"GREAT FALLS PORT OF ENTRY, GREAT FALLS INTERNATIONAL AIRPORT",406-453-0861,2800 TERMINAL DRIVE, ,GREAT FALLS,MT,59404,5501,CASCADE,30013, , , , ,2009-09-15T00:00:00.000Z,ALT REF,2009-10-21T00:00:00.000Z,MANUAL,"MISCELLANEOUS; OTHER; BORDER CROSSINGS AND PORTS OF ENTRY",921130,CUSTOMS BUREAUS,711456786,-111.3505593,47.489039,NAVTEQ,2009Q2,ONENTITY, ,TGS,AIRPORT, ,PORT DIRECTOR,406-453-7069,8:00 AM - 5:00 PM, ,1,111
144,143,"ROGERS AIRPORT PORT OF ENTRY, ROGERS MUNICIPAL AIRPORT/CARTER FIELD",479-246-9472,6 HAMMERSCHMIDT DRIVE, ,ROGERS,AR,72756,9475,BENTON,05007, , , , ,2009-09-18T00:00:00.000Z,PHONE,2009-09-18T00:00:00.000Z,MANUAL,"MISCELLANEOUS; OTHER; BORDER CROSSINGS AND PORTS OF ENTRY",921130,CUSTOMS BUREAUS,126435022,-94.1042455,36.3696341,NAVTEQ,2009Q2,ONENTITY,YES,TGS,AIRPORT, , , , , ,0,0
145,144,"NOGALES PORT OF ENTRY, NOGALES INTERNATIONAL AIRPORT",520-287-1433,STATE HIGHWAY 82, ,NOGALES,AZ,85621, ,SANTA CRUZ,04023, , , , ,2009-12-18T00:00:00.000Z,ALT REF,2009-12-18T00:00:00.000Z,MANUAL,"MISCELLANEOUS; OTHER; BORDER CROSSINGS AND PORTS OF ENTRY",921130,CUSTOMS BUREAUS,122497855,-110.8501382,31.4183082,NAVTEQ,2009Q2,ONENTITY, ,TGS,AIRPORT, , , , , ,0,0
146,145,"WEST PALM BEACH PORT OF ENTRY, PORT OF PALM BEACH",561-844-1703,1 EAST 11TH STREET,SUITE 323 BOX 4,WEST PALM BEACH,FL,33404,6921,PALM BEACH,12099, , , , ,2009-09-23T00:00:00.000Z,PHONE,2009-09-23T00:00:00.000Z,MANUAL,"MISCELLANEOUS; OTHER; BORDER CROSSINGS AND PORTS OF ENTRY",921130,CUSTOMS BUREAUS,22439654,-80.0519291,26.7708655,NAVTEQ,2009Q2,ONENTITY,YES,TGS,WATER PORT, , , , , ,0,0
147,146,"ALBANY PORT OF ENTRY, ALBANY INTERNATIONAL AIRPORT",518-431-0200,737 ALBANY SHAKER ROAD, ,ALBANY,NY,12211,1001,ALBANY,36001, , , , ,2009-09-14T00:00:00.000Z,ALT REF,2009-09-14T00:00:00.000Z,MANUAL,"MISCELLANEOUS; OTHER; BORDER CROSSINGS AND PORTS OF ENTRY",921130,CUSTOMS BUREAUS,91922967,-73.80769,42.7426657,NAVTEQ,2009Q2,ONENTITY, ,TGS,AIRPORT, ,PORT DIRECTOR,518-431-0203,8:00 AM - 4:30 PM, ,1,129
148,147,"PHILADELPHIA PORT OF ENTRY, LEHIGH VALLEY INTERNATIONAL AIRPORT",610-266-1042,3311 AIRPORT ROAD, ,ALLENTOWN,PA,18109,3074,LEHIGH,42077, , , , ,2009-09-11T00:00:00.000Z,ALT REF,2009-09-11T00:00:00.000Z,MANUAL,"MISCELLANEOUS; OTHER; BORDER CROSSINGS AND PORTS OF ENTRY",921130,CUSTOMS BUREAUS,19438502,-75.4416375,40.6486892,NAVTEQ,2009Q2,ONENTITY, ,TGS,AIRPORT, ,PORT DIRECTOR,610-266-3569,8:00 AM - 5:00 PM,1-877-CUSTOMS,1,151
149,148,"PORTLAND PORT OF ENTRY, PORT OF PORTLAND",207-771-3600,312 FORE STREET, ,PORTLAND,ME,04101,4110,CUMBERLAND,23005, , , , ,2009-09-17T00:00:00.000Z,PHONE,2009-09-17T00:00:00.000Z,MANUAL,"MISCELLANEOUS; OTHER; BORDER CROSSINGS AND PORTS OF ENTRY",921130,CUSTOMS BUREAUS,92105577,-70.2511237,43.6572124,NAVTEQ,2009Q2,ONENTITY,YES,TGS,WATER PORT, , , , , ,0,0
150,149,"LAKE CHARLES PORT OF ENTRY, PORT OF LAKE CHARLES",337-439-5512,150 MARINE STREET, ,LAKE CHARLES,LA,70601,5680,CALCASIEU,22019, , , , ,2009-09-11T00:00:00.000Z,PHONE,2009-09-11T00:00:00.000Z,MANUAL,"MISCELLANEOUS; OTHER; BORDER CROSSINGS AND PORTS OF ENTRY",921130,CUSTOMS BUREAUS,99655313,-93.2522593,30.2168726,NAVTEQ,2009Q2,ONENTITY,YES,TGS,WATER PORT, ,PORT DIRECTOR,318-437-7373,8:00 AM - 5:00 PM, ,1,83
151,150,"NASHVILLE PORT OF ENTRY, NASHVILLE INTERNATIONAL AIRPORT",615-736-2173,612 HANGAR LANE,ROOM 124,NASHVILLE,TN,37217,2522,DAVIDSON,47037, , , , ,2009-09-16T00:00:00.000Z,ALT REF,2009-09-16T00:00:00.000Z,MANUAL,"MISCELLANEOUS; OTHER; BORDER CROSSINGS AND PORTS OF ENTRY",921130,CUSTOMS BUREAUS,124163489,-86.6686887,36.1348875,NAVTEQ,2009Q2,ONENTITY, ,TGS,AIRPORT, ,PORT DIRECTOR,615-736-5331,8:00 AM - 5:00 PM, ,1,172
152,151,"VALDEZ PORT OF ENTRY, VALDEZ PIONEER FIELD AIRPORT",907-835-3597,300 AIRPORT ROAD, ,VALDEZ,AK,99686, ,VALDEZ-CORDOVA,02261,"CUSTOMS AND BORDER PROTECTION OFFICERS ARE NOT STATIONED ON SITE, MUST CALL PRIOR TO LANDING.", , , ,2009-09-17T00:00:00.000Z,ALT REF,2009-09-17T00:00:00.000Z,MANUAL,"MISCELLANEOUS; OTHER; BORDER CROSSINGS AND PORTS OF ENTRY",921130,CUSTOMS BUREAUS,734470153,-146.2431125,61.1313765,NAVTEQ,2009Q2,ONENTITY, ,TGS,AIRPORT, ,PORT DIRECTOR, , , ,1,13
153,152,"OROVILLE AREA PORT OF ENTRY, DOROTHY SCOTT INTERNATIONAL AIRPORT",509-476-2955,3 AIRPORT ROAD, ,OROVILLE,WA,98844,9543,OKANOGAN,53047,"CUSTOMS AND BORDER PROTECTION OFFICERS ARE NOT STATIONED ON SITE, MUST CALL PRIOR TO LANDING.", , , ,2010-01-06T00:00:00.000Z,ALT REF,2010-01-06T00:00:00.000Z,MANUAL,"MISCELLANEOUS; OTHER; BORDER CROSSINGS AND PORTS OF ENTRY",921130,CUSTOMS BUREAUS,92964359,-119.4133412,48.9599737,NAVTEQ,2009Q2,ONENTITY, ,TGS,AIRPORT, , , , , ,0,0
154,153,"AREA PORT OF TAMPA PORT OF ENTRY, PORT OF TAMPA",813-712-6000,1101 CHANNELSIDE DRIVE, ,TAMPA,FL,33602,3611,HILLSBOROUGH,12057, , , , ,2010-01-07T00:00:00.000Z,PHONE,2010-01-07T00:00:00.000Z,MANUAL,"MISCELLANEOUS; OTHER; BORDER CROSSINGS AND PORTS OF ENTRY",921130,CUSTOMS BUREAUS,762493020,-82.4392602,27.9310069,NAVTEQ,2009Q2,ONENTITY,NO,TGS,WATER PORT, , , , , ,0,0
155,154,"PORT ARTHUR-BEAUMONT PORT OF ENTRY, SOUTHEAST TEXAS REGIONAL AIRPORT",409-727-0285,4875 PARKER DRIVE, ,BEAUMONT,TX,77705,7649,JEFFERSON,48245,"CUSTOMS AND BORDER PROTECTION OFFICERS ARE NOT STATIONED ON SITE, MUST CALL PRIOR TO LANDING. REPRESENTED AT MAIN TERMINAL SINCE THEY ARE NOT STATIONED ON SITE.", , , ,2009-12-30T00:00:00.000Z,ALT REF,2009-12-30T00:00:00.000Z,MANUAL,"MISCELLANEOUS; OTHER; BORDER CROSSINGS AND PORTS OF ENTRY",921130,CUSTOMS BUREAUS,126563028,-94.0184387,29.9547617,NAVTEQ,2009Q2,ONENTITY, ,TGS,AIRPORT, , , , , ,0,0
156,155,"SEATTLE PORT OF ENTRY/TACOMA WASHINGTON PORT OF ENTRY, WILLIAM R FAIRCHILD INTERNATIONAL AIRPORT",360-457-4311,1402 FAIRCHILD INTERNATIONAL AIRPORT ROAD, ,PORT ANGELES,WA,98363, ,CLALLAM,53009,"CUSTOMS AND BORDER PROTECTION OFFICERS ARE NOT STATIONED ON SITE, MUST CALL PRIOR TO LANDING.", , , ,2010-01-05T00:00:00.000Z,ALT REF,2010-01-05T00:00:00.000Z,MANUAL,"MISCELLANEOUS; OTHER; BORDER CROSSINGS AND PORTS OF ENTRY",921130,CUSTOMS BUREAUS,706936092,-123.4930438,48.1164076,NAVTEQ,2009Q2,ONENTITY, ,TGS,AIRPORT, , , , , ,0,0
157,156,"SPRINGFIELD PORT OF ENTRY, WESTOVER METROPOLITAN AIRPORT-DOD",413-593-5543,255 PADGETTE STREET, ,CHICOPEE,MA,01022,1303,HAMPDEN,25013, , , , ,2009-09-15T00:00:00.000Z,ALT REF,2009-09-15T00:00:00.000Z,MANUAL,"MISCELLANEOUS; OTHER; BORDER CROSSINGS AND PORTS OF ENTRY",921130,CUSTOMS BUREAUS,22323177,-72.555744,42.1795071,NAVTEQ,2009Q2,ONENTITY, ,TGS,AIRPORT, ,PORT DIRECTOR,413-747-8940,8:00 AM - 5:00 PM, ,1,89
158,157,"BALTIMORE PORT OF ENTRY, PORT OF BALTIMORE",410-962-2666,40 SOUTH GAY STREET, ,BALTIMORE,MD,21202,4022,BALTIMORE CITY,24510,MULTIPLE CUSTOMS BUILDINGS AT THIS PORT. ADDRESS GOES TO ADMINISTRATION BUILDING., , , ,2010-01-08T00:00:00.000Z,ALT REF,2010-01-06T00:00:00.000Z,MANUAL,"MISCELLANEOUS; OTHER; BORDER CROSSINGS AND PORTS OF ENTRY",921130,CUSTOMS BUREAUS,745991779,-76.5944367,39.2636611,NAVTEQ,2009Q2,ONENTITY,YES,TGS,WATER PORT, ,PORT DIRECTOR,410-962-9335,8:00 AM - 5:00 PM,1-877-CUSTOMS,1,92
159,158,"LUBBOCK PORT OF ENTRY, LUBBOCK PRESTON SMITH INTERNATIONAL AIRPORT",806-762-5739,2203 EAST JAMESTOWN STREET, ,LUBBOCK,TX,79403,6841,LUBBOCK,48303, , , , ,2009-09-14T00:00:00.000Z,PHONE,2009-09-14T00:00:00.000Z,MANUAL,"MISCELLANEOUS; OTHER; BORDER CROSSINGS AND PORTS OF ENTRY",921130,CUSTOMS BUREAUS,103894590,-101.8150515,33.6578459,NAVTEQ,2009Q2,ONENTITY,YES,TGS,AIRPORT, ,PORT DIRECTOR,806-762-7183,8:30 AM - 5:00 PM, ,1,181
160,159,"AGANA PORT OF ENTRY, A B WON PAT GUAM INTERNATIONAL AIRPORT",671-642-7611,355 CHALAN PASAHERU, ,TAMUNING,GU,96913,4153,GUAM,66010, , , , ,2009-09-17T00:00:00.000Z,ALT REF,2009-09-17T00:00:00.000Z,MANUAL,"MISCELLANEOUS; OTHER; BORDER CROSSINGS AND PORTS OF ENTRY",921130,CUSTOMS BUREAUS,4410,144.8064465,13.4929848,GU_GOV,2006,ONENTITY, ,TGS,AIRPORT, , , , , ,0,0
161,160,"PENSACOLA PORT OF ENTRY, PORT OF PENSACOLA",850-476-0117,SOUTH BARRACKS STREET, ,PENSACOLA,FL,32502, ,ESCAMBIA,12033, , , , ,2009-09-18T00:00:00.000Z,PHONE,2009-09-18T00:00:00.000Z,MANUAL,"MISCELLANEOUS; OTHER; BORDER CROSSINGS AND PORTS OF ENTRY",921130,CUSTOMS BUREAUS,105785625,-87.210427,30.4020076,NAVTEQ,2009Q2,ONENTITY,NO,TGS,WATER PORT, ,PORT DIRECTOR,850-277-4588,8:30 AM - 5:00 PM,1-877-CUSTOMS,1,50
162,161,"BINGHAMTON PORT OF ENTRY, GREATER BINGHAMTON AIRPORT",607-763-4294,2534 AIRPORT ROAD, ,JOHNSON CITY,NY,13790,4100,BROOME,36007, , , , ,2009-09-11T00:00:00.000Z,ALT REF,2009-09-11T00:00:00.000Z,MANUAL,"MISCELLANEOUS; OTHER; BORDER CROSSINGS AND PORTS OF ENTRY",921130,CUSTOMS BUREAUS,758732960,-75.982129,42.2081056,NAVTEQ,2009Q2,ONENTITY, ,TGS,AIRPORT, ,PORT DIRECTOR,607-763-4292,8:30 AM - 5:00 PM, ,1,130
163,162,"VALDEZ PORT OF ENTRY, PORT OF VALDEZ",907-267-5309,105 CLIFTON DRIVE, ,VALDEZ,AK,99686, ,VALDEZ-CORDOVA,02261, , , , ,2009-12-29T00:00:00.000Z,PHONE,2009-12-29T00:00:00.000Z,MANUAL,"MISCELLANEOUS; OTHER; BORDER CROSSINGS AND PORTS OF ENTRY",921130,CUSTOMS BUREAUS,124881112,-146.3538383,61.1265282,NAVTEQ,2009Q2,ONENTITY,YES,TGS,WATER PORT, , , , , ,0,0
164,163,"GRAND FORKS PORT OF ENTRY, GRAND FORKS INTERNATIONAL AIRPORT",701-772-3301,2787 AIRPORT DRIVE, ,GRAND FORKS,ND,58203,8901,GRAND FORKS,38035, , , , ,2009-09-18T00:00:00.000Z,PHONE,2009-09-18T00:00:00.000Z,MANUAL,"MISCELLANEOUS; OTHER; BORDER CROSSINGS AND PORTS OF ENTRY",921130,CUSTOMS BUREAUS,125906681,-97.1771197,47.9486133,NAVTEQ,2009Q2,ONENTITY,YES,TGS,AIRPORT, , , , , ,0,0
165,164,"MINOT INTERNATIONAL AIRPORT PORT OF ENTRY, MINOT INTERNATIONAL AIRPORT",701-838-6704,2400 NORTH BROADWAY, ,MINOT,ND,58703,1095,WARD,38101, , , , ,2009-09-18T00:00:00.000Z,PHONE,2009-09-18T00:00:00.000Z,MANUAL,"MISCELLANEOUS; OTHER; BORDER CROSSINGS AND PORTS OF ENTRY",921130,CUSTOMS BUREAUS,90336598,-101.2941948,48.2623031,NAVTEQ,2009Q2,ONENTITY,YES,TGS,AIRPORT, , , , , ,0,0
166,165,"DETROIT METROPOLITAN AIRPORT PORT OF ENTRY, OAKLAND COUNTY INTERNATIONAL AIRPORT",248-666-7717,6500 HIGHLAND ROAD, ,WATERFORD,MI,48327,1607,OAKLAND,26125, , , , ,2009-09-29T00:00:00.000Z,ALT REF,2009-09-29T00:00:00.000Z,MANUAL,"MISCELLANEOUS; OTHER; BORDER CROSSINGS AND PORTS OF ENTRY",921130,CUSTOMS BUREAUS,127288332,-83.4168992,42.6629228,NAVTEQ,2009Q2,ONENTITY, ,TGS,AIRPORT, , , , , ,0,0
167,166,"LEXINGTON PORT OF ENTRY, BLUE GRASS AIRPORT",859-425-3111,4000 TERMINAL DRIVE, ,LEXINGTON,KY,40510,9645,FAYETTE,21067, , , , ,2009-09-10T00:00:00.000Z,ALT REF,2009-09-10T00:00:00.000Z,MANUAL,"MISCELLANEOUS; OTHER; BORDER CROSSINGS AND PORTS OF ENTRY",921130,CUSTOMS BUREAUS,111998714,-84.5985446,38.0374433,NAVTEQ,2009Q2,ONENTITY, ,TGS,AIRPORT, ,PORT DIRECTOR, , , ,1,211
168,167,"NEWPORT NEWS PORT OF ENTRY, NEWPORT NEWS MARINE TERMINAL",757-245-6470,2200 WEST AVENUE, ,NEWPORT NEWS,VA,23607, ,NEWPORT NEWS CITY,51700, , , , ,2009-09-15T00:00:00.000Z,PHONE,2009-09-15T00:00:00.000Z,MANUAL,"MISCELLANEOUS; OTHER; BORDER CROSSINGS AND PORTS OF ENTRY",921130,CUSTOMS BUREAUS,25189350,-76.4247164,36.9774323,NAVTEQ,2009Q2,ONENTITY,YES,TGS,WATER PORT, ,PORT DIRECTOR,757-247-7109,8:00 AM - 5:00 PM,1-877-CUSTOMS,1,187
169,168,"PORT OF ENTRY AT EVERETT, PORT OF EVERETT",425-258-8102,1720 WEST MARINE VIEW DRIVE, ,EVERETT,WA,98201,2087,SNOHOMISH,53061, , , , ,2009-10-26T00:00:00.000Z,PHONE,2009-10-26T00:00:00.000Z,MANUAL,"MISCELLANEOUS; OTHER; BORDER CROSSINGS AND PORTS OF ENTRY",921130,CUSTOMS BUREAUS,21012002,-122.2170697,47.9971747,NAVTEQ,2009Q2,ONENTITY,YES,TGS,WATER PORT, ,PORT DIRECTOR,425-259-0247,8:00 AM - 5:00 PM, ,1,194
170,169,"EVANSVILLE / OWENSBORO PORT OF ENTRY, EVANSVILLE REGIONAL AIRPORT",812-421-4401,7801 BUSSING DRIVE, ,EVANSVILLE,IN,47725,6728,VANDERBURGH,18163, , , , ,2009-09-11T00:00:00.000Z,ALT REF,2009-09-11T00:00:00.000Z,MANUAL,"MISCELLANEOUS; OTHER; BORDER CROSSINGS AND PORTS OF ENTRY",921130,CUSTOMS BUREAUS,125254002,-87.5276653,38.045998,NAVTEQ,2009Q2,ONENTITY, ,TGS,AIRPORT, ,PORT DIRECTOR,812-465-6413, , ,1,75
171,170,"MAYAGUEZ PORT OF ENTRY, PORT OF MAYAGUEZ",787-831-3342,AVENIDA GONZALEZ CLEMENTE 31, ,MAYAGUEZ,PR,00682, ,MAYAGUEZ,72097, , , , ,2009-09-15T00:00:00.000Z,PHONE,2009-09-15T00:00:00.000Z,MANUAL,"MISCELLANEOUS; OTHER; BORDER CROSSINGS AND PORTS OF ENTRY",921130,CUSTOMS BUREAUS,120143366,-67.1513942,18.206459,NAVTEQ,2009Q2,ONENTITY,YES,TGS,WATER PORT, ,PORT DIRECTOR, , , ,1,157
172,171,"HUNTSVILLE PORT OF ENTRY, HUNTSVILLE INTERNATIONAL AIRPORT",256-772-3404,2850 WALL TRIANA HIGHWAY, ,HUNTSVILLE,AL,35824,2700,MADISON,01089, , , , ,2009-09-10T00:00:00.000Z,ALT REF,2009-09-10T00:00:00.000Z,MANUAL,"MISCELLANEOUS; OTHER; BORDER CROSSINGS AND PORTS OF ENTRY",921130,CUSTOMS BUREAUS,38149147,-86.7601157,34.6412522,NAVTEQ,2009Q2,ONENTITY, ,TGS,AIRPORT, ,PORT DIRECTOR,205-772-8192,8:00 AM - 5:00 PM, ,1,16
173,172,"AREA PORT OF ORLANDO PORT OF ENTRY, ORLANDO INTERNATIONAL AIRPORT",407-240-4462,9076 BINNACLE WAY, ,ORLANDO,FL,32827,5314,ORANGE,12095, , , , ,2009-09-16T00:00:00.000Z,ALT REF,2009-09-16T00:00:00.000Z,MANUAL,"MISCELLANEOUS; OTHER; BORDER CROSSINGS AND PORTS OF ENTRY",921130,CUSTOMS BUREAUS,22404075,-81.3322994,28.4340642,NAVTEQ,2009Q2,ONENTITY, ,TGS,AIRPORT, ,PORT DIRECTOR,407- 240-768,8:30 AM - 5:00 PM,1-877-CUSTOMS,1,48
174,173,"TRI-CITIES PORT OF ENTRY, TRI-CITIES REGIONAL AIRPORT",423-325-6498,2525 STATE HIGHWAY 75, ,BLOUNTVILLE,TN,37617, ,SULLIVAN,47163, , , , ,2009-09-14T00:00:00.000Z,ALT REF,2009-09-14T00:00:00.000Z,MANUAL,"MISCELLANEOUS; OTHER; BORDER CROSSINGS AND PORTS OF ENTRY",921130,CUSTOMS BUREAUS,90965618,-82.4078999,36.4810186,NAVTEQ,2009Q2,ONENTITY, ,TGS,AIRPORT, ,PORT DIRECTOR,423-325-6499,8:00 AM - 5:00 PM, ,1,168
175,174,"MIDLAND PORT OF ENTRY, MIDLAND INTERNATIONAL AIRPORT",432-560-2230,9506 LA FORCE ROAD,3RD FLOOR,MIDLAND,TX,79706, ,MIDLAND,48329, , , , ,2009-09-18T00:00:00.000Z,ALT REF,2009-09-14T00:00:00.000Z,MANUAL,"MISCELLANEOUS; OTHER; BORDER CROSSINGS AND PORTS OF ENTRY",921130,CUSTOMS BUREAUS,90432920,-102.2077011,31.9372331,NAVTEQ,2009Q2,ONENTITY, ,TGS,AIRPORT, ,PORT DIRECTOR,915-560-2231, , ,1,182
176,175,"HOULTON PORT OF ENTRY, HOULTON INTERNATIONAL AIRPORT",207-532-2131,21 WATER STREET, ,HOULTON,ME,04730,2104,AROOSTOOK,23003,"CUSTOMS AND BORDER PROTECTION OFFICERS ARE NOT STATIONED ON SITE, MUST CALL PRIOR TO LANDING.", , , ,2010-01-06T00:00:00.000Z,ALT REF,2010-01-06T00:00:00.000Z,MANUAL,"MISCELLANEOUS; OTHER; BORDER CROSSINGS AND PORTS OF ENTRY",921130,CUSTOMS BUREAUS,123084349,-67.7858539,46.1251043,NAVTEQ,2009Q2,ONENTITY,NO,TGS,AIRPORT, , , , , ,0,0
177,176,"KALISPELL AIRPORT PORT OF ENTRY, GLACIER PARK INTERNATIONAL AIRPORT",406-257-7034,4170 UNITED STATES HIGHWAY 2 EAST,GLACIER PARK INTERNATIONAL AIRPORT,KALISPELL,MT,59901, ,FLATHEAD,30029, , , , ,2009-09-11T00:00:00.000Z,ALT REF,2009-09-11T00:00:00.000Z,MANUAL,"MISCELLANEOUS; OTHER; BORDER CROSSINGS AND PORTS OF ENTRY",921130,CUSTOMS BUREAUS,101608049,-114.2521898,48.3096223,NAVTEQ,2009Q2,ONENTITY, ,TGS,AIRPORT, ,PORT DIRECTOR, , , ,1,205
178,177,"SPIRIT OF SAINT LOUIS AIRPORT PORT OF ENTRY, SPIRIT OF SAINT LOUIS AIRPORT",636-536-1005,18270 EDISON AVENUE, ,CHESTERFIELD,MO,63005,3704,ST LOUIS,29189, , , , ,2009-09-11T00:00:00.000Z,ALT REF,2009-09-11T00:00:00.000Z,MANUAL,"MISCELLANEOUS; OTHER; BORDER CROSSINGS AND PORTS OF ENTRY",921130,CUSTOMS BUREAUS,124934079,-90.6455715,38.6621993,NAVTEQ,2009Q2,ONENTITY, ,TGS,AIRPORT, ,PORT DIRECTOR, , , ,1,206
179,178,"WHEELING PORT OF ENTRY, CHICAGO EXECUTIVE AIRPORT",847-419-1923,1005 SOUTH WOLF ROAD, ,WHEELING,IL,60090,6405,COOK,17031, , , , ,2009-10-26T00:00:00.000Z,PHONE,2009-10-26T00:00:00.000Z,MANUAL,"MISCELLANEOUS; OTHER; BORDER CROSSINGS AND PORTS OF ENTRY",921130,CUSTOMS BUREAUS,20081894,-87.8998671,42.1167572,NAVTEQ,2009Q2,ONENTITY, ,TGS,AIRPORT, ,PORT DIRECTOR,847-537-4188,24 HOURS, ,1,74
180,179,"DALLAS/FORT WORTH PORT OF ENTRY, MEACHAM INTERNATIONAL AIRPORT",972-870-7460,4201 NORTH MAIN STREET, ,FORT WORTH,TX,76106,2736,TARRANT,48439,"CUSTOMS AND BORDER PROTECTION OFFICERS ARE NOT STATIONED ON SITE, MUST CALL PRIOR TO LANDING.", , , ,2010-01-04T00:00:00.000Z,PHONE,2010-01-04T00:00:00.000Z,MANUAL,"MISCELLANEOUS; OTHER; BORDER CROSSINGS AND PORTS OF ENTRY",921130,CUSTOMS BUREAUS,709215187,-97.3550664,32.820721,NAVTEQ,2009Q2,ONENTITY,NO,TGS,AIRPORT, , , , , ,0,0
181,180,"AREA PORT OF TAMPA PORT OF ENTRY, TAMPA INTERNATIONAL AIRPORT",813-348-1714,4100 GEORGE J BEAN PARKWAY, ,TAMPA,FL,33607, ,HILLSBOROUGH,12057, , , , ,2009-09-16T00:00:00.000Z,ALT REF,2009-09-16T00:00:00.000Z,MANUAL,"MISCELLANEOUS; OTHER; BORDER CROSSINGS AND PORTS OF ENTRY",921130,CUSTOMS BUREAUS,122651509,-82.5376346,27.9768111,NAVTEQ,2009Q2,ONENTITY, ,TGS,AIRPORT, ,PORT DIRECTOR,813-225-7309,8:00 AM - 5:00 PM,1-877-CUSTOMS,1,56
182,181,"CHARLOTTE PORT OF ENTRY, CHARLOTTE DOUGLAS INTERNATIONAL AIRPORT",704-359-4000,5501 JOSH BIRMINGHAM PARKWAY, ,CHARLOTTE,NC,28208,5750,MECKLENBURG,37119, , , , ,2009-09-15T00:00:00.000Z,ALT REF,2009-09-15T00:00:00.000Z,MANUAL,"MISCELLANEOUS; OTHER; BORDER CROSSINGS AND PORTS OF ENTRY",921130,CUSTOMS BUREAUS,125485810,-80.9438122,35.220584,NAVTEQ,2009Q2,ONENTITY, ,TGS,AIRPORT, ,PORT DIRECTOR,704-329-6103,8:00 AM - 5:00 PM,1-877-CUSTOMS,1,113
183,182,"PORT OF ENTRY AT SPOKANE, SPOKANE INTERNATIONAL AIRPORT",509-353-2833,9000 WEST AIRPORT DRIVE, ,SPOKANE,WA,99224,9437,SPOKANE,53063, , , , ,2009-09-16T00:00:00.000Z,ALT REF,2009-09-16T00:00:00.000Z,MANUAL,"MISCELLANEOUS; OTHER; BORDER CROSSINGS AND PORTS OF ENTRY",921130,CUSTOMS BUREAUS,21384329,-117.5236321,47.6193171,NAVTEQ,2009Q2,ONENTITY, ,TGS,AIRPORT, ,PORT DIRECTOR,509-353-2663,8:00 AM - 4:00 PM, ,1,197
184,183,"GREEN BAY PORT OF ENTRY, AUSTIN STRAUBEL INTERNATIONAL AIRPORT",920-496-0606,2077 AIRPORT DRIVE, ,GREEN BAY,WI,54313,5596,BROWN,55009, , , , ,2009-09-11T00:00:00.000Z,ALT REF,2009-09-11T00:00:00.000Z,MANUAL,"MISCELLANEOUS; OTHER; BORDER CROSSINGS AND PORTS OF ENTRY",921130,CUSTOMS BUREAUS,108733765,-88.1275619,44.4918522,NAVTEQ,2009Q2,ONENTITY, ,TGS,AIRPORT, ,PORT DIRECTOR,920-496-1455,8:00 AM - 4:30 PM, ,1,199
185,184,"SUMAS PORT OF ENTRY, BELLINGHAM INTERNATIONAL AIRPORT",360-734-5463,4255 MITCHELL WAY, ,BELLINGHAM,WA,98226,7699,WHATCOM,53073, , , , ,2009-09-29T00:00:00.000Z,ALT REF,2009-09-29T00:00:00.000Z,MANUAL,"MISCELLANEOUS; OTHER; BORDER CROSSINGS AND PORTS OF ENTRY",921130,CUSTOMS BUREAUS,779139459,-122.5320352,48.7947995,NAVTEQ,2009Q2,ONENTITY, ,TGS,AIRPORT, , , , , ,0,0
186,185,"AUSTIN PORT OF ENTRY, AUSTIN-BERGSTROM INTERNATIONAL AIRPORT",512-530-3053,3600 PRESIDENTIAL BOULEVARD,SUITE 111,AUSTIN,TX,78719,2364,TRAVIS,48453, , , , ,2009-09-14T00:00:00.000Z,ALT REF,2009-09-14T00:00:00.000Z,MANUAL,"MISCELLANEOUS; OTHER; BORDER CROSSINGS AND PORTS OF ENTRY",921130,CUSTOMS BUREAUS,126560889,-97.6670144,30.2020569,NAVTEQ,2009Q2,ONENTITY, ,TGS,AIRPORT, ,PORT DIRECTOR,512-530-5055,8:00 A.M. - 5:00 P.M, ,1,174
187,186,"BOSTON PORT OF ENTRY, PORT OF BOSTON",617-565-6147,10 CAUSEWAY STREET,ROOM 603,BOSTON,MA,02222,1007,SUFFOLK,25025, , , , ,2009-09-16T00:00:00.000Z,ALT REF,2009-09-16T00:00:00.000Z,MANUAL,"MISCELLANEOUS; OTHER; BORDER CROSSINGS AND PORTS OF ENTRY",921130,CUSTOMS BUREAUS,746988228,-71.063177,42.3650646,NAVTEQ,2009Q2,ONENTITY, ,TGS,WATER PORT, ,PORT DIRECTOR, , , ,1,210
188,187,"HOUSTON SEA PORT PORT OF ENTRY, PORT OF GALVESTON",409-766-3581,2502 HARBORSIDE DRIVE, ,GALVESTON,TX,77550, ,GALVESTON,48167, , , , ,2010-01-08T00:00:00.000Z,ALT REF,2010-01-08T00:00:00.000Z,MANUAL,"MISCELLANEOUS; OTHER; BORDER CROSSINGS AND PORTS OF ENTRY",921130,CUSTOMS BUREAUS,41954740,-94.7964043,29.3085559,NAVTEQ,2009Q2,ONENTITY, ,TGS,WATER PORT, , , , , ,0,0
189,188,"AREA PORT OF JACKSONVILLE PORT OF ENTRY, JACKSONVILLE INTERNATIONAL AIRPORT",904-741-2000,2400 YANKEE CLIPPER DRIVE, ,JACKSONVILLE,FL,32218,2492,DUVAL,12031, , , , ,2009-09-22T00:00:00.000Z,ALT REF,2009-09-29T00:00:00.000Z,MANUAL,"MISCELLANEOUS; OTHER; BORDER CROSSINGS AND PORTS OF ENTRY",921130,CUSTOMS BUREAUS,122651343,-81.685291,30.4897679,NAVTEQ,2009Q2,ONENTITY, ,TGS,AIRPORT, , , , , ,0,0
190,189,"OKLAHOMA CITY PORT OF ENTRY, WILL ROGERS WORLD AIRPORT",405-319-6400,5600 AIR CARGO ROAD, ,OKLAHOMA CITY,OK,73159,1109,OKLAHOMA,40109, , , , ,2009-09-18T00:00:00.000Z,PHONE,2009-09-18T00:00:00.000Z,MANUAL,"MISCELLANEOUS; OTHER; BORDER CROSSINGS AND PORTS OF ENTRY",921130,CUSTOMS BUREAUS,30442970,-97.5928945,35.4068536,NAVTEQ,2009Q2,ONENTITY,YES,TGS,AIRPORT, ,PORT DIRECTOR,405-231-4346,8:30 AM - 5:00 PM, ,1,142
191,190,"PORTLAND PORT OF ENTRY, PORTLAND INTERNATIONAL AIRPORT",503-240-6700,7000 NORTHEAST AIRPORT WAY, ,PORTLAND,OR,97218,1009,MULTNOMAH,41051, , , , ,2009-09-10T00:00:00.000Z,ALT REF,2009-09-10T00:00:00.000Z,MANUAL,"MISCELLANEOUS; OTHER; BORDER CROSSINGS AND PORTS OF ENTRY",921130,CUSTOMS BUREAUS,21384390,-122.5852935,45.5874492,NAVTEQ,2009Q2,ONENTITY, ,TGS,AIRPORT, ,PORT DIRECTOR,503-326-3511,8:00 AM - 4:30 PM,EMERGENCY 24 HOUR CONTACT NUMBER (503)326-3515,1,148
192,191,"SAGINAW/BAY CITY/FLINT PORT OF ENTRY, MBS INTERNATIONAL AIRPORT",989-695-2871,8500 GARFIELD ROAD, ,FREELAND,MI,48623,8626,SAGINAW,26145, , , , ,2009-10-23T00:00:00.000Z,PHONE,2009-10-23T00:00:00.000Z,MANUAL,"MISCELLANEOUS; OTHER; BORDER CROSSINGS AND PORTS OF ENTRY",921130,CUSTOMS BUREAUS,90702254,-84.0875751,43.532,NAVTEQ,2009Q2,ONENTITY, ,TGS,AIRPORT, ,PORT DIRECTOR,517-695-2809,8:00 AM - 4:30 PM, ,1,96
193,192,"LUIS MUNOZ MARIN INTERNATIONAL AIRPORT PORT OF ENTRY, LUIS MUNOZ MARIN INTERNATIONAL AIRPORT",787-253-4540,EXPRESO ROMAN BALDORITY DE CASTRO,ISLA VERDE,CAROLINA,PR,00979, ,CAROLINA,72031, , , , ,2009-09-15T00:00:00.000Z,PHONE,2009-09-15T00:00:00.000Z,MANUAL,"MISCELLANEOUS; OTHER; BORDER CROSSINGS AND PORTS OF ENTRY",921130,CUSTOMS BUREAUS,120280448,-66.0041519,18.4391192,NAVTEQ,2009Q2,ONENTITY,YES,TGS,AIRPORT, , , , , ,0,0
194,193,"MELBOURNE PORT OF ENTRY, MELBOURNE INTERNATIONAL AIRPORT",321-674-5796,1 AIR TERMINAL PARKWAY, ,MELBOURNE,FL,32901,1864,BREVARD,12009, , , , ,2009-09-16T00:00:00.000Z,ALT REF,2009-09-16T00:00:00.000Z,MANUAL,"MISCELLANEOUS; OTHER; BORDER CROSSINGS AND PORTS OF ENTRY",921130,CUSTOMS BUREAUS,122645352,-80.6321616,28.0977345,NAVTEQ,2009Q2,ONENTITY, ,TGS,AIRPORT, ,PORT DIRECTOR,321-674-5797,8:00 AM - 5:00 PM,1-877-CUSTOMS,1,44
195,194,"KNOXVILLE PORT OF ENTRY, MCGHEE TYSON AIRPORT",865-545-4771,2055 ALCOA HIGHWAY, ,ALCOA,TN,37701,3179,BLOUNT,47009, , , , ,2009-09-11T00:00:00.000Z,ALT REF,2009-09-11T00:00:00.000Z,MANUAL,"MISCELLANEOUS; OTHER; BORDER CROSSINGS AND PORTS OF ENTRY",921130,CUSTOMS BUREAUS,124156420,-83.9900736,35.8058844,NAVTEQ,2009Q2,ONENTITY, ,TGS,AIRPORT, ,PORT DIRECTOR,865-545-4774,8:00 AM - 5:00 PM, ,1,170
196,195,"ROCKY MOUNTAIN METROPOLITAN AIRPORT PORT OF ENTRY, ROCKY MOUNTAIN METROPOLITAN AIRPORT",303-271-4884,11755 AIRPORT WAY, ,BROOMFIELD,CO,80021,2585,JEFFERSON,08059, , , , ,2009-09-11T00:00:00.000Z,PHONE,2009-09-11T00:00:00.000Z,MANUAL,"MISCELLANEOUS; OTHER; BORDER CROSSINGS AND PORTS OF ENTRY",921130,CUSTOMS BUREAUS,101955184,-105.1118234,39.9096786,NAVTEQ,2009Q2,ONENTITY,YES,TGS,AIRPORT, ,PORT DIRECTOR,303-271-4875,M-F 8:00 AM - 4:00 P, ,1,30
197,196,"CENTENNIAL AIRPORT PORT OF ENTRY, CENTENNIAL AIRPORT",303-768-0309,7601 SOUTH PEORIA STREET,SUITE D-16,ENGLEWOOD,CO,80112,4124,ARAPAHOE,08005, , , , ,2009-09-11T00:00:00.000Z,ALT REF,2009-09-11T00:00:00.000Z,MANUAL,"MISCELLANEOUS; OTHER; BORDER CROSSINGS AND PORTS OF ENTRY",921130,CUSTOMS BUREAUS,124021708,-104.8477547,39.5790187,NAVTEQ,2009Q2,ONENTITY, ,TGS,AIRPORT, ,PORT DIRECTOR,303-768-0784,M-F 8:30 AM - 4:30 P, ,1,32
198,197,"FAJARDO PORT OF ENTRY, PORT OF FAJARDO",787-863-0950,CALLE UNION 500, ,PUERTO REAL,PR,00740,2202,FAJARDO,72053, , , , ,2009-09-15T00:00:00.000Z,PHONE,2009-09-15T00:00:00.000Z,MANUAL,"MISCELLANEOUS; OTHER; BORDER CROSSINGS AND PORTS OF ENTRY",921130,CUSTOMS BUREAUS,120077889,-65.631561,18.3336561,NAVTEQ,2009Q2,ONENTITY,YES,TGS,WATER PORT, ,PORT DIRECTOR,787-860-5771,8:00 AM - 5:00 PM, ,1,156
199,198,"SAN YSIDRO PORT OF ENTRY, BROWN FIELD MUNICIPAL AIRPORT",619-661-3294,1424 CONTINENTAL STREET, ,SAN DIEGO,CA,92154,5702,SAN DIEGO,06073, , , , ,2009-09-29T00:00:00.000Z,ALT REF,2009-09-29T00:00:00.000Z,MANUAL,"MISCELLANEOUS; OTHER; BORDER CROSSINGS AND PORTS OF ENTRY",921130,CUSTOMS BUREAUS,24201170,-116.9854581,32.5697735,NAVTEQ,2009Q2,ONENTITY, ,TGS,AIRPORT, , , , , ,0,0
200,199,"GLOUCESTER PORT OF ENTRY, LAWRENCE MUNICIPAL AIRPORT",978-921-0782,492 SUTTON STREET, ,NORTH ANDOVER,MA,01845,1505,ESSEX,25009, , , , ,2010-01-11T00:00:00.000Z,PHONE,2010-01-11T00:00:00.000Z,MANUAL,"MISCELLANEOUS; OTHER; BORDER CROSSINGS AND PORTS OF ENTRY",921130,CUSTOMS BUREAUS,719383099,-71.1212715,42.7144459,NAVTEQ,2009Q2,ONENTITY,NO,TGS,AIRPORT, ,PORT DIRECTOR, , , ,1,208
201,200,"BANGOR PORT OF ENTRY, BANGOR INTERNATIONAL AIRPORT",207-947-7861,267A GODFREY BOULEVARD, ,BANGOR,ME,04401,3099,PENOBSCOT,23019, , , , ,2009-10-26T00:00:00.000Z,PHONE,2009-10-26T00:00:00.000Z,MANUAL,"MISCELLANEOUS; OTHER; BORDER CROSSINGS AND PORTS OF ENTRY",921130,CUSTOMS BUREAUS,123095051,-68.8178033,44.8086131,NAVTEQ,2009Q2,ONENTITY, ,TGS,AIRPORT, ,PORT DIRECTOR,207-941-2360,8:00 AM - 6:00 PM, ,1,93
202,201,"SAN FRANCISCO PORT OF ENTRY, OAKLAND INTERNATIONAL AIRPORT",510-273-6032,1 AIRPORT DRIVE, ,OAKLAND,CA,94621,1430,ALAMEDA,06001, , , , ,2009-12-31T00:00:00.000Z,ALT REF,2009-12-31T00:00:00.000Z,MANUAL,"MISCELLANEOUS; OTHER; BORDER CROSSINGS AND PORTS OF ENTRY",921130,CUSTOMS BUREAUS,764263059,-122.2151805,37.7126215,NAVTEQ,2009Q2,ONENTITY, ,TGS,AIRPORT, , , , , ,0,0
203,202,"CALEXICO EAST/WEST PORT OF ENTRY, CALEXICO INTERNATIONAL AIRPORT",760-357-1208,801 WEST 2ND STREET, ,CALEXICO,CA,92231,9645,IMPERIAL,06025, , , , ,2009-12-18T00:00:00.000Z,ALT REF,2009-12-18T00:00:00.000Z,MANUAL,"MISCELLANEOUS; OTHER; BORDER CROSSINGS AND PORTS OF ENTRY",921130,CUSTOMS BUREAUS,118009531,-115.5099154,32.6663368,NAVTEQ,2009Q2,ONENTITY, ,TGS,AIRPORT, , , , , ,0,0
204,203,"PEMBINA PORT OF ENTRY, PEMBINA MUNICIPAL AIRPORT",701-825-6551,10597 OLD HIGHWAY 81, ,PEMBINA,ND,58271,9703,PEMBINA,38067, , , , ,2010-01-11T00:00:00.000Z,ALT REF,2010-01-11T00:00:00.000Z,MANUAL,"MISCELLANEOUS; OTHER; BORDER CROSSINGS AND PORTS OF ENTRY",921130,CUSTOMS BUREAUS,100752387,-97.2404757,48.9486841,NAVTEQ,2009Q2,ONENTITY, ,TGS,AIRPORT, , , , , ,0,0
205,204,"CHARLESTON PORT OF ENTRY, CHARLESTON INTERNATIONAL AIRPORT",843-552-2696,5500 INTERNATIONAL BOULEVARD, ,CHARLESTON,SC,29418,6900,CHARLESTON,45019, , , , ,2009-12-28T00:00:00.000Z,ALT REF,2009-12-28T00:00:00.000Z,MANUAL,"MISCELLANEOUS; OTHER; BORDER CROSSINGS AND PORTS OF ENTRY",921130,CUSTOMS BUREAUS,42948442,-80.0369008,32.8846299,NAVTEQ,2009Q2,ONENTITY, ,TGS,AIRPORT, , , , , ,0,0
206,205,"SEATTLE PORT OF ENTRY, KING COUNTY INTERNATIONAL AIRPORT/BOEING FIELD",206-553-1920,7277 PERIMETER ROAD SOUTH, ,SEATTLE,WA,98108,3844,KING,53033, , , , ,2010-01-06T00:00:00.000Z,ALT REF,2010-01-06T00:00:00.000Z,MANUAL,"MISCELLANEOUS; OTHER; BORDER CROSSINGS AND PORTS OF ENTRY",921130,CUSTOMS BUREAUS,21157745,-122.3038366,47.5368327,NAVTEQ,2009Q2,ONENTITY,YES,TGS,AIRPORT, , , , , ,0,0
207,206,"BAUDETTE PORT OF ENTRY, BAUDETTE INTERNATIONAL AIRPORT",218-634-2803,1 AIRPORT ROAD, ,BAUDETTE,MN,56623, ,LAKE OF THE WOODS,27077,"CUSTOMS AND BORDER PROTECTION OFFICERS ARE NOT STATIONED ON SITE, MUST CALL PRIOR TO LANDING.", , , ,2010-01-05T00:00:00.000Z,ALT REF,2010-01-05T00:00:00.000Z,MANUAL,"MISCELLANEOUS; OTHER; BORDER CROSSINGS AND PORTS OF ENTRY",921130,CUSTOMS BUREAUS,122601208,-94.6025019,48.7212753,NAVTEQ,2009Q2,ONENTITY, ,TGS,AIRPORT, , , , , ,0,0
208,207,"RACINE PORT OF ENTRY, BATTEN INTERNATIONAL AIRPORT",262-633-0286,3239 NORTH GREEN BAY ROAD, ,RACINE,WI,53404,1545,RACINE,55101, , , , ,2010-01-08T00:00:00.000Z,ALT REF,2010-01-08T00:00:00.000Z,MANUAL,"MISCELLANEOUS; OTHER; BORDER CROSSINGS AND PORTS OF ENTRY",921130,CUSTOMS BUREAUS,38607626,-87.8204654,42.7589278,NAVTEQ,2009Q2,ONENTITY,NO,TGS,AIRPORT, ,PORT DIRECTOR,414-633-0286,8:00 AM - 4:30 PM, ,1,201
209,208,"SWEETGRASS AREA PORT OF ENTRY, CUT BANK INTERNATIONAL AIRPORT",406-335-9610,2705 VALIER HIGHWAY, ,CUT BANK,MT,59427, ,GLACIER,30035,"CUSTOMS AND BORDER PROTECTION OFFICERS ARE NOT STATIONED ON SITE, MUST CALL PRIOR TO LANDING.", , , ,2010-01-08T00:00:00.000Z,ALT REF,2010-01-08T00:00:00.000Z,MANUAL,"MISCELLANEOUS; OTHER; BORDER CROSSINGS AND PORTS OF ENTRY",921130,CUSTOMS BUREAUS,123824721,-112.364884,48.6070205,NAVTEQ,2009Q2,ONENTITY, ,TGS,AIRPORT, , , , , ,0,0
210,209,"ALLIANCE AIRPORT PORT OF ENTRY, FORT WORTH ALLIANCE AIRPORT",817-837-1000,2221 ALLIANCE BOULEVARD, ,FORT WORTH,TX,76177,4325,TARRANT,48439, , , , ,2009-09-14T00:00:00.000Z,ALT REF,2009-09-14T00:00:00.000Z,MANUAL,"MISCELLANEOUS; OTHER; BORDER CROSSINGS AND PORTS OF ENTRY",921130,CUSTOMS BUREAUS,17682881,-97.3139668,32.9875119,NAVTEQ,2009Q2,ONENTITY, ,TGS,AIRPORT, ,PORT DIRECTOR,817-890-1099,8:30 AM - 5:00 PM, ,1,179
211,210,"JUNEAU PORT OF ENTRY, JUNEAU INTERNATIONAL AIRPORT",907-586-7211,1875 SHELL SIMMONS DRIVE,SUITE 116,JUNEAU,AK,99801,9375,JUNEAU,02110, , , , ,2009-09-15T00:00:00.000Z,ALT REF,2009-09-15T00:00:00.000Z,MANUAL,"MISCELLANEOUS; OTHER; BORDER CROSSINGS AND PORTS OF ENTRY",921130,CUSTOMS BUREAUS,703982646,-134.5836575,58.3590885,NAVTEQ,2009Q2,ONENTITY, ,TGS,AIRPORT, ,PORT DIRECTOR,907-586-9309,7:00 AM - 5:00 PM, ,1,10
212,211,"HOUSTON SEA PORT PORT OF ENTRY, PORT OF HOUSTON",713-454-8002,1515 EAST BARBOURS CUT BOULEVARD, ,LA PORTE,TX,77571,3015,HARRIS,48201,ENTITY TRAVELS TO MULTIPLE TERMINALS AT PORT., , , ,2010-01-08T00:00:00.000Z,ALT REF,2010-01-08T00:00:00.000Z,MANUAL,"MISCELLANEOUS; OTHER; BORDER CROSSINGS AND PORTS OF ENTRY",921130,CUSTOMS BUREAUS,18346375,-94.9968799,29.6782438,NAVTEQ,2009Q2,ONENTITY, ,TGS,WATER PORT, , , , , ,0,0
213,212,"FORT WAYNE PORT OF ENTRY, FORT WAYNE INTERNATIONAL AIRPORT",260-747-7276,12602 GLOBAL DRIVE, ,FORT WAYNE,IN,46809, ,ALLEN,18003, , , , ,2009-09-18T00:00:00.000Z,ALT REF,2009-09-18T00:00:00.000Z,MANUAL,"MISCELLANEOUS; OTHER; BORDER CROSSINGS AND PORTS OF ENTRY",921130,CUSTOMS BUREAUS, ,-85.2155596,40.9685706,TGS,2009Q2,ONENTITY, ,TGS,AIRPORT, ,PORT DIRECTOR,219-747-7601,8:30 AM - 5:00 PM, ,1,4
214,213,"RENO PORT OF ENTRY, RENO-TAHOE INTERNATIONAL AIRPORT",775-784-5585,2220 RADAR STREET, ,RENO,NV,89502,3222,WASHOE,32031, , , , ,2009-09-11T00:00:00.000Z,ALT REF,2009-09-11T00:00:00.000Z,MANUAL,"MISCELLANEOUS; OTHER; BORDER CROSSINGS AND PORTS OF ENTRY",921130,CUSTOMS BUREAUS, ,-119.7747389,39.5080318,TGS,2009Q2,ONENTITY, ,TGS,AIRPORT, ,PORT DIRECTOR,775-784-5718,8:00 AM - 5:00 PM, ,1,128
215,214,"BATTLE CREEK PORT OF ENTRY, W.K. KELLOGG INTERNATIONAL AIRPORT/KALAMAZOO-BATTLE CREEK",269-965-3349,5325 PORTAGE ROAD, ,KALAMAZOO,MI,49002,1715,KALAMAZOO,26077, , , , ,2010-01-08T00:00:00.000Z,ALT REF,2010-01-08T00:00:00.000Z,MANUAL,"MISCELLANEOUS; OTHER; BORDER CROSSINGS AND PORTS OF ENTRY",921130,CUSTOMS BUREAUS,107916248,-85.5560561,42.2394845,NAVTEQ,2009Q2,ONENTITY, ,TGS,AIRPORT, , , , , ,0,0
216,215,"AGANA PORT OF ENTRY, PORT OF AGANA",671-477-5931,1026 CABRAS HIGHWAY,SUITE 201,PITI,GU,96915,5609,GUAM,66010, , , , ,2010-01-04T00:00:00.000Z,ALT REF,2010-01-04T00:00:00.000Z,MANUAL,"MISCELLANEOUS; OTHER; BORDER CROSSINGS AND PORTS OF ENTRY",921130,CUSTOMS BUREAUS,2593,144.6752154,13.4621027,GU_GOV,2006,ONENTITY, ,TGS,WATER PORT, , , , , ,0,0
217,216,"ASHTABULA/CONNEAUT PORT OF ENTRY, PORT OF ASHTABULA",440-964-2510,1170 LAKE AVENUE, ,ASHTABULA,OH,44004,2930,ASHTABULA,39007, , , , ,2009-09-18T00:00:00.000Z,ALT REF,2009-09-18T00:00:00.000Z,MANUAL,"MISCELLANEOUS; OTHER; BORDER CROSSINGS AND PORTS OF ENTRY",921130,CUSTOMS BUREAUS,106543590,-80.8044346,41.8886808,NAVTEQ,2009Q2,ONENTITY, ,TGS,WATER PORT, ,PORT DIRECTOR,440-998-3845,8:00 AM - 4:00 PM, ,1,135
218,217,"EL PASO PORT OF ENTRY, EL PASO INTERNATIONAL AIRPORT",915-782-4700,6701 CONVAIR ROAD, ,EL PASO,TX,79925,1099,EL PASO,48141, , , , ,2009-09-29T00:00:00.000Z,ALT REF,2009-09-29T00:00:00.000Z,MANUAL,"MISCELLANEOUS; OTHER; BORDER CROSSINGS AND PORTS OF ENTRY",921130,CUSTOMS BUREAUS,122781249,-106.395779,31.7997394,NAVTEQ,2009Q2,ONENTITY, ,TGS,AIRPORT, , , , , ,0,0
219,218,"LAREDO PORT OF ENTRY, LAREDO INTERNATIONAL AIRPORT",956-791-6847,5210 BOB BULLOCK LOOP, ,LAREDO,TX,78041,8801,WEBB,48479, , , , ,2009-09-29T00:00:00.000Z,ALT REF,2009-09-29T00:00:00.000Z,MANUAL,"MISCELLANEOUS; OTHER; BORDER CROSSINGS AND PORTS OF ENTRY",921130,CUSTOMS BUREAUS,737449669,-99.455616,27.5436399,NAVTEQ,2009Q2,ONENTITY, ,TGS,AIRPORT, , , , , ,0,0
220,219,"PHILADELPHIA PORT OF ENTRY, TRENTON MERCER AIRPORT",609-637-0470,1100 TERMINAL CIRCLE DRIVE, ,TRENTON,NJ,08628,2411,MERCER,34021,"CUSTOMS AND BORDER PROTECTION OFFICERS ARE NOT STATIONED ON SITE, MUST CALL PRIOR TO LANDING.", , , ,2009-12-18T00:00:00.000Z,ALT REF,2009-12-18T00:00:00.000Z,MANUAL,"MISCELLANEOUS; OTHER; BORDER CROSSINGS AND PORTS OF ENTRY",921130,CUSTOMS BUREAUS,125398631,-74.8180035,40.2770449,NAVTEQ,2009Q2,ONENTITY, ,TGS,AIRPORT, , , , , ,0,0
221,220,"AMARILLO PORT OF ENTRY, RICK HUSBAND AMARILLO INTERNATIONAL AIRPORT",806-335-3533,10801 AIRPORT BOULEVARD, ,AMARILLO,TX,79111,1211,POTTER,48375, , , , ,2009-09-14T00:00:00.000Z,ALT REF,2009-09-14T00:00:00.000Z,MANUAL,"MISCELLANEOUS; OTHER; BORDER CROSSINGS AND PORTS OF ENTRY",921130,CUSTOMS BUREAUS,126578213,-101.7054146,35.2184094,NAVTEQ,2009Q2,ONENTITY, ,TGS,AIRPORT, ,PORT DIRECTOR,806-335-3627,8:30 AM - 5:00 PM, ,1,173
222,221,"HIDALGO/PHARR PORT OF ENTRY, MCALLEN-MILLER INTERNATIONAL AIRPORT",956-682-2331,2500 SOUTH BICENTENIAL BOULEVARD, ,MCALLEN,TX,78503,3184,HIDALGO,48215, , , , ,2009-12-20T00:00:00.000Z,ALT REF,2009-12-20T00:00:00.000Z,MANUAL,"MISCELLANEOUS; OTHER; BORDER CROSSINGS AND PORTS OF ENTRY",921130,CUSTOMS BUREAUS,122443725,-98.2397607,26.1809025,NAVTEQ,2009Q2,ONENTITY, ,TGS,AIRPORT, , , , , ,0,0
223,222,"MILWAUKEE PORT OF ENTRY, GENERAL MITCHELL INTERNATIONAL AIRPORT",414-747-5300,5300 SOUTH HOWELL AVENUE, ,MILWAUKEE,WI,53207,6156,MILWAUKEE,55079, , , , ,2009-09-11T00:00:00.000Z,PHONE,2009-09-11T00:00:00.000Z,MANUAL,"MISCELLANEOUS; OTHER; BORDER CROSSINGS AND PORTS OF ENTRY",921130,CUSTOMS BUREAUS,125144344,-87.9039584,42.950679,NAVTEQ,2009Q2,ONENTITY,NO,TGS,AIRPORT, ,PORT DIRECTOR,414-762-0253,8:00 AM - 4:30 PM, ,1,200
224,223,"WASHINGTON DULLES PORT OF ENTRY, DULLES INTERNATIONAL AIRPORT",703-661-7140,23723 AIR FREIGHT LANE,BUILDING 5,STERLING,VA,20166,7617,LOUDOUN,51107, , , , ,2009-09-15T00:00:00.000Z,PHONE,2009-09-15T00:00:00.000Z,MANUAL,"MISCELLANEOUS; OTHER; BORDER CROSSINGS AND PORTS OF ENTRY",921130,CUSTOMS BUREAUS,128076282,-77.453148,38.9603011,NAVTEQ,2009Q2,ONENTITY,YES,TGS,AIRPORT, ,PORT DIRECTOR,703-318-6706,8:30 AM - 5:00 PM,202-354-1000,1,36
225,224,"INTERNATIONAL FALLS PORT OF ENTRY, FALLS INTERNATIONAL AIRPORT",218-283-2541,3214 2ND AVENUE EAST, ,INTERNATIONAL FALLS,MN,56649,8955,KOOCHICHING,27071, , , , ,2009-09-16T00:00:00.000Z,ALT REF,2009-09-16T00:00:00.000Z,MANUAL,"MISCELLANEOUS; OTHER; BORDER CROSSINGS AND PORTS OF ENTRY",921130,CUSTOMS BUREAUS,122703311,-93.3979618,48.5659704,NAVTEQ,2009Q2,ONENTITY, ,TGS,AIRPORT, , , , , ,0,0
226,225,"DETROIT PORT OF ENTRY, COLEMAN A YOUNG INTERNATIONAL AIRPORT",313-393-3793,11499 CONNER STREET, ,DETROIT,MI,48213,1234,WAYNE,26163, , , , ,2009-12-18T00:00:00.000Z,ALT REF,2009-12-18T00:00:00.000Z,MANUAL,"MISCELLANEOUS; OTHER; BORDER CROSSINGS AND PORTS OF ENTRY",921130,CUSTOMS BUREAUS,19712908,-83.0039301,42.4090629,NAVTEQ,2009Q2,ONENTITY, ,TGS,AIRPORT, , , , , ,0,0
227,226,"BUFFALO PORT OF ENTRY, NIAGARA FALLS INTERNATIONAL AIRPORT",716-282-1400,NIAGARA FALLS BOULEVARD AT PORTER ROAD, ,NIAGARA FALLS,NY,14304, ,NIAGARA,36063, , , , ,2009-09-29T00:00:00.000Z,ALT REF,2009-09-29T00:00:00.000Z,MANUAL,"MISCELLANEOUS; OTHER; BORDER CROSSINGS AND PORTS OF ENTRY",921130,CUSTOMS BUREAUS,34079934,-78.9432356,43.1002638,NAVTEQ,2009Q2,ONENTITY, ,TGS,AIRPORT, , , , , ,0,0
228,227,"PORT OF ENTRY AT STEWART INTERNATIONAL AIRPORT, STEWART INTERNATIONAL AIRPORT",845-564-7200,1130 1ST STREET, ,NEW WINDSOR,NY,12553,8431,ORANGE,36071, , , , ,2010-01-05T00:00:00.000Z,ALT REF,2010-01-05T00:00:00.000Z,MANUAL,"MISCELLANEOUS; OTHER; BORDER CROSSINGS AND PORTS OF ENTRY",921130,CUSTOMS BUREAUS,38484301,-74.100588,41.4986609,NAVTEQ,2009Q2,ONENTITY,NO,TGS,AIRPORT, , , , , ,0,0
229,228,"DOUGLAS PORT OF ENTRY, BISBEE DOUGLAS INTERNATIONAL AIRPORT",520-364-8486,6940 NORTH AIR TERMINAL BOULEVARD, ,DOUGLAS,AZ,85607,6286,COCHISE,04003, , , , ,2010-01-11T00:00:00.000Z,ALT REF,2010-01-11T00:00:00.000Z,MANUAL,"MISCELLANEOUS; OTHER; BORDER CROSSINGS AND PORTS OF ENTRY",921130,CUSTOMS BUREAUS,122549642,-109.5971526,31.4584791,NAVTEQ,2009Q2,ONENTITY, ,TGS,AIRPORT, , , , , ,0,0
230,229,"SAN JUAN PORT OF ENTRY, FERNANDO LUIS RIBAS DOMINICCI AIRPORT",787-289-7978,64 CALLE LINDBERGH,FERNANDO LUIS RIBAS DOMINICCI AIRPORT TERMINAL,SAN JUAN,PR,00907, ,SAN JUAN,72127,"CUSTOMS AND BORDER PROTECTION OFFICERS ARE NOT STATIONED ON SITE, MUST CALL PRIOR TO LANDING.", , , ,2010-01-06T00:00:00.000Z,PHONE,2010-01-06T00:00:00.000Z,MANUAL,"MISCELLANEOUS; OTHER; BORDER CROSSINGS AND PORTS OF ENTRY",921130,CUSTOMS BUREAUS,120271205,-66.0978805,18.4558371,NAVTEQ,2009Q2,ONENTITY,YES,TGS,AIRPORT, , , , , ,0,0
231,230,"KETCHIKAN PORT OF ENTRY, KETCHIKAN INTERNATIONAL AIRPORT",907-225-2254,1000 AIRPORT TERMINAL WAY, ,KETCHIKAN,AK,99901,5763,KETCHIKAN GATEWAY,02130,"CUSTOMS AND BORDER PROTECTION OFFICERS ARE NOT STATIONED ON SITE, MUST CALL PRIOR TO LANDING.", , , ,2010-01-05T00:00:00.000Z,PHONE,2010-01-12T00:00:00.000Z,MANUAL,"MISCELLANEOUS; OTHER; BORDER CROSSINGS AND PORTS OF ENTRY",921130,CUSTOMS BUREAUS,721565702,-131.7097168,55.3569163,NAVTEQ,2009Q2,ONENTITY,NO,TGS,AIRPORT, , , , , ,0,0
232,231,"OGDENSBURG PORT OF ENTRY, OGDENSBURG INTERNATIONAL AIRPORT",315-393-1390,5840 STATE HIGHWAY 812, ,OGDENSBURG,NY,13669,4302,ST LAWRENCE,36089,"CUSTOMS AND BORDER PROTECTION OFFICERS ARE NOT STATIONED ON SITE, MUST CALL PRIOR TO LANDING.", , , ,2010-01-05T00:00:00.000Z,PHONE,2010-01-05T00:00:00.000Z,MANUAL,"MISCELLANEOUS; OTHER; BORDER CROSSINGS AND PORTS OF ENTRY",921130,CUSTOMS BUREAUS,758734465,-75.4761709,44.6778791,NAVTEQ,2009Q2,ONENTITY,NO,TGS,AIRPORT, , , , , ,0,0
233,232,"PORTHILL PORT OF ENTRY, ECKHART INTERNATIONAL AIRPORT",208-267-5309,12222 STATE HIGHWAY 1, ,PORTHILL,ID,83853, ,BOUNDARY,16021,"CUSTOMS AND BORDER PROTECTION OFFICERS ARE NOT STATIONED ON SITE, MUST CALL PRIOR TO LANDING.", , , ,2010-01-05T00:00:00.000Z,PHONE,2010-01-05T00:00:00.000Z,MANUAL,"MISCELLANEOUS; OTHER; BORDER CROSSINGS AND PORTS OF ENTRY",921130,CUSTOMS BUREAUS,123851851,-116.5020297,48.9910045,NAVTEQ,2009Q2,ONENTITY,NO,TGS,AIRPORT, , , , , ,0,0
234,233,"PONCE PORT OF ENTRY, MERCEDITA AIRPORT",787-843-5950,CARRETERA 10,"BARRIO CALZADA, SECTOR MERCEDITA",PONCE,PR,00715, ,PONCE,72113, , , , ,2009-12-21T00:00:00.000Z,PHONE,2009-12-21T00:00:00.000Z,MANUAL,"MISCELLANEOUS; OTHER; BORDER CROSSINGS AND PORTS OF ENTRY",921130,CUSTOMS BUREAUS,129366132,-66.56322,18.0106086,NAVTEQ,2009Q2,ONENTITY,YES,TGS,AIRPORT, , , , , ,0,0
235,234,"PORTLAND PORT OF ENTRY, PORTLAND INTERNATIONAL JETPORT",207-771-3600,1001 WESTBROOK STREET, ,PORTLAND,ME,04102,1938,CUMBERLAND,23005, , , , ,2010-01-06T00:00:00.000Z,PHONE,2010-01-06T00:00:00.000Z,MANUAL,"MISCELLANEOUS; OTHER; BORDER CROSSINGS AND PORTS OF ENTRY",921130,CUSTOMS BUREAUS,110379488,-70.3012528,43.6489818,NAVTEQ,2009Q2,ONENTITY, ,TGS,AIRPORT, , , , , ,0,0
236,235,"PORT OF ENTRY AT LEBANON, LEBANON MUNICIPAL AIRPORT",603-298-8878,5 AIRPARK ROAD, ,WEST LEBANON,NH,03784,1680,GRAFTON,33009, , , , ,2009-09-11T00:00:00.000Z,ALT REF,2009-09-11T00:00:00.000Z,MANUAL,"MISCELLANEOUS; OTHER; BORDER CROSSINGS AND PORTS OF ENTRY",921130,CUSTOMS BUREAUS,119778145,-72.3104323,43.6285728,NAVTEQ,2009Q2,ONENTITY, ,TGS,AIRPORT, ,PORT DIRECTOR,802-873-3628,24 HOURS, ,1,120
237,236,"COLUMBIA PORT OF ENTRY, COLUMBIA METROPOLITAN AIRPORT",803-822-5251,2533-A AIRPORT BOULEVARD, ,WEST COLUMBIA,SC,29170,2142,LEXINGTON,45063, , , , ,2009-09-14T00:00:00.000Z,ALT REF,2009-09-14T00:00:00.000Z,MANUAL,"MISCELLANEOUS; OTHER; BORDER CROSSINGS AND PORTS OF ENTRY",921130,CUSTOMS BUREAUS,109878448,-81.1254143,33.9450921,NAVTEQ,2009Q2,ONENTITY, ,TGS,AIRPORT, ,PORT DIRECTOR,803-822-5055,8:00 AM - 5:00 PM,1-877-CUSTOMS,1,163
238,237,"SAULT SAINTE MARIE PORT OF ENTRY, DRUMMOND ISLAND AIRPORT",906-632-2631,34264 SOUTH TOWNLINE ROAD, ,DRUMMOND ISLAND,MI,49726,9636,CHIPPEWA,26033,"CUSTOMS AND BORDER PROTECTION OFFICERS ARE NOT STATIONED ON SITE, MUST CALL PRIOR TO LANDING.", , , ,2010-01-05T00:00:00.000Z,PHONE,2010-01-05T00:00:00.000Z,MANUAL,"MISCELLANEOUS; OTHER; BORDER CROSSINGS AND PORTS OF ENTRY",921130,CUSTOMS BUREAUS,115658783,-83.7389496,46.0090865,NAVTEQ,2009Q2,ONENTITY,NO,TGS,AIRPORT, , , , , ,0,0
239,238,"DAYTON PORT OF ENTRY, DAYTON INTERNATIONAL AIRPORT",937-890-7633,3800 WRIGHT DRIVE, ,VANDALIA,OH,45377,1004,MONTGOMERY,39113, , , , ,2009-09-18T00:00:00.000Z,ALT REF,2009-09-18T00:00:00.000Z,MANUAL,"MISCELLANEOUS; OTHER; BORDER CROSSINGS AND PORTS OF ENTRY",921130,CUSTOMS BUREAUS,46792791,-84.2056392,39.904508,NAVTEQ,2009Q2,ONENTITY, ,TGS,AIRPORT, ,PORT DIRECTOR,937-890-7485,8:00 AM - 4:30 PM, ,1,139
240,239,"SHREVEPORT-BOSSIER CITY PORT OF ENTRY, SHREVEPORT REGIONAL AIRPORT",318-635-7873,6125 INTERSTATE DRIVE,BAY 11,SHREVEPORT,LA,71109,7755,CADDO,22017, , , , ,2009-09-11T00:00:00.000Z,ALT REF,2009-09-11T00:00:00.000Z,MANUAL,"MISCELLANEOUS; OTHER; BORDER CROSSINGS AND PORTS OF ENTRY",921130,CUSTOMS BUREAUS,99532854,-93.8231062,32.4544723,NAVTEQ,2009Q2,ONENTITY, ,TGS,AIRPORT, ,PORT DIRECTOR,318-676-3243,8:00 AM - 5:00 PM, ,1,86
241,240,"SUMAS PORT OF ENTRY, FRIDAY HARBOR AIRPORT",360-378-2080,800 FRANKLIN DRIVE, ,FRIDAY HARBOR,WA,98250,9348,SAN JUAN,53055, , , , ,2010-01-11T00:00:00.000Z,ALT REF,2010-01-11T00:00:00.000Z,MANUAL,"MISCELLANEOUS; OTHER; BORDER CROSSINGS AND PORTS OF ENTRY",921130,CUSTOMS BUREAUS,112445297,-123.0261865,48.5248388,NAVTEQ,2009Q2,ONENTITY, ,TGS,AIRPORT, , , , , ,0,0
242,241,"BUFFALO PORT OF ENTRY, BUFFALO NIAGARA INTERNATIONAL AIRPORT",716-632-4727,4200 GENESEE STREET, ,CHEEKTOWAGA,NY,14225,1941,ERIE,36029, , , , ,2009-09-29T00:00:00.000Z,ALT REF,2009-09-29T00:00:00.000Z,MANUAL,"MISCELLANEOUS; OTHER; BORDER CROSSINGS AND PORTS OF ENTRY",921130,CUSTOMS BUREAUS,108673338,-78.7319658,42.9344685,NAVTEQ,2009Q2,ONENTITY, ,TGS,AIRPORT, , , , , ,0,0
243,242,"HOUSTON SEA PORT PORT OF ENTRY / FREEPORT PORT OF ENTRY, PORT FREEPORT",979-233-3004,575 PETE SCHAFF BOULEVARD, ,FREEPORT,TX,77541, ,BRAZORIA,48039, , , , ,2009-09-15T00:00:00.000Z,PHONE,2009-09-15T00:00:00.000Z,MANUAL,"MISCELLANEOUS; OTHER; BORDER CROSSINGS AND PORTS OF ENTRY",921130,CUSTOMS BUREAUS,122892756,-95.3404022,28.9235871,NAVTEQ,2009Q2,ONENTITY,YES,TGS,WATER PORT, ,PORT DIRECTOR,979-233-8661,8:00 AM - 5:00 PM, ,1,178
244,243,"SAN LUIS PORT OF ENTRY, YUMA INTERNATIONAL AIRPORT",928-314-1295,2191 EAST 32ND STREET, ,YUMA,AZ,85365,3601,YUMA,04027, , , , ,2010-01-07T00:00:00.000Z,PHONE,2010-01-05T00:00:00.000Z,MANUAL,"MISCELLANEOUS; OTHER; BORDER CROSSINGS AND PORTS OF ENTRY",921130,CUSTOMS BUREAUS,129786215,-114.601004,32.6684095,NAVTEQ,2009Q2,ONENTITY,YES,TGS,AIRPORT, , , , , ,0,0
245,244,"PORT OF ENTRY AT ALEXANDRIA, ANDREWS AIRFORCE BASE-DOD",301-981-2791,1245 ARNOLD AVENUE, ,ANDREWS AIR FORCE BASE,MD,20762,6321,PRINCE GEORGES,24033, , , , ,2009-09-11T00:00:00.000Z,ALT REF,2009-09-11T00:00:00.000Z,MANUAL,"MISCELLANEOUS; OTHER; BORDER CROSSINGS AND PORTS OF ENTRY",921130,CUSTOMS BUREAUS,18406790,-76.8784047,38.8066837,NAVTEQ,2009Q2,ONENTITY, ,TGS,AIRPORT, ,PORT DIRECTOR,301-763-4549,8:30 AM - 5:00 PM,202-354-1000,1,91
246,245,"PORT HURON PORT OF ENTRY, SAINT CLAIR COUNTY INTERNATIONAL AIRPORT",810-985-9541,177 ASH DRIVE, ,KIMBALL,MI,48074,4403,ST CLAIR,26147,"CUSTOMS AND BORDER PROTECTION OFFICERS ARE NOT STATIONED ON SITE, MUST CALL PRIOR TO LANDING.", , , ,2009-12-22T00:00:00.000Z,PHONE,2009-12-22T00:00:00.000Z,MANUAL,"MISCELLANEOUS; OTHER; BORDER CROSSINGS AND PORTS OF ENTRY",921130,CUSTOMS BUREAUS,115648157,-82.52106,42.9099989,NAVTEQ,2009Q2,ONENTITY,NO,TGS,AIRPORT, , , , , ,0,0
247,246,"SAN DIEGO PORT OF ENTRY, SAN DIEGO INTERNATIONAL AIRPORT",619-685-4304,1240 NORTH HARBOR DRIVE, ,SAN DIEGO,CA,92101,3320,SAN DIEGO,06073, , , , ,2009-09-15T00:00:00.000Z,ALT REF,2009-09-15T00:00:00.000Z,MANUAL,"MISCELLANEOUS; OTHER; BORDER CROSSINGS AND PORTS OF ENTRY",921130,CUSTOMS BUREAUS,28423261,-117.1995544,32.7318405,NAVTEQ,2009Q2,ONENTITY, ,TGS,AIRPORT, ,PORT DIRECTOR, , , ,1,213
248,247,"SAINT PETERSBURG PORT OF ENTRY, SAINT PETERSBURG CLEARWATER INTERNATIONAL AIRPORT",727-536-7311,14700 TERMINAL BOULEVARD,SUITE 120,CLEARWATER,FL,33762,2936,PINELLAS,12103, , , , ,2009-09-16T00:00:00.000Z,ALT REF,2009-09-16T00:00:00.000Z,MANUAL,"MISCELLANEOUS; OTHER; BORDER CROSSINGS AND PORTS OF ENTRY",921130,CUSTOMS BUREAUS,122647468,-82.6911456,27.9072178,NAVTEQ,2009Q2,ONENTITY, ,TGS,AIRPORT, ,PORT DIRECTOR,727-538-0693,8:00 AM - 5:00 PM,1-877-CUSTOMS,1,55
249,248,"HARRISBURG PORT OF ENTRY, HARRISBURG INTERNATIONAL AIRPORT",717-782-4510,517 AIRPORT DRIVE, ,MIDDLETOWN,PA,17057,5042,DAUPHIN,42043, , , , ,2009-09-11T00:00:00.000Z,ALT REF,2009-09-11T00:00:00.000Z,MANUAL,"MISCELLANEOUS; OTHER; BORDER CROSSINGS AND PORTS OF ENTRY",921130,CUSTOMS BUREAUS,98363817,-76.7673257,40.1979831,NAVTEQ,2009Q2,ONENTITY, ,TGS,AIRPORT, ,PORT DIRECTOR,717-948-9294,8:30 AM - 4:30 PM,1-877-CUSTOMS,1,150
250,249,"ALBUQUERQUE PORT OF ENTRY, ALBUQUERQUE INTERNATIONAL SUNPORT AIRPORT",505-346-6992,2502 CLARK CARR LOOP SOUTHEAST, ,ALBUQUERQUE,NM,87106,5606,BERNALILLO,35001, , , , ,2009-09-14T00:00:00.000Z,ALT REF,2009-09-17T00:00:00.000Z,MANUAL,"MISCELLANEOUS; OTHER; BORDER CROSSINGS AND PORTS OF ENTRY",921130,CUSTOMS BUREAUS,21391016,-106.6166745,35.0491219,NAVTEQ,2009Q2,ONENTITY, ,TGS,AIRPORT, ,PORT DIRECTOR,505-346-6995,8:30 AM - 5:00 PM, ,1,126
251,250,"FAJARDO PORT OF ENTRY, ANTONIO RODRIGUEZ RIVERA AIRPORT",787-741-8366,CARRETERA 200, ,VIEQUES,PR,00765, ,VIEQUES,72147, , , , ,2009-12-21T00:00:00.000Z,PHONE,2009-12-21T00:00:00.000Z,MANUAL,"MISCELLANEOUS; OTHER; BORDER CROSSINGS AND PORTS OF ENTRY",921130,CUSTOMS BUREAUS,129346122,-65.4880442,18.1345425,NAVTEQ,2009Q2,ONENTITY,YES,TGS,AIRPORT, , , , , ,0,0
252,251,"SAGINAW/BAY CITY/FLINT PORT OF ENTRY, JAMES CLEMENTS MUNICIPAL AIRPORT",989-695-2871,614 SOUTH RIVER ROAD, ,BAY CITY,MI,48708,9669,BAY,26017,"CUSTOMS AND BORDER PROTECTION OFFICERS ARE NOT STATIONED ON SITE, MUST CALL PRIOR TO LANDING.", , , ,2010-01-08T00:00:00.000Z,ALT REF,2010-01-08T00:00:00.000Z,MANUAL,"MISCELLANEOUS; OTHER; BORDER CROSSINGS AND PORTS OF ENTRY",921130,CUSTOMS BUREAUS,123001616,-83.8913937,43.5469536,NAVTEQ,2009Q2,ONENTITY, ,TGS,AIRPORT, , , , , ,0,0
253,252,"BROWNSVILLE/LOS INDIOS PORT OF ENTRY, VALLEY INTERNATIONAL AIRPORT",956-542-8296,3002 HERITAGE WAY, ,HARLINGEN,TX,78550,3623,CAMERON,48061, , , , ,2009-12-31T00:00:00.000Z,ALT REF,2009-12-31T00:00:00.000Z,MANUAL,"MISCELLANEOUS; OTHER; BORDER CROSSINGS AND PORTS OF ENTRY",921130,CUSTOMS BUREAUS,122443686,-97.6619243,26.2254508,NAVTEQ,2009Q2,ONENTITY, ,TGS,AIRPORT, , , , , ,0,0
254,253,"BROWNSVILLE/LOS INDIOS PORT OF ENTRY, BROWNSVILLE SOUTH PADRE ISLAND INTERNATIONAL AIRPORT",956-542-8296,700 SOUTH MINNESOTA AVENUE, ,BROWNSVILLE,TX,78521,5739,CAMERON,48061, , , , ,2009-12-18T00:00:00.000Z,PHONE,2009-12-18T00:00:00.000Z,MANUAL,"MISCELLANEOUS; OTHER; BORDER CROSSINGS AND PORTS OF ENTRY",921130,CUSTOMS BUREAUS,17783686,-97.4317697,25.9064838,NAVTEQ,2009Q2,ONENTITY,YES,TGS,AIRPORT, , , , , ,0,0
255,254,"SAINT CROIX PORT OF ENTRY, PORT OF SAINT CROIX",340-778-2257,STATE ROUTE 68,CONTAINER PORT,CHRISTIANSTED,VI,00820, ,ST CROIX ISLAND,78010, , , , ,2009-12-30T00:00:00.000Z,ALT REF,2009-12-30T00:00:00.000Z,MANUAL,"MISCELLANEOUS; OTHER; BORDER CROSSINGS AND PORTS OF ENTRY",921130,CUSTOMS BUREAUS,120294777,-64.7461853,17.7035442,NAVTEQ,2009Q2,ONENTITY,YES,TGS,WATER PORT, , , , , ,0,0
256,255,"COOS BAY PORT OF ENTRY, OREGON INTERNATIONAL PORT OF COOS BAY",541-756-2396,125 CENTRAL AVENUE,SUITE 300,COOS BAY,OR,97420,2378,COOS,41011, , , , ,2010-01-07T00:00:00.000Z,ALT REF,2010-01-07T00:00:00.000Z,MANUAL,"MISCELLANEOUS; OTHER; BORDER CROSSINGS AND PORTS OF ENTRY",921130,CUSTOMS BUREAUS,86761366,-124.2136254,43.3676607,NAVTEQ,2009Q2,ONENTITY,NO,TGS,WATER PORT, ,PORT DIRECTOR,541-267-0168,8:00 AM - 5:00 PM,EMERGENCY 24 HOUR CONTACT NUMBER (503)326-3515,1,145
257,256,"SEATTLE PORT OF ENTRY, PORT OF SEATTLE",206-553-0770,2715 EAST MARGINAL WAY SOUTH,"TERMINAL 30, BUILDING A-5",SEATTLE,WA,98134,1107,KING,53033, , , , ,2010-01-08T00:00:00.000Z,ALT REF,2010-01-08T00:00:00.000Z,MANUAL,"MISCELLANEOUS; OTHER; BORDER CROSSINGS AND PORTS OF ENTRY",921130,CUSTOMS BUREAUS,779411071,-122.3402809,47.5831936,NAVTEQ,2009Q2,ONENTITY, ,TGS,WATER PORT, , , , , ,0,0
258,257,"DULUTH MINNESOTA AND SUPERIOR WISCONSIN PORT OF ENTRY, DULUTH SEAWAY",218-720-5203,1200 PORT TERMINAL DRIVE, ,DULUTH,MN,55802,2609,ST LOUIS,27137, , , , ,2010-01-07T00:00:00.000Z,ALT REF,2010-01-07T00:00:00.000Z,MANUAL,"MISCELLANEOUS; OTHER; BORDER CROSSINGS AND PORTS OF ENTRY",921130,CUSTOMS BUREAUS,722656219,-92.1002281,46.7561406,NAVTEQ,2009Q2,ONENTITY,NO,TGS,WATER PORT, , , , , ,0,0
259,258,"DETROIT PORT OF ENTRY, PORT OF DETROIT",313-226-3139,211 WEST FORT STREET,SUITE 1200,DETROIT,MI,48226,3238,WAYNE,26163, , , , ,2010-01-07T00:00:00.000Z,ALT REF,2010-01-08T00:00:00.000Z,MANUAL,"MISCELLANEOUS; OTHER; BORDER CROSSINGS AND PORTS OF ENTRY",921130,CUSTOMS BUREAUS,19552430,-83.0492089,42.3293743,NAVTEQ,2009Q2,ONENTITY, ,TGS,WATER PORT, , , , , ,0,0
260,259,"CLEVELAND PORT OF ENTRY, CLEVELAND HOPKINS INTERNATIONAL AIRPORT",216-267-3600,5300 RIVERSIDE DRIVE, ,CLEVELAND,OH,44135,3130,CUYAHOGA,39035, , , , ,2009-09-17T00:00:00.000Z,ALT REF,2009-09-17T00:00:00.000Z,MANUAL,"MISCELLANEOUS; OTHER; BORDER CROSSINGS AND PORTS OF ENTRY",921130,CUSTOMS BUREAUS,762119956,-81.8382044,41.413512,NAVTEQ,2009Q2,ONENTITY, ,TGS,AIRPORT, ,PORT DIRECTOR,440-891-3836,8:00 AM - 4:30 PM, ,1,137
261,260,"WORCESTER PORT OF ENTRY, WORCESTER REGIONAL AIRPORT",508-793-0293,375 AIRPORT DRIVE, ,WORCESTER,MA,01602,2294,WORCESTER,25027,"CUSTOMS AND BORDER PROTECTION OFFICERS ARE NOT STATIONED ON SITE, MUST CALL PRIOR TO LANDING.", , , ,2010-01-07T00:00:00.000Z,ALT REF,2010-01-07T00:00:00.000Z,MANUAL,"MISCELLANEOUS; OTHER; BORDER CROSSINGS AND PORTS OF ENTRY",921130,CUSTOMS BUREAUS,40019665,-71.8707495,42.269554,NAVTEQ,2009Q2,ONENTITY,NO,TGS,AIRPORT, ,PORT DIRECTOR,508-752-7080,8:00 AM - 5:00 PM, ,1,90
262,261,"WAUKEGAN PORT OF ENTRY, WAUKEGAN REGIONAL AIRPORT",847-336-2136,3558 NORTH MCAREE ROAD,WAUKEGAN REGIONAL AIRPORT,WAUKEGAN,IL,60087,1447,LAKE,17097, , , , ,2009-09-11T00:00:00.000Z,ALT REF,2009-09-11T00:00:00.000Z,MANUAL,"MISCELLANEOUS; OTHER; BORDER CROSSINGS AND PORTS OF ENTRY",921130,CUSTOMS BUREAUS,116091587,-87.8670337,42.4172679,NAVTEQ,2009Q2,ONENTITY, ,TGS,AIRPORT, ,PORT DIRECTOR,847-249-1845,12:00 PM - 8:00 PM, ,1,73
263,262,"PEORIA PORT OF ENTRY, GENERAL WAYNE A DOWNING PEORIA INTERNATIONAL AIRPORT",309-671-7047,5701 WEST SMITHVILLE ROAD,CARGO DOOR 21,BARTONVILLE,IL,61607,9100,PEORIA,17143, , , , ,2009-09-11T00:00:00.000Z,ALT REF,2009-09-11T00:00:00.000Z,MANUAL,"MISCELLANEOUS; OTHER; BORDER CROSSINGS AND PORTS OF ENTRY",921130,CUSTOMS BUREAUS,123240606,-89.6903869,40.6658294,NAVTEQ,2009Q2,ONENTITY, ,TGS,AIRPORT, ,PORT DIRECTOR,309-671-7066,8:00 AM - 4:30 PM, ,1,71
264,263,"BOISE PORT OF ENTRY, BOISE AIRPORT",208-334-9062,2873 WEST APOLLO STREET, ,BOISE,ID,83705,5014,ADA,16001, , , , ,2009-09-11T00:00:00.000Z,ALT REF,2009-09-11T00:00:00.000Z,MANUAL,"MISCELLANEOUS; OTHER; BORDER CROSSINGS AND PORTS OF ENTRY",921130,CUSTOMS BUREAUS,126124213,-116.2172535,43.56854,NAVTEQ,2009Q2,ONENTITY, ,TGS,AIRPORT, ,PORT DIRECTOR,208-334-9058,8:00 AM - 5:00 PM,EMERGENCY 24 HOUR PHONE NUMBER (503)326-3515,1,66
265,264,"DES MOINES PORT OF ENTRY, DES MOINES INTERNATIONAL AIRPORT",515-284-4403,6000 FLEUR DRIVE, ,DES MOINES,IA,50321,2871,POLK,19153, , , , ,2009-09-11T00:00:00.000Z,ALT REF,2009-09-11T00:00:00.000Z,MANUAL,"MISCELLANEOUS; OTHER; BORDER CROSSINGS AND PORTS OF ENTRY",921130,CUSTOMS BUREAUS,90263342,-93.648357,41.5309511,NAVTEQ,2009Q2,ONENTITY, ,TGS,AIRPORT, ,PORT DIRECTOR,515-256-5514,8:30 AM - 5:00 PM, ,1,65
266,265,"MASSENA PORT OF ENTRY, MASSENA INTERNATIONAL AIRPORT",315-769-3091,200 ADMINISTRATION BUILDING ROAD, ,MASSENA,NY,13662,3251,ST LAWRENCE,36089,"CUSTOMS AND BORDER PROTECTION OFFICERS ARE NOT STATIONED ON SITE, MUST CALL PRIOR TO LANDING.", , , ,2010-01-05T00:00:00.000Z,PHONE,2010-01-06T00:00:00.000Z,MANUAL,"MISCELLANEOUS; OTHER; BORDER CROSSINGS AND PORTS OF ENTRY",921130,CUSTOMS BUREAUS,107545683,-74.8422929,44.9334066,NAVTEQ,2009Q2,ONENTITY,NO,TGS,AIRPORT, , , , , ,0,0
267,266,"NEW ORLEANS PORT OF ENTRY, LOUIS ARMSTRONG NEW ORLEANS INTERNATIONAL AIRPORT",504-467-1713,900 AIRLINE DRIVE, ,KENNER,LA,70062,6923,JEFFERSON,22051, , , , ,2009-09-11T00:00:00.000Z,ALT REF,2009-09-11T00:00:00.000Z,MANUAL,"MISCELLANEOUS; OTHER; BORDER CROSSINGS AND PORTS OF ENTRY",921130,CUSTOMS BUREAUS,124689543,-90.2562703,29.9849019,NAVTEQ,2009Q2,ONENTITY, ,TGS,AIRPORT, , , , , ,0,0
268,267,"HONOLULU INTERNATIONAL AIRPORT PORT OF ENTRY, HONOLULU INTERNATIONAL AIRPORT",808-237-4601,300 RODGERS BOULEVARD, ,HONOLULU,HI,96819,1890,HONOLULU,15003, , , , ,2009-09-11T00:00:00.000Z,ALT REF,2009-09-11T00:00:00.000Z,MANUAL,"MISCELLANEOUS; OTHER; BORDER CROSSINGS AND PORTS OF ENTRY",921130,CUSTOMS BUREAUS,116853196,-157.9219698,21.33249,NAVTEQ,2009Q2,ONENTITY, ,TGS,AIRPORT, ,PORT DIRECTOR, , , ,1,217
269,268,"MYRTLE BEACH INTERNATIONAL AIRPORT PORT OF ENTRY, MYRTLE BEACH INTERNATIONAL AIRPORT",843-916-0438,1100 JET PORT ROAD, ,MYRTLE BEACH,SC,29577,4228,HORRY,45051, , , , ,2009-09-14T00:00:00.000Z,ALT REF,2009-09-16T00:00:00.000Z,MANUAL,"MISCELLANEOUS; OTHER; BORDER CROSSINGS AND PORTS OF ENTRY",921130,CUSTOMS BUREAUS,707688207,-78.9229295,33.681636,NAVTEQ,2009Q2,ONENTITY, ,TGS,AIRPORT, ,PORT DIRECTOR,843-916-0442,8:00 AM - 4:30 PM,1-877-CUSTOMS,1,166
270,269,"SAN ANTONIO PORT OF ENTRY, SAN ANTONIO INTERNATIONAL AIRPORT",210-821-6965,9800 AIRPORT BOULEVARD,SUITE 1103,SAN ANTONIO,TX,78216,4837,BEXAR,48029, , , , ,2009-09-14T00:00:00.000Z,ALT REF,2009-09-14T00:00:00.000Z,MANUAL,"MISCELLANEOUS; OTHER; BORDER CROSSINGS AND PORTS OF ENTRY",921130,CUSTOMS BUREAUS,126558378,-98.4714414,29.5262157,NAVTEQ,2009Q2,ONENTITY, ,TGS,AIRPORT, ,PORT DIRECTOR,210-821-6968,8:00 AM - 5:00 PM, ,1,184
271,270,"NEWPORT PORT OF ENTRY, PORT OF ENTRY NEWPORT OREGON",541-265-6456,600 SOUTHEAST BAY BOULEVARD, ,NEWPORT,OR,97365,4338,LINCOLN,41041,THIS IS A TEMPORARY LOCATION, , , ,2009-09-10T00:00:00.000Z,PHONE,2009-09-10T00:00:00.000Z,MANUAL,"MISCELLANEOUS; OTHER; BORDER CROSSINGS AND PORTS OF ENTRY",921130,CUSTOMS BUREAUS,121242633,-124.0460357,44.6317889,NAVTEQ,2009Q2,ONENTITY,YES,TGS,WATER PORT, ,PORT DIRECTOR,541-574-7780,8:00 AM - 5:00 PM,EMERGENCY 24 HOUR CONTACT NUMBER (503)326-3515,1,147
272,271,"SIOUX FALLS PORT OF ENTRY, JOSS FOSS FIELD AIRPORT",605-338-4384,1 WEATHER LANE,ROOM 100,SIOUX FALLS,SD,57104,0120,MINNEHAHA,46099, , , , ,2009-09-14T00:00:00.000Z,ALT REF,2009-09-14T00:00:00.000Z,MANUAL,"MISCELLANEOUS; OTHER; BORDER CROSSINGS AND PORTS OF ENTRY",921130,CUSTOMS BUREAUS,114202839,-96.7313577,43.58023,NAVTEQ,2009Q2,ONENTITY, ,TGS,AIRPORT, ,PORT DIRECTOR,605-336-7046,8:00 AM - 5:00 PM, ,1,167
273,272,"SAINT ALBANS PORT OF ENTRY, SAINT ALBANS BAY DOCK",802-524-6527,GEORGIA SHORE ROAD,SAINT ALBANS BAY DOCK,SAINT ALBANS,VT,05478, ,FRANKLIN,50011, , , , ,2009-09-16T00:00:00.000Z,PHONE,2009-09-16T00:00:00.000Z,MANUAL,"MISCELLANEOUS; OTHER; BORDER CROSSINGS AND PORTS OF ENTRY",921130,CUSTOMS BUREAUS,89389197,-73.1402223,44.8067624,NAVTEQ,2009Q2,ONENTITY,NO,TGS,WATER PORT, ,PORT DIRECTOR,802-527-1338,8:30 AM - 5:00 PM, ,1,192
274,273,"ADDISON AIRPORT PORT OF ENTRY, ADDISON AIRPORT",469-737-6913,4300 WESTGROVE DRIVE, ,ADDISON,TX,75001,3247,DALLAS,48113, , , , ,2009-09-18T00:00:00.000Z,PHONE,2009-09-18T00:00:00.000Z,MANUAL,"MISCELLANEOUS; OTHER; BORDER CROSSINGS AND PORTS OF ENTRY",921130,CUSTOMS BUREAUS,17758861,-96.8369159,32.9753917,NAVTEQ,2009Q2,ONENTITY,YES,TGS,AIRPORT, ,PORT DIRECTOR,972-788-9325,8:30 AM - 5:00 PM, ,1,175
275,274,"BATTLE CREEK PORT OF ENTRY, W K KELLOGG AIRPORT",269-965-3349,4950 DICKMAN ROAD, ,BATTLE CREEK,MI,49037,7362,CALHOUN,26025, , , , ,2009-09-18T00:00:00.000Z,ALT REF,2009-09-18T00:00:00.000Z,MANUAL,"MISCELLANEOUS; OTHER; BORDER CROSSINGS AND PORTS OF ENTRY",921130,CUSTOMS BUREAUS,16875908,-85.2551873,42.300849,NAVTEQ,2009Q2,ONENTITY, ,TGS,AIRPORT, ,PORT DIRECTOR,616-965-0661,8:00 AM - 4:30 PM, ,1,95
276,275,"NEW YORK/NEWARK PORT OF ENTRY, PORT OF NEW YORK AND NEW JERSEY",973-986-0200,888 DOREMUS AVENUE, ,NEWARK,NJ,07114,3026,ESSEX,34013,MULTIPLE CUSTOMS BUILDINGS AT THIS PORT., , , ,2010-01-11T00:00:00.000Z,ALT REF,2010-01-11T00:00:00.000Z,MANUAL,"MISCELLANEOUS; OTHER; BORDER CROSSINGS AND PORTS OF ENTRY",921130,CUSTOMS BUREAUS,119977691,-74.1333185,40.7020536,NAVTEQ,2009Q2,ONENTITY, ,TGS,WATER PORT, , , , , ,0,0
277,276,"SAN FRANCISCO PORT OF ENTRY, PORT OF SAN FRANCISCO",415-782-9200,THE EMBARCADERO,PIER 1,SAN FRANCISCO,CA,94111, ,SAN FRANCISCO,06075, , , , ,2010-01-08T00:00:00.000Z,ALT REF,2010-01-08T00:00:00.000Z,MANUAL,"MISCELLANEOUS; OTHER; BORDER CROSSINGS AND PORTS OF ENTRY",921130,CUSTOMS BUREAUS,112011102,-122.3939183,37.7974895,NAVTEQ,2009Q2,ONENTITY, ,TGS,WATER PORT, ,PORT DIRECTOR,415-705-1226,8:00 AM - 4:30 PM,PLEASE CALL (202) 354-1000,1,28
278,277,"MAYAGUEZ PORT OF ENTRY, MAYAGUEZ FERRY",787-831-3368,CARRETERA 341,MAYAGUEZ PUBLIC PIER,MAYAGUEZ,PR,00682, ,MAYAGUEZ,72097,"CUSTOMS AND BORDER PROTECTION OFFICERS ARE NOT STATIONED ON SITE, MUST CALL PRIOR TO LANDING.", , , ,2010-01-06T00:00:00.000Z,ALT REF,2010-01-06T00:00:00.000Z,MANUAL,"MISCELLANEOUS; OTHER; BORDER CROSSINGS AND PORTS OF ENTRY",921130,CUSTOMS BUREAUS,120138737,-67.1586821,18.2113894,NAVTEQ,2009Q2,ONENTITY, ,TGS,WATER PORT, , , , , ,0,0
279,278,"MILWAUKEE PORT OF ENTRY, PORT OF MILWAUKEE",414-486-7790,2323 SOUTH LINCOLN MEMORIAL DRIVE, ,MILWAUKEE,WI,53207,1054,MILWAUKEE,55079, , , , ,2010-01-11T00:00:00.000Z,ALT REF,2010-01-11T00:00:00.000Z,MANUAL,"MISCELLANEOUS; OTHER; BORDER CROSSINGS AND PORTS OF ENTRY",921130,CUSTOMS BUREAUS,124648392,-87.8911509,43.0028025,NAVTEQ,2009Q2,ONENTITY,YES,TGS,WATER PORT, , , , , ,0,0
280,279,"PROVIDENCE PORT OF ENTRY, PROVPORT",401-941-6326,35 TERMINAL ROAD, ,PROVIDENCE,RI,02905,5507,PROVIDENCE,44007, , , , ,2010-01-06T00:00:00.000Z,ALT REF,2010-01-06T00:00:00.000Z,MANUAL,"MISCELLANEOUS; OTHER; BORDER CROSSINGS AND PORTS OF ENTRY",921130,CUSTOMS BUREAUS,22147068,-71.392274,41.7966721,NAVTEQ,2009Q2,ONENTITY,NO,TGS,WATER PORT, ,PORT DIRECTOR,401-941-6628,8:00 AM - 5:00 PM, ,1,161
281,280,"CORPUS CHRISTI PORT OF ENTRY, PORT CORPUS CHRISTI",361-888-3352,222 POWER STREET, ,CORPUS CHRISTI,TX,78401,1529,NUECES,48355, , , , ,2010-01-08T00:00:00.000Z,ALT REF,2010-01-08T00:00:00.000Z,MANUAL,"MISCELLANEOUS; OTHER; BORDER CROSSINGS AND PORTS OF ENTRY",921130,CUSTOMS BUREAUS,88543036,-97.3932511,27.8039893,NAVTEQ,2009Q2,ONENTITY, ,TGS,WATER PORT, ,PORT DIRECTOR,361-888-3358,8:00 AM - 5:00 PM, ,1,176
282,281,"FALL RIVER (NEW BEDFORD) PORT OF ENTRY, PORT OF NEW BEDFORD",508-994-5158,267 MACARTHUR DRIVE, ,NEW BEDFORD,MA,02740,7300,BRISTOL,25005, , , , ,2010-01-11T00:00:00.000Z,ALT REF,2010-01-11T00:00:00.000Z,MANUAL,"MISCELLANEOUS; OTHER; BORDER CROSSINGS AND PORTS OF ENTRY",921130,CUSTOMS BUREAUS,92826630,-70.921873,41.6389388,NAVTEQ,2009Q2,ONENTITY, ,TGS,WATER PORT, ,PORT DIRECTOR,508-979-1285,8:00 AM - 5:00 PM, ,1,88
283,282,"NOME PORT OF ENTRY, PORT OF NOME",907-443-2143,307 BELMONT STREET, ,NOME,AK,99762, ,NOME,02180, , , , ,2010-01-11T00:00:00.000Z,ALT REF,2010-01-12T00:00:00.000Z,MANUAL,"MISCELLANEOUS; OTHER; BORDER CROSSINGS AND PORTS OF ENTRY",921130,CUSTOMS BUREAUS,124850324,-165.4211008,64.5024013,NAVTEQ,2009Q2,ONENTITY, ,TGS,WATER PORT, , , , , ,0,0
284,283,"NORFOLK PORT OF ENTRY, PORT OF VIRGINIA",757-533-4200,101 EAST MAIN STREET, ,NORFOLK,VA,23510,1605,NORFOLK CITY,51710, , , , ,2010-01-11T00:00:00.000Z,ALT REF,2010-01-11T00:00:00.000Z,MANUAL,"MISCELLANEOUS; OTHER; BORDER CROSSINGS AND PORTS OF ENTRY",921130,CUSTOMS BUREAUS,25235978,-76.292338,36.8459371,NAVTEQ,2009Q2,ONENTITY, ,TGS,WATER PORT, , , , , ,0,0
285,284,"PHOENIX-MESA GATEWAY AIRPORT PORT OF ENTRY, PHOENIX-MESA GATEWAY AIRPORT",480-279-2928,5803 SOUTH SOSSAMAN ROAD, ,MESA,AZ,85212,5823,MARICOPA,04013, , , , ,2009-09-18T00:00:00.000Z,PHONE,2009-09-18T00:00:00.000Z,MANUAL,"MISCELLANEOUS; OTHER; BORDER CROSSINGS AND PORTS OF ENTRY",921130,CUSTOMS BUREAUS,762876461,-111.6704562,33.3112657,NAVTEQ,2009Q2,ONENTITY,YES,TGS,AIRPORT, , , , , ,0,0
286,285,"KEY WEST PORT OF ENTRY, KEY WEST INTERNATIONAL AIRPORT",305-296-5411,3491 SOUTH ROOSEVELT BOULEVARD,ADAM ARNOLD ANNEX BUILDING,KEY WEST,FL,33040,5295,MONROE,12087, , , , ,2009-09-16T00:00:00.000Z,PHONE,2009-09-17T00:00:00.000Z,MANUAL,"MISCELLANEOUS; OTHER; BORDER CROSSINGS AND PORTS OF ENTRY",921130,CUSTOMS BUREAUS,106215310,-81.7552976,24.5537178,NAVTEQ,2009Q2,ONENTITY,YES,TGS,AIRPORT, ,PORT DIRECTOR,305-536-4885,8:00 AM - 5:00 PM, ,1,43
287,286,"TULSA PORT OF ENTRY, TULSA INTERNATIONAL AIRPORT",918-832-4130,2222 NORTH CARGO ROAD, ,TULSA,OK,74115,2356,TULSA,40143, , , , ,2009-09-18T00:00:00.000Z,PHONE,2009-09-18T00:00:00.000Z,MANUAL,"MISCELLANEOUS; OTHER; BORDER CROSSINGS AND PORTS OF ENTRY",921130,CUSTOMS BUREAUS,89760676,-95.8886063,36.1878602,NAVTEQ,2009Q2,ONENTITY,YES,TGS,AIRPORT, ,PORT DIRECTOR,918-832-4135,8:30 AM - 5:00 PM, ,1,143
288,287,"BIRMINGHAM PORT OF ENTRY, BIRMINGHAM-SHUTTLESWORTH INTERNATIONAL AIRPORT",205-595-0533,5900 MESSER AIRPORT HIGHWAY, ,BIRMINGHAM,AL,35212,1057,JEFFERSON,01073, , , , ,2009-09-10T00:00:00.000Z,ALT REF,2009-09-10T00:00:00.000Z,MANUAL,"MISCELLANEOUS; OTHER; BORDER CROSSINGS AND PORTS OF ENTRY",921130,CUSTOMS BUREAUS,133515988,-86.7511113,33.5627748,NAVTEQ,2009Q2,ONENTITY, ,TGS,AIRPORT, ,PORT DIRECTOR,205-731-0776,8:00 AM - 5:00 PM, ,1,15
289,288,"CAPITAL REGION INTERNATIONAL AIRPORT LANSING PORT OF ENTRY, CAPITAL CITY AIRPORT",517-327-1052,4100 CAPITAL CITY BOULEVARD, ,LANSING,MI,48906,2170,CLINTON,26037, , , , ,2009-09-17T00:00:00.000Z,PHONE,2009-09-17T00:00:00.000Z,MANUAL,"MISCELLANEOUS; OTHER; BORDER CROSSINGS AND PORTS OF ENTRY",921130,CUSTOMS BUREAUS,16878395,-84.5889468,42.7750769,NAVTEQ,2009Q2,ONENTITY,YES,TGS,AIRPORT, , , , , ,0,0
290,289,"HILLSBORO PORT OF ENTRY, HILLSBORO AIRPORT",503-693-1069,3355 NORTHEAST CORNELL ROAD,SUITE 5,HILLSBORO,OR,97124,5018,WASHINGTON,41067, , , , ,2009-09-17T00:00:00.000Z,PHONE,2009-09-17T00:00:00.000Z,MANUAL,"MISCELLANEOUS; OTHER; BORDER CROSSINGS AND PORTS OF ENTRY",921130,CUSTOMS BUREAUS,21327289,-122.9474878,45.5331215,NAVTEQ,2009Q2,ONENTITY,YES,TGS,AIRPORT, , , , , ,0,0
291,290,"MCKINNEY PORT OF ENTRY, COLLIN COUNTY REGIONAL AIRPORT AT MCKINNEY",972-562-2550,1500 EAST INDUSTRIAL BOULEVARD, ,MCKINNEY,TX,75069,7516,COLLIN,48085, , , , ,2009-09-17T00:00:00.000Z,ALT REF,2009-09-17T00:00:00.000Z,MANUAL,"MISCELLANEOUS; OTHER; BORDER CROSSINGS AND PORTS OF ENTRY",921130,CUSTOMS BUREAUS,711389939,-96.5924945,33.1776367,NAVTEQ,2009Q2,ONENTITY, ,TGS,AIRPORT, , , , , ,0,0
292,291,"VICTORVILLE / SOUTHERN CALIFORNIA LOGISTICS AIRPORT PORT OF ENTRY, SOUTHERN CALIFORNIA LOGISTICS AIRPORT",760-243-1925,18374 READINESS STREET,SUITE 13,VICTORVILLE,CA,92394,7930,SAN BERNARDINO,06071, , , , ,2009-09-17T00:00:00.000Z,ALT REF,2009-09-18T00:00:00.000Z,MANUAL,"MISCELLANEOUS; OTHER; BORDER CROSSINGS AND PORTS OF ENTRY",921130,CUSTOMS BUREAUS,37826910,-117.377877,34.5850145,NAVTEQ,2009Q2,ONENTITY, ,TGS,AIRPORT, , , , , ,0,0
293,292,"LOGAN AIRPORT PORT OF ENTRY, GENERAL EDWARD LAWRENCE LOGAN INTERNATIONAL AIRPORT",617-568-1810,500 TERMINAL E, ,EAST BOSTON,MA,02128,2015,SUFFOLK,25025, , , , ,2009-09-18T00:00:00.000Z,ALT REF,2009-09-18T00:00:00.000Z,MANUAL,"MISCELLANEOUS; OTHER; BORDER CROSSINGS AND PORTS OF ENTRY",921130,CUSTOMS BUREAUS,92818407,-71.0196351,42.3697913,NAVTEQ,2009Q2,ONENTITY, ,TGS,AIRPORT, ,PORT DIRECTOR, , , ,1,209
294,293,"ASTORIA PORT OF ENTRY, WEST END MOURNING BASIN",503-325-5541,1402 MARINE DRIVE, ,ASTORIA,OR,97103,3808,CLATSOP,41007, , , , ,2009-09-16T00:00:00.000Z,PHONE,2009-09-11T00:00:00.000Z,MANUAL,"MISCELLANEOUS; OTHER; BORDER CROSSINGS AND PORTS OF ENTRY",921130,CUSTOMS BUREAUS,109777539,-123.8291026,46.1900271,NAVTEQ,2009Q2,ONENTITY,YES,TGS,WATER PORT, ,PORT DIRECTOR,503-325-8716,8:30AM - 4:30PM,EMERGENCY 24 HOUR CONTACT NUMBER (503)326-3515,1,144
295,294,"TACOMA PORT OF ENTRY, PORT OF TACOMA",253-593-6336,2202 PORT OF TACOMA ROAD, ,TACOMA,WA,98421,3604,PIERCE,53053, , , , ,2009-09-16T00:00:00.000Z,ALT REF,2009-09-16T00:00:00.000Z,MANUAL,"MISCELLANEOUS; OTHER; BORDER CROSSINGS AND PORTS OF ENTRY",921130,CUSTOMS BUREAUS,779549175,-122.3947345,47.2603662,NAVTEQ,2009Q2,ONENTITY, ,TGS,WATER PORT, ,PORT DIRECTOR,253-593-6351,8:00 AM - 5:00 PM, ,1,198
296,295,"BURLINGTON INTERNATIONAL AIRPORT PORT OF ENTRY, BURLINGTON INTERNATIONAL AIRPORT",802-864-5181,271 AVIATION AVENUE,SUITE 1,SOUTH BURLINGTON,VT,05403,6087,CHITTENDEN,50007, , , , ,2009-09-11T00:00:00.000Z,ALT REF,2009-09-11T00:00:00.000Z,MANUAL,"MISCELLANEOUS; OTHER; BORDER CROSSINGS AND PORTS OF ENTRY",921130,CUSTOMS BUREAUS,110390907,-73.1484028,44.4632555,NAVTEQ,2009Q2,ONENTITY, ,TGS,AIRPORT, ,PORT DIRECTOR,802-863-8270,24 HOURS, ,1,191
297,296,"DECATUR PORT OF ENTRY, DECATUR AIRPORT",217-425-4803,900 SOUTH AIRPORT ROAD, ,DECATUR,IL,62521,4287,MACON,17115, , , , ,2009-09-11T00:00:00.000Z,ALT REF,2009-09-11T00:00:00.000Z,MANUAL,"MISCELLANEOUS; OTHER; BORDER CROSSINGS AND PORTS OF ENTRY",921130,CUSTOMS BUREAUS,716230733,-88.8771634,39.8331295,NAVTEQ,2009Q2,ONENTITY, ,TGS,AIRPORT, ,PORT DIRECTOR,217-425-4806,M-F 9-5, ,1,70
298,297,"CHATTANOOGA PORT OF ENTRY, CHATTANOOGA METROPOLITAN AIRPORT",423-855-2202,1001 AIRPORT ROAD, ,CHATTANOOGA,TN,37421,2271,HAMILTON,47065, , , , ,2009-09-11T00:00:00.000Z,ALT REF,2009-09-11T00:00:00.000Z,MANUAL,"MISCELLANEOUS; OTHER; BORDER CROSSINGS AND PORTS OF ENTRY",921130,CUSTOMS BUREAUS,732495274,-85.1970876,35.0374531,NAVTEQ,2009Q2,ONENTITY, ,TGS,AIRPORT, ,PORT DIRECTOR,423-855-6627,8:00 AM - 5:00 PM, ,1,169
299,298,"DAYTONA BEACH PORT OF ENTRY, DAYTONA BEACH INTERNATIONAL AIRPORT",386-248-8043,720 CATALINA DRIVE, ,DAYTONA BEACH,FL,32114,3837,VOLUSIA,12127, , , , ,2009-09-16T00:00:00.000Z,ALT REF,2009-09-16T00:00:00.000Z,MANUAL,"MISCELLANEOUS; OTHER; BORDER CROSSINGS AND PORTS OF ENTRY",921130,CUSTOMS BUREAUS,122676154,-81.0582792,29.1846826,NAVTEQ,2009Q2,ONENTITY, ,TGS,AIRPORT, ,PORT DIRECTOR,904-248-8044,8:00 AM - 5:00 PM,1-877-CUSTOMS,1,2
300,299,"DALLAS-FORT WORTH PORT OF ENTRY, DALLAS-FORT WORTH INTERNATIONAL AIRPORT",972-870-7460,7501 ESTERS BOULEVARD,SUITE 160,IRVING,TX,75063,4027,TARRANT,48439, , , , ,2009-09-14T00:00:00.000Z,ALT REF,2009-09-14T00:00:00.000Z,MANUAL,"MISCELLANEOUS; OTHER; BORDER CROSSINGS AND PORTS OF ENTRY",921130,CUSTOMS BUREAUS,122926003,-97.0449359,32.8976458,NAVTEQ,2009Q2,ONENTITY, ,TGS,AIRPORT, ,PORT DIRECTOR,972-574-4818,8:30 AM - 5:00 PM, ,1,177
301,300,"PORT HURON PORT OF ENTRY, PORT OF HURON",810-985-7125,526 WATER STREET,ROOM 301,PORT HURON,MI,48060,5439,ST CLAIR,26147, , , , ,2009-12-22T00:00:00.000Z,ALT REF,2009-12-22T00:00:00.000Z,MANUAL,"MISCELLANEOUS; OTHER; BORDER CROSSINGS AND PORTS OF ENTRY",921130,CUSTOMS BUREAUS,127324006,-82.4257943,42.9750704,NAVTEQ,2009Q2,ONENTITY, ,TGS,WATER PORT, , , , , ,0,0
302,301,"PORT EVERGLADES/FORT LAUDERDALE PORT OF ENTRY, PORT EVERGLADES",954-761-2000,1800 ELLER DRIVE,SUITE 104,FORT LAUDERDALE,FL,33316,4209,BROWARD,12011, , , , ,2009-12-21T00:00:00.000Z,ALT REF,2009-12-21T00:00:00.000Z,MANUAL,"MISCELLANEOUS; OTHER; BORDER CROSSINGS AND PORTS OF ENTRY",921130,CUSTOMS BUREAUS,122642489,-80.1236932,26.0815304,NAVTEQ,2009Q2,ONENTITY,YES,TGS,WATER PORT, , , , , ,0,0
303,302,"SAN FRANCISCO PORT OF ENTRY, PORT OF OAKLAND",510-273-4336,700 MARITIME STREET, ,OAKLAND,CA,94607,1001,ALAMEDA,06001, , , , ,2009-12-31T00:00:00.000Z,ALT REF,2009-12-31T00:00:00.000Z,MANUAL,"MISCELLANEOUS; OTHER; BORDER CROSSINGS AND PORTS OF ENTRY",921130,CUSTOMS BUREAUS,773240239,-122.3139503,37.8091502,NAVTEQ,2009Q2,ONENTITY, ,TGS,WATER PORT, , , , , ,0,0
304,303,"LOS ANGELES/LONG BEACH SEAPORT PORT OF ENTRY, PORT OF LOS ANGELES",562-366-5555,425 SOUTH PALOS VERDES STREET, ,SAN PEDRO,CA,90731,3309,LOS ANGELES,06037, , , , ,2010-01-07T00:00:00.000Z,ALT REF,2010-01-07T00:00:00.000Z,MANUAL,"MISCELLANEOUS; OTHER; BORDER CROSSINGS AND PORTS OF ENTRY",921130,CUSTOMS BUREAUS,23933864,-118.2819332,33.7406476,NAVTEQ,2009Q2,ONENTITY,NO,TGS,WATER PORT, , , , , ,0,0
305,304,"SAULT SAINTE MARIE PORT OF ENTRY / SAGINAW/BAY CITY/FLINT PORT OF ENTRY, PORT INLAND SEAPORT",906-632-2631,900 INTERNATIONAL BRIDGE PLAZA, ,SAULT SAINTE MARIE,MI,49783, ,SCHOOLCRAFT,26153,ADDRESS GOES TO ADMINISTRATION BUILDING FOR THE SAULT SAINTE MARIE PORT OF ENTRY., , , ,2010-01-07T00:00:00.000Z,ALT REF,2010-01-07T00:00:00.000Z,MANUAL,"MISCELLANEOUS; OTHER; BORDER CROSSINGS AND PORTS OF ENTRY",921130,CUSTOMS BUREAUS,775115354,-85.8722065,45.9687708,NAVTEQ,2009Q2,ONENTITY, ,TGS,WATER PORT, , , , , ,0,0
306,305,"SAULT SAINTE MARIE PORT OF ENTRY / SAGINAW/BAY CITY/FLINT PORT OF ENTRY, PORT DOLOMITE SEAPORT",906-632-2631,900 INTERNATIONAL BRIDGE PLAZA, ,SAULT SAINTE MARIE,MI,49783, ,MACKINAC,26097,ADDRESS GOES TO ADMINISTRATION BUILDING FOR THE SAULT SAINTE MARIE PORT OF ENTRY., , , ,2010-01-07T00:00:00.000Z,ALT REF,2010-01-07T00:00:00.000Z,MANUAL,"MISCELLANEOUS; OTHER; BORDER CROSSINGS AND PORTS OF ENTRY",921130,CUSTOMS BUREAUS,122979097,-84.2751364,45.9830678,NAVTEQ,2009Q2,ONENTITY, ,TGS,WATER PORT, , , , , ,0,0
307,306,"PORTLAND PORT OF ENTRY, PORT OF PORTLAND",503-240-6700,7201 NORTH MARINE DRIVE, ,PORTLAND,OR,97203,6450,MULTNOMAH,41051,ENTITY UNCOOPERATIVE UNABLE TO VERIFY MAIN BUILDING AT TERMINAL PLOTTED IN THE CENTER OF THE CLUSTER OF BUILDINGS, , , ,2009-12-22T00:00:00.000Z,ALT REF,2009-12-22T00:00:00.000Z,MANUAL,"MISCELLANEOUS; OTHER; BORDER CROSSINGS AND PORTS OF ENTRY",921130,CUSTOMS BUREAUS,124509945,-122.7522662,45.6370736,NAVTEQ,2009Q2,ONENTITY,NO,TGS,WATER PORT, , , , , ,0,0
308,307,"PORT ARTHUR-BEAUMONT PORT OF ENTRY / SABINE PORT OF ENTRY, PORT ARTHUR INTERNATIONAL PUBLIC PORT",409-727-2895,221 HOUSTON AVENUE, ,PORT ARTHUR,TX,77640,6415,JEFFERSON,48245, , , , ,2010-01-08T00:00:00.000Z,ALT REF,2010-01-08T00:00:00.000Z,MANUAL,"MISCELLANEOUS; OTHER; BORDER CROSSINGS AND PORTS OF ENTRY",921130,CUSTOMS BUREAUS,711763173,-93.9369238,29.8670915,NAVTEQ,2009Q2,ONENTITY, ,TGS,WATER PORT, ,PORT DIRECTOR,409-727-6360,8:00 AM-12:00 PM, ,1,183
309,308,"NEW RIVER VALLEY AIRPORT PORT OF ENTRY, NEW RIVER VALLEY AIRPORT",540-674-4414,5389 CV JACKSON ROAD,SUITE 2,DUBLIN,VA,24084,2637,PULASKI,51155, , , , ,2009-09-16T00:00:00.000Z,PHONE,2009-09-16T00:00:00.000Z,MANUAL,"MISCELLANEOUS; OTHER; BORDER CROSSINGS AND PORTS OF ENTRY",921130,CUSTOMS BUREAUS,123457219,-80.6809167,37.1386921,NAVTEQ,2009Q2,ONENTITY,YES,TGS,AIRPORT, ,PORT DIRECTOR,540-674-4527,MONDAY- FRIDAY 8-5:0,LANDING RIGHTS/USER FEE AIRPORT  1-877-CUSTOMS TO,1,186
310,309,"SALT LAKE CITY PORT OF ENTRY, SALT LAKE INTERNATIONAL AIRPORT",801-524-3445,3850 NORTH TERMINAL DRIVE,INTERNATIONAL ARRIVALS BUILDING,SALT LAKE CITY,UT,84116, ,SALT LAKE,49035, , , , ,2009-09-11T00:00:00.000Z,ALT REF,2009-09-11T00:00:00.000Z,MANUAL,"MISCELLANEOUS; OTHER; BORDER CROSSINGS AND PORTS OF ENTRY",921130,CUSTOMS BUREAUS,32093600,-111.9844197,40.7867294,NAVTEQ,2009Q2,ONENTITY, ,TGS,AIRPORT, ,PORT DIRECTOR,801-524-3447,8:00 AM - 5:00 PM, ,1,185
311,310,"PORT MANATEE PORT OF ENTRY, PORT MANATEE",941-729-9301,400 TAMPA BAY WAY, ,PALMETTO,FL,34221,6614,MANATEE,12081, , , , ,2009-09-16T00:00:00.000Z,PHONE,2009-09-16T00:00:00.000Z,MANUAL,"MISCELLANEOUS; OTHER; BORDER CROSSINGS AND PORTS OF ENTRY",921130,CUSTOMS BUREAUS,17170129,-82.5608167,27.6324836,NAVTEQ,2009Q2,ONENTITY,YES,TGS,WATER PORT, ,PORT DIRECTOR,941-729-9301, , ,1,52
312,311,"MEMPHIS PORT OF ENTRY, MEMPHIS INTERNATIONAL AIRPORT",901-544-0290,3150 TCHULAHOMA ROAD,SUITE 1,MEMPHIS,TN,38118,2730,SHELBY,47157, , , , ,2009-09-17T00:00:00.000Z,PHONE,2009-09-11T00:00:00.000Z,MANUAL,"MISCELLANEOUS; OTHER; BORDER CROSSINGS AND PORTS OF ENTRY",921130,CUSTOMS BUREAUS,24928432,-89.9518232,35.0627587,NAVTEQ,2009Q2,ONENTITY,YES,TGS,AIRPORT, ,PORT DIRECTOR,901-544-0294,8:00 AM - 5:00 PM, ,1,171
313,312,"FARGO-HECTOR INTERNATIONAL AIRPORT PORT OF ENTRY, HECTOR INTERNATIONAL AIRPORT",701-241-8124,1801 23RD AVENUE NORTH,ROOM 105,FARGO,ND,58102,1047,CASS,38017, , , , ,2009-09-17T00:00:00.000Z,ALT REF,2009-09-17T00:00:00.000Z,MANUAL,"MISCELLANEOUS; OTHER; BORDER CROSSINGS AND PORTS OF ENTRY",921130,CUSTOMS BUREAUS,122865427,-96.809053,46.908474,NAVTEQ,2009Q2,ONENTITY, ,TGS,AIRPORT, ,PORT DIRECTOR,701-241-8124,24 HOURS, ,1,118
314,313,"TUCSON PORT OF ENTRY, TUCSON INTERNATIONAL AIRPORT",520-799-8348,7250 SOUTH TUCSON BOULEVARD, ,TUCSON,AZ,85756,6949,PIMA,04019, , , , ,2009-09-11T00:00:00.000Z,PHONE,2009-09-11T00:00:00.000Z,MANUAL,"MISCELLANEOUS; OTHER; BORDER CROSSINGS AND PORTS OF ENTRY",921130,CUSTOMS BUREAUS,737239185,-110.9374562,32.1197554,NAVTEQ,2009Q2,ONENTITY,YES,TGS,AIRPORT, ,PORT DIRECTOR,520-408-6760,8:00 AM - 4:30 PM, ,1,21
315,314,"PORT OF ENTRY AT BALTIMORE/WASHINGTON INTERNATIONAL AIRPORT, BALTIMORE/WASHINGTON INTERNATIONAL THURGOOD MARSHALL AIRPORT",410-865-2100,7590 FRIENDSHIP ROAD, ,BALTIMORE,MD,21240, ,ANNE ARUNDEL,24003, , , , ,2009-09-11T00:00:00.000Z,ALT REF,2009-09-11T00:00:00.000Z,MANUAL,"MISCELLANEOUS; OTHER; BORDER CROSSINGS AND PORTS OF ENTRY",921130,CUSTOMS BUREAUS,765160498,-76.6682629,39.1823122,NAVTEQ,2009Q2,ONENTITY, ,TGS,AIRPORT, ,PORT DIRECTOR,410-962-2747,8:00 AM - 9:00 PM,1-877-CUSTOMS,1,6
316,315,"CHICAGO PORT OF ENTRY, CHICAGO O'HARE INTERNATIONAL AIRPORT",773-894-2900,10000 BESSIE COLEMAN DRIVE,O'HARE INTERNATIONAL ARRIVALS BUILDING - T5,CHICAGO,IL,60666,5037,COOK,17031, , , , ,2009-09-11T00:00:00.000Z,ALT REF,2009-09-11T00:00:00.000Z,MANUAL,"MISCELLANEOUS; OTHER; BORDER CROSSINGS AND PORTS OF ENTRY",921130,CUSTOMS BUREAUS,19950654,-87.8903775,41.9748975,NAVTEQ,2009Q2,ONENTITY, ,TGS,AIRPORT, ,PORT DIRECTOR,773-894-2888,24, ,1,68
317,316,"PORT OF ENTRY AT SAINT PAUL, SAINT PAUL ISLAND AIRPORT",907-271-2675,JEEP TRAIL, ,SAINT PAUL ISLAND,AK,99660, ,ALEUTIANS WEST,02016, , , , ,2009-09-16T00:00:00.000Z,ALT REF,2009-10-27T00:00:00.000Z,MANUAL,"MISCELLANEOUS; OTHER; BORDER CROSSINGS AND PORTS OF ENTRY",921130,CUSTOMS BUREAUS,126063612,-170.2304466,57.157784,NAVTEQ,2009Q2,ONENTITY, ,TGS,AIRPORT, ,PORT DIRECTOR,907-271-6631,9:00 AM - 5:00 PM, ,1,12
318,317,"PORT OF ENTRY AT TERRE HAUTE, TERRE HAUTE INTERNATIONAL AIRPORT-HULMAN FIELD",812-877-2524,581 SOUTH AIRPORT STREET, ,TERRE HAUTE,IN,47803,9705,VIGO,18167, , , , ,2009-09-11T00:00:00.000Z,ALT REF,2009-09-11T00:00:00.000Z,MANUAL,"MISCELLANEOUS; OTHER; BORDER CROSSINGS AND PORTS OF ENTRY",921130,CUSTOMS BUREAUS,736024189,-87.3036975,39.4593747,NAVTEQ,2009Q2,ONENTITY, ,TGS,AIRPORT, ,PORT DIRECTOR,812-877-3853,8:00 AM - 4:00 PM, ,1,78
319,318,"RALEIGH-DURHAM PORT OF ENTRY, RALEIGH-DURHAM INTERNATIONAL AIRPORT",919-840-1160,2400 WEST TERMINAL BOULEVARD, ,MORRISVILLE,NC,27560,9217,WAKE,37183, , , , ,2009-09-11T00:00:00.000Z,ALT REF,2009-09-18T00:00:00.000Z,MANUAL,"MISCELLANEOUS; OTHER; BORDER CROSSINGS AND PORTS OF ENTRY",921130,CUSTOMS BUREAUS,125488542,-78.7929973,35.8772871,NAVTEQ,2009Q2,ONENTITY, ,TGS,AIRPORT, ,PORT DIRECTOR,919-467-0706,8:30 AM - 5:00 PM,1-877-CUSTOMS,1,115
320,319,"FAIRBANKS PORT OF ENTRY, FAIRBANKS INTERNATIONAL AIRPORT",907-474-0307,6450 AIRPORT WAY,SUITE 13,FAIRBANKS,AK,99709,4671,FAIRBANKS NORTH STAR,02090, , , , ,2009-09-16T00:00:00.000Z,ALT REF,2009-09-16T00:00:00.000Z,MANUAL,"MISCELLANEOUS; OTHER; BORDER CROSSINGS AND PORTS OF ENTRY",921130,CUSTOMS BUREAUS,704314463,-147.8668786,64.817642,NAVTEQ,2009Q2,ONENTITY, ,TGS,AIRPORT, ,PORT DIRECTOR,907-474-3035,8:00 AM - 5:00 PM, ,1,9
321,320,"WEST CHICAGO PORT OF ENTRY, DUPAGE AIRPORT",630-208-6490,2400 INTERNATIONAL DRIVE,DUPAGE AIRPORT,WEST CHICAGO,IL,60185, ,DUPAGE,17043, , , , ,2009-09-11T00:00:00.000Z,ALT REF,2009-09-11T00:00:00.000Z,MANUAL,"MISCELLANEOUS; OTHER; BORDER CROSSINGS AND PORTS OF ENTRY",921130,CUSTOMS BUREAUS,707667038,-88.2549783,41.9067589,NAVTEQ,2009Q2,ONENTITY, ,TGS,AIRPORT, ,PORT DIRECTOR,630-208-6491, , ,1,3
322,321,"SAINT LOUIS PORT OF ENTRY, LAMBERT-SAINT LOUIS INTERNATIONAL AIRPORT",314-890-9939,10701 LAMBERT INTERNATIONAL BOULEVARD, ,SAINT LOUIS,MO,63145,1000,ST LOUIS,29189, , , , ,2009-09-11T00:00:00.000Z,ALT REF,2009-09-11T00:00:00.000Z,MANUAL,"MISCELLANEOUS; OTHER; BORDER CROSSINGS AND PORTS OF ENTRY",921130,CUSTOMS BUREAUS,124940289,-90.365987,38.7428185,NAVTEQ,2009Q2,ONENTITY, ,TGS,AIRPORT, ,PORT DIRECTOR,314-428-2889,8:00 AM - 4:30 PM, ,1,105
323,322,"HILO PORT OF ENTRY, HILO INTERNATIONAL AIRPORT",808-934-5838,1363 MOKUEA STREET, ,HILO,HI,96720, ,HAWAII,15001, , , , ,2009-09-16T00:00:00.000Z,ALT REF,2009-12-30T00:00:00.000Z,MANUAL,"MISCELLANEOUS; OTHER; BORDER CROSSINGS AND PORTS OF ENTRY",921130,CUSTOMS BUREAUS,115759296,-155.0395801,19.7148057,NAVTEQ,2009Q2,ONENTITY, ,TGS,AIRPORT, ,PORT DIRECTOR,808-933-6976,7:00 AM - 5:00 PM, ,1,61
324,323,"WILMINGTON PORT OF ENTRY, PORT OF WILMINGTON",910-772-5900,1 SHIPYARD BOULEVARD, ,WILMINGTON,NC,28412,6239,NEW HANOVER,37129, , , , ,2009-12-31T00:00:00.000Z,ALT REF,2009-12-31T00:00:00.000Z,MANUAL,"MISCELLANEOUS; OTHER; BORDER CROSSINGS AND PORTS OF ENTRY",921130,CUSTOMS BUREAUS,127869604,-77.9512925,34.1906678,NAVTEQ,2009Q2,ONENTITY,YES,TGS,WATER PORT, ,PORT DIRECTOR,910-815-4581,8:00 AM - 5:00 PM,1-877-CUSTOMS,1,116
325,324,"BUFFALO PORT OF ENTRY, PORT OF BUFFALO",716-843-8300,726 EXCHANGE STREET,SUITE 400,BUFFALO,NY,14210,1469,ERIE,36029, , , , ,2009-12-22T00:00:00.000Z,PHONE,2009-12-31T00:00:00.000Z,MANUAL,"MISCELLANEOUS; OTHER; BORDER CROSSINGS AND PORTS OF ENTRY",921130,CUSTOMS BUREAUS,34109098,-78.8497949,42.8748015,NAVTEQ,2009Q2,ONENTITY,YES,TGS,WATER PORT, , , , , ,0,0
326,325,"PHILADELPHIA PORT OF ENTRY, PORT OF PHILADELPHIA",215-717-5800,200 CHESTNUT STREET, ,PHILADELPHIA,PA,19106,2912,PHILADELPHIA,42101, , , , ,2009-12-22T00:00:00.000Z,PHONE,2009-12-22T00:00:00.000Z,MANUAL,"MISCELLANEOUS; OTHER; BORDER CROSSINGS AND PORTS OF ENTRY",921130,CUSTOMS BUREAUS,18719191,-75.1447767,39.9479721,NAVTEQ,2009Q2,ONENTITY,YES,TGS,WATER PORT, , , , , ,0,0
327,326,"LOS ANGELES/LONG BEACH SEAPORT PORT OF ENTRY, PORT OF LONG BEACH",562-366-5555,925 HARBOR PLAZA, ,LONG BEACH,CA,90802,6402,LOS ANGELES,06037, , , , ,2010-01-07T00:00:00.000Z,PHONE,2010-01-08T00:00:00.000Z,MANUAL,"MISCELLANEOUS; OTHER; BORDER CROSSINGS AND PORTS OF ENTRY",921130,CUSTOMS BUREAUS,128781023,-118.2013728,33.7542592,NAVTEQ,2009Q2,ONENTITY,NO,TGS,WATER PORT, ,PORT DIRECTOR,562-628-7900,8:00 AM - 4:30 PM, ,1,26
328,327,"PANAMA CITY PORT OF ENTRY, PORT PANAMA CITY",850-785-4688,5209 WEST UNITED STATES HIGHWAY 98, ,PANAMA CITY,FL,32401, ,BAY,12005, , , , ,2009-12-21T00:00:00.000Z,PHONE,2009-12-21T00:00:00.000Z,MANUAL,"MISCELLANEOUS; OTHER; BORDER CROSSINGS AND PORTS OF ENTRY",921130,CUSTOMS BUREAUS,119037391,-85.7277247,30.1832957,NAVTEQ,2009Q2,ONENTITY,YES,TGS,WATER PORT, ,PORT DIRECTOR,850-785-1534,8:30 AM - 5:00 PM,1-877-CUSTOMS,1,49
329,328,"SAN JUAN PORT OF ENTRY, FERNANDO LUIS RIBAS DOMINICCI AIRPORT",787-729-6850,CALLE LA PUNTILLA 1,CUARTO 214,SAN JUAN,PR,00901, ,SAN JUAN,72127,"ENTITY GAVE OFFICIAL NAME AS FERNANDO LUIS RIBAS DOMINICCI AIRPORT. THOUGH ENTITY DOES HAVE AN AIRPORT, PRIMARY FUNCTION IS WATER PORT.", , , ,2009-09-15T00:00:00.000Z,PHONE,2010-01-08T00:00:00.000Z,MANUAL,"MISCELLANEOUS; OTHER; BORDER CROSSINGS AND PORTS OF ENTRY",921130,CUSTOMS BUREAUS,120248248,-66.1155451,18.4628171,NAVTEQ,2009Q2,ONENTITY,YES,TGS,WATER PORT, ,PORT DIRECTOR,787-729-6678,8:00 AM - 4:30 PM, ,1,159
330,329,"GLOUCESTER PORT OF ENTRY, SALEM HARBOR",978-921-0782,51 WINTER ISLAND ROAD, ,SALEM,MA,01970,5715,ESSEX,25009, , , , ,2010-01-11T00:00:00.000Z,PHONE,2010-01-11T00:00:00.000Z,MANUAL,"MISCELLANEOUS; OTHER; BORDER CROSSINGS AND PORTS OF ENTRY",921130,CUSTOMS BUREAUS,22080853,-70.8691786,42.5267263,NAVTEQ,2009Q2,ONENTITY,NO,TGS,WATER PORT, ,PORT DIRECTOR,978-282-4678,8:00 AM - 4:30 PM, ,1,5
331,330,"PORT LAVACA-POINT COMFORT PORT OF ENTRY, PORT OF POINT LAVACA-POINT COMFORT",361-888-3352,2313 FARM TO MARKET 1593 SOUTH, ,POINT COMFORT,TX,77978, ,CALHOUN,48057, , , , ,2010-01-08T00:00:00.000Z,PHONE,2010-01-08T00:00:00.000Z,MANUAL,"MISCELLANEOUS; OTHER; BORDER CROSSINGS AND PORTS OF ENTRY",921130,CUSTOMS BUREAUS,112550874,-96.5456816,28.647256,NAVTEQ,2009Q2,ONENTITY,YES,TGS,WATER PORT, ,PORT DIRECTOR,361-888-3358, , ,1,7
332,331,"GEORGETOWN PORT OF ENTRY, PORT OF GEORGETOWN",843-916-0438,STATE PORTS AUTHORITY,PIER 31,GEORGETOWN,SC,29440, ,GEORGETOWN,45043, , , , ,2009-12-28T00:00:00.000Z,PHONE,2009-12-28T00:00:00.000Z,MANUAL,"MISCELLANEOUS; OTHER; BORDER CROSSINGS AND PORTS OF ENTRY",921130,CUSTOMS BUREAUS,125046749,-79.2872596,33.3605739,NAVTEQ,2009Q2,ONENTITY,NO,TGS,WATER PORT, ,PORT DIRECTOR,843-579-6611,8:00 AM - 3:00 PM,1-877-CUSTOMS,1,164
333,332,"ATLANTA PORT OF ENTRY, HARTSFIELD-JACKSON ATLANTA INTERNATIONAL AIRPORT",404-209-1700,6000 NORTH TERMINAL PARKWAY, ,ATLANTA,GA,30320,7400,CLAYTON,13063, , , , ,2009-09-11T00:00:00.000Z,PHONE,2009-09-11T00:00:00.000Z,MANUAL,"MISCELLANEOUS; OTHER; BORDER CROSSINGS AND PORTS OF ENTRY",921130,CUSTOMS BUREAUS,127100012,-84.4445972,33.6407779,NAVTEQ,2009Q2,ONENTITY,NO,TGS,AIRPORT, ,PORT DIRECTOR,404-675-1296,8:00 AM - 4:30 PM,1-877-CUSTOMS,1,58
334,333,"MINNEAPOLIS PORT OF ENTRY, MINNEAPOLIS SAINT PAUL INTERNATIONAL AIRPORT",612-726-6465,7150 HUMPHREY DRIVE, ,MINNEAPOLIS,MN,55450,1108,HENNEPIN,27053, , , , ,2009-09-11T00:00:00.000Z,ALT REF,2009-09-17T00:00:00.000Z,MANUAL,"MISCELLANEOUS; OTHER; BORDER CROSSINGS AND PORTS OF ENTRY",921130,CUSTOMS BUREAUS,732558902,-93.2282975,44.8739734,NAVTEQ,2009Q2,ONENTITY, ,TGS,AIRPORT, ,PORT DIRECTOR,612-348-1630,8:00AM-4:30PM, ,1,101
335,334,"CHICAGO PORT OF ENTRY, CHICAGO MIDWAY INTERNATIONAL AIRPORT",773-948-6330,5700 SOUTH CICERO AVENUE, ,CHICAGO,IL,60638,3831,COOK,17031, , , , ,2009-09-11T00:00:00.000Z,ALT REF,2009-09-11T00:00:00.000Z,MANUAL,"MISCELLANEOUS; OTHER; BORDER CROSSINGS AND PORTS OF ENTRY",921130,CUSTOMS BUREAUS,125156914,-87.7424176,41.788333,NAVTEQ,2009Q2,ONENTITY, ,TGS,AIRPORT, ,PORT DIRECTOR,312-353-2337,8:30 AM - 5:00 PM, ,1,67
336,335,"BRIDGEPORT PORT OF ENTRY, PORT OF BRIDGEPORT",203-367-9487,535 SEAVIEW AVENUE,CILCO AND MOTIVA TERMINALS,BRIDGEPORT,CT,06607,2436,FAIRFIELD,09001, , , , ,2009-09-15T00:00:00.000Z,PHONE,2009-09-15T00:00:00.000Z,MANUAL,"MISCELLANEOUS; OTHER; BORDER CROSSINGS AND PORTS OF ENTRY",921130,CUSTOMS BUREAUS,21688365,-73.1722169,41.1708958,NAVTEQ,2009Q2,ONENTITY,NO,TGS,WATER PORT, ,PORT DIRECTOR,203-334-2899,8:00 AM - 5:00 PM, ,1,33
337,336,"KAHULUI PORT OF ENTRY, KAHULUI AIRPORT",808-877-6013,1 KEOLANI PLACE, ,KAHULUI,HI,96732, ,MAUI,15009, , , , ,2009-09-11T00:00:00.000Z,ALT REF,2009-09-15T00:00:00.000Z,MANUAL,"MISCELLANEOUS; OTHER; BORDER CROSSINGS AND PORTS OF ENTRY",921130,CUSTOMS BUREAUS,115763933,-156.4374261,20.893396,NAVTEQ,2009Q2,ONENTITY, ,TGS,AIRPORT, ,PORT DIRECTOR,808-877-5703,7:00 AM - 5:00 PM, ,1,63
338,337,"LAS VEGAS PORT OF ENTRY, MCCARRAN INTERNATIONAL AIRPORT",702-736-2253,5757 WAYNE NEWTON BOULEVARD, ,LAS VEGAS,NV,89119,2407,CLARK,32003, , , , ,2009-09-11T00:00:00.000Z,ALT REF,2009-09-11T00:00:00.000Z,MANUAL,"MISCELLANEOUS; OTHER; BORDER CROSSINGS AND PORTS OF ENTRY",921130,CUSTOMS BUREAUS,766002933,-115.1526206,36.0887595,NAVTEQ,2009Q2,ONENTITY, ,TGS,AIRPORT, ,PORT DIRECTOR,702-736-2223,8:00 AM - 5:00 PM, ,1,127
339,338,"GRAND RAPIDS PORT OF ENTRY, GERALD R FORD INTERNATIONAL AIRPORT",616-942-5245,6450 AIR CARGO DRIVE SOUTHEAST, ,GRAND RAPIDS,MI,49512,9705,KENT,26081, , , , ,2009-10-23T00:00:00.000Z,PHONE,2009-10-23T00:00:00.000Z,MANUAL,"MISCELLANEOUS; OTHER; BORDER CROSSINGS AND PORTS OF ENTRY",921130,CUSTOMS BUREAUS,135471720,-85.5064447,42.8847672,NAVTEQ,2009Q2,ONENTITY,YES,TGS,AIRPORT, ,PORT DIRECTOR,616-285-0188,8:00 AM - 4:30 PM, ,1,97
340,339,"FERNANDINA BEACH PORT OF ENTRY, NASSAU TERMINAL",904-261-6154,403 NORTH 3RD STREET, ,FERNANDINA BEACH,FL,32034,4119,NASSAU,12089, , , , ,2009-09-16T00:00:00.000Z,PHONE,2009-09-16T00:00:00.000Z,MANUAL,"MISCELLANEOUS; OTHER; BORDER CROSSINGS AND PORTS OF ENTRY",921130,CUSTOMS BUREAUS,23060401,-81.4625425,30.6765568,NAVTEQ,2009Q2,ONENTITY,YES,TGS,WATER PORT, ,PORT DIRECTOR,904-277-4558,8:30 AM - 5:00 PM,1-877-CUSTOMS,1,40
341,340,"HONOLULU PORT OF ENTRY, PORT OF HONOLULU",808-356-4100,300 ALA MOANA BOULEVARD,ROOM 2-267,HONOLULU,HI,96850,2267,HONOLULU,15003, , , , ,2009-09-16T00:00:00.000Z,PHONE,2009-09-22T00:00:00.000Z,MANUAL,"MISCELLANEOUS; OTHER; BORDER CROSSINGS AND PORTS OF ENTRY",921130,CUSTOMS BUREAUS,727977501,-157.8623598,21.3040947,NAVTEQ,2009Q2,ONENTITY,YES,TGS,WATER PORT, ,PORT DIRECTOR,808-522-8081,7:30 AM - 4:30 PM, ,1,62
342,341,"SEATTLE PORT OF ENTRY, SEATTLE-TACOMA INTERNATIONAL AIRPORT",206-553-7960,17801 INTERNATIONAL BOULEVARD, ,SEATTLE,WA,98158,1202,KING,53033, , , , ,2009-09-16T00:00:00.000Z,ALT REF,2009-09-16T00:00:00.000Z,MANUAL,"MISCELLANEOUS; OTHER; BORDER CROSSINGS AND PORTS OF ENTRY",921130,CUSTOMS BUREAUS,724791231,-122.3023376,47.4387725,NAVTEQ,2009Q2,ONENTITY, ,TGS,AIRPORT, , , , , ,0,0
343,342,"MORGAN CITY PORT OF ENTRY, PORT OF MORGAN CITY",985-384-6658,800 YOUNGS ROAD, ,MORGAN CITY,LA,70380,2929,ST MARY,22101, , , , ,2009-09-11T00:00:00.000Z,PHONE,2009-09-11T00:00:00.000Z,MANUAL,"MISCELLANEOUS; OTHER; BORDER CROSSINGS AND PORTS OF ENTRY",921130,CUSTOMS BUREAUS,124670813,-91.1999773,29.6915858,NAVTEQ,2009Q2,ONENTITY,YES,TGS,WATER PORT, ,PORT DIRECTOR,504-632-8185,8:00 AM - 5:00 PM, ,1,84
344,343,"GRAMERCY PORT OF ENTRY, PORT OF GRAMERCY",225-869-3765,110 NORTH AIRLINE AVENUE, ,GRAMERCY,LA,70052,3620,ST JAMES,22093, , , , ,2009-12-16T00:00:00.000Z,PHONE,2009-12-16T00:00:00.000Z,MANUAL,"MISCELLANEOUS; OTHER; BORDER CROSSINGS AND PORTS OF ENTRY",921130,CUSTOMS BUREAUS,99473992,-90.6898866,30.047847,NAVTEQ,2009Q2,ONENTITY,YES,TGS,WATER PORT, ,PORT DIRECTOR,504-869-8909,8:00 AM - 4:00 PM, ,1,82
345,344,"PORTSMOUTH PORT OF ENTRY, PORTSMOUTH INTERNATIONAL AIRPORT",603-422-0910,42 AIRLINE AVENUE, ,PORTSMOUTH,NH,03801,2884,ROCKINGHAM,33015, , , , ,2009-09-11T00:00:00.000Z,ALT REF,2009-09-11T00:00:00.000Z,MANUAL,"MISCELLANEOUS; OTHER; BORDER CROSSINGS AND PORTS OF ENTRY",921130,CUSTOMS BUREAUS,110367058,-70.8173969,43.0820991,NAVTEQ,2009Q2,ONENTITY, ,TGS,AIRPORT, ,PORT DIRECTOR,603-422-0914,9:00 AM - 5:00 PM, ,1,121
346,345,"BUTTE AIRPORT PORT OF ENTRY, BERT MOONEY AIRPORT",406-495-2145,101 AIRPORT ROAD, ,BUTTE,MT,59701,7036,SILVER BOW,30093, , , , ,2009-09-11T00:00:00.000Z,ALT REF,2009-09-21T00:00:00.000Z,MANUAL,"MISCELLANEOUS; OTHER; BORDER CROSSINGS AND PORTS OF ENTRY",921130,CUSTOMS BUREAUS,711480146,-112.5023387,45.9547505,NAVTEQ,2009Q2,ONENTITY, ,TGS,AIRPORT, ,PORT DIRECTOR,406-494-1638,8:00 AM - 5:00 PM, ,1,110
347,346,"INTERNATIONAL FALLS PORT OF ENTRY, ELY MUNICIPAL AIRPORT",218-365-3262,1583 STATE HIGHWAY 1, ,ELY,MN,55731, ,ST LOUIS,27137, , , , ,2009-09-16T00:00:00.000Z,ALT REF,2009-09-16T00:00:00.000Z,MANUAL,"MISCELLANEOUS; OTHER; BORDER CROSSINGS AND PORTS OF ENTRY",921130,CUSTOMS BUREAUS,116453768,-91.8355397,47.8290735,NAVTEQ,2009Q2,ONENTITY, ,TGS,AIRPORT, ,PORT DIRECTOR,218-720-5216,8:00 AM - 4:30 PM, ,1,100
348,347,"MORRISTOWN AIRPORT PORT OF ENTRY, MORRISTOWN MUNICIPAL AIRPORT",973-267-0302,15 AIRPORT ROAD, ,MORRISTOWN,NJ,07960,4624,MORRIS,34027, , , , ,2009-09-16T00:00:00.000Z,PHONE,2009-09-16T00:00:00.000Z,MANUAL,"MISCELLANEOUS; OTHER; BORDER CROSSINGS AND PORTS OF ENTRY",921130,CUSTOMS BUREAUS,21785307,-74.4234265,40.7966974,NAVTEQ,2009Q2,ONENTITY,YES,TGS,AIRPORT, ,PORT DIRECTOR,973-267-1759,8:00 AM - 4:00 PM,1-877-CUSTOMS,1,123
349,348,"ROCHESTER PORT OF ENTRY, GREATER ROCHESTER INTERNATIONAL AIRPORT",585-263-6293,1200 BROOKS AVENUE, ,ROCHESTER,NY,14624,3126,MONROE,36055, , , , ,2009-09-14T00:00:00.000Z,ALT REF,2009-09-14T00:00:00.000Z,MANUAL,"MISCELLANEOUS; OTHER; BORDER CROSSINGS AND PORTS OF ENTRY",921130,CUSTOMS BUREAUS,27636797,-77.6596308,43.117747,NAVTEQ,2009Q2,ONENTITY, ,TGS,AIRPORT, ,PORT DIRECTOR,716-263-5828,8:00 AM - 5:00 PM, ,1,133
